Company Name,Website,Type,City ,State,Country,Phone
Abingdon Gas & Appliance Company,www.abingdongas.com,Gas & Oil,Abingdon,Virginia,United States,1-276-628-7262
Abraxas Petroleum,http://www.abraxaspetroleum.com/,Gas & Oil,San Antonio,Texas,United States,1-210-490-4788
Ace Tools ,http://www.acetools.com/,Gas & Oil,Burbank,California,United States,1-818-252-1981
Activa Resources LLC,activaresources.com,Gas & Oil,San Antonio,Texas,United States,1-210-271-9875
Adkins Company,tetoncapital.com,Gas & Oil,Arlington,Texas,United States,1-817-461-4690
Adobe Oil & Gas Inc,adobeog.com,Gas & Oil,Arlington,Texas,United States,1-817-461-4967
Advanced Gas Technologies,www.advgas.com,Gas & Oil,Palm,Pennsylvania,United States,1-215-541-4116
Akins Petroleum Company,www.akinsllc.com,Gas & Oil,Valdosta,Georgia ,United States,1-229-247-1839
Alaska Apollo Resources Inc,www.ngas.com,Gas & Oil,Lexington,Kentucky,United States,1-859-263-3948
Alexander Oil Company,alexanderoil.com,Gas & Oil,Seguin,Texas,United States,1-830-379-1736
Alexis Oil Company,www.alexisoil.com,Gas & Oil,Corona,California,United States,1-951-279-9830
All State Propane,www.allstatepropane.com,Gas & Oil,Sun City,California,United States,1-951-244-2484
Alliance Express,allianceexpress.com,Gas & Oil,Chelsea,Massachusetts,United States,1-508-872-1300
American Energy Group Limited,aegg.net,Gas & Oil,Westport,Connecticut,United States,1-203-222-7315
American Refining Group Inc,www.amref.com,Gas & Oil,Bradford,Pennsylvania,United States,1-814-368-1200
American Shoreline Inc,amshore.com,Gas & Oil,Corpus Christi,Texas,United States,1-361-888-4496
"American Shoreline, Inc.  ",http://www.amshore.com/,Gas & Oil,Corpus Christi,Texas,United States,1-361-888-4496
Amsoil ,http://www.amsoil.com/,Gas & Oil,Superior,Wisconsin,United States,1-800-956-5695
Anadarko Petroleum Corporation,http://www.anadarko.com/,Gas & Oil,Woodlands,Texas,United States,1-832-636-1000
Andeavor,http://www.andeavor.com/,Gas & Oil,San Antonio,Texas,United States,
Anderes Oil Inc,www.anderesoil.com,Gas & Oil,Ketchikan,Alaska,United States,1-907-225-5866
Anderson Discount Oils Inc,www.olsonenergy.com,Gas & Oil,Seattle,Washington,United States,1-206-542-2572
Anton Cooperative Association,antoncoop.com,Gas & Oil,Anton,Colorado,United States,1-970-383-2411
Apache Corporation  ,http://www.apachecorp.com/,Gas & Oil,Houston,Texas,United States,1-713-296-6000
"Apache Energy, LLC.",http://www.apachecorp.com/,Gas & Oil,Houston,Texas,United States,1-713-296-6000
Ape Inc,apefuels.com,Gas & Oil,Tucson,Arizona,United States,1-520-887-6061
Apex Oil CO Inc,ww.apexoil.com,Gas & Oil,Greensboro,North Carolina,United States,1-336-854-8556
Apex Oil Company,www.apexoil.com,Gas & Oil,Rensselaer,New York,United States,1-518-465-1557
Approved Oil CO of Brooklyn,www.approvedoil.com,Gas & Oil,Brooklyn,New York,United States,1-718-444-3400
Aquila Drilling Company,aquiladrilling.com,Gas & Oil,Wichita Falls,Texas,United States,1-940-761-3153
Aresco LP,www.arescotx.com/,Gas & Oil,Prosper,Texas,United States,1-972-992-3127
Arete Industries Inc,areteindustries.com,Gas & Oil,Westminster,Colorado,United States,1-303-652-3113
Arizona Petroleum Company,www.colopetro.com,Gas & Oil,Tucson,Arizona,United States,1-520-623-4721
Arkansas Oklahoma Gas Corporation,aogc.com,Gas & Oil,Fort Smith,Arkansas ,United States,1-479-784-2052
Armada Oil & Gas,www.armadaoil.com,Gas & Oil,Dearborn,Michigan,United States,1-313-582-1777
Aruba Petroleum Incorporated -,http://www.arubapetroleum.com/,Gas & Oil,Plano,Texas,United States,1-972-312-9366
Aspect Energy LLC,aspectenergy.com,Gas & Oil,Denver,Colorado,United States,1-303-573-7011
Associated General Contractors,agclv.org,Gas & Oil,Las Vegas,Las Vegas,United States,1-702-796-9986
Atoka Geochemical Service Corporation,atoka.com,Gas & Oil,Englewood,Colorado,United States,1-303-617-8919
Austin Utilities,www.austinutilities.com,Gas & Oil,Austin,Minnesota,United States,1-507-433-8886
Autore Oil & Propane Company,www.autoreoil.com,Gas & Oil,Cedarville,Michigan,United States,1-906-484-2233
Aztec Oil Company,www.buckeyecorp.com,Gas & Oil,El Dorado,Kansas,United States,1-316-321-6690
B & M Oil DIV,www.bmoiltulsa.com,Gas & Oil,Tulsa,Oklahoma,United States,1-918-445-0725
B D Oil Gathering Inc,bdoil.com,Gas & Oil,Marietta,Ohio,United States,1-740-374-9355
B P Amoco Marketer's Association,bpama.com,Gas & Oil,Savannah,Georgia ,United States,1-912-598-7939
Badger Lubrication Technologies,www.badgerlubrication.com,Gas & Oil,Milwaukee,Wisconsin,United States,1-414-643-0834
Bangor Gas Co LLC,www.bangorgas.com,Gas & Oil,Bangor,Maine,United States,1-207-941-9595
Barnwell Industries Inc,brninc.com,Gas & Oil,Honolulu,Hawaii,United States,1-808-531-8400
"Barnwell Industries, Inc.  ",http://www.brninc.com/,Gas & Oil,Honolulu,Hawaii,United States,1-808-531-8400
Barrett Resources Corporation,http://www.billbarrettcorp.com/,Gas & Oil,Denver,Colorado,United States,1-303-293-9100
Bay City Gas Company,www.baycitygas.com,Gas & Oil,Bay City,Texas,United States,1-979-245-2327
Bay Geophysical Associates Inc,www.baygeo.com,Gas & Oil,Traverse City,Michigan,United States,1-231-941-7660
Baytex Energy Ltd.,http://www.baytexenergy.com/,Gas & Oil,Calgary,Alberta,Canada,1-587-952-3000
Bear Oil Company,www.bearoil.com,Gas & Oil,San Antonio,Texas,United States,1-210-494-3479
Beaudry Oil Company,www.beaudryoil.com,Gas & Oil,Elk River,Minnesota,United States,1-763-441-2383
Beaver Petroleum Company,www.beaverpetroleum.com,Gas & Oil,Canton,Ohio,United States,1-330-454-2242
Belcourt Oil Company,www.belcourt.k12.nd.us,Gas & Oil,Belcourt,North Dakota,United States,1-701-477-6155
Bell Petroleum Limited,www.bellpetroleum.com,Gas & Oil,Smithtown,New York,United States,1-631-265-6677
Bennett Oil Company,bennettoil.com,Gas & Oil,Prescott,Arizona,United States,1-928-445-1181
Berry Energy,www.berryenergy.com,Gas & Oil,Clarksburg,West Virginia,United States,1-304-622-3450
Berry Petroleum Company ,http://berrypetroleum.com/,Gas & Oil,Bakersfield,California,United States,1-661-616-3900
Bexar Energy,bexarenergy.com,Gas & Oil,San Antonio,Texas,United States,1-210-342-7106
BHP Petroleum Company  ,`http://www.bhpbilliton.com/,Gas & Oil,Houston,Texas,United States,1-713-961-8500
Bigelow Oil & Energy,bigelowenergy.com,Gas & Oil,Newton,Massachusetts,United States,1-614-964-1600
Bill Terpening Fuel,medfordfuel.com,Gas & Oil,Medford,Oregon,United States,1-541-476-1961
Bio-Blend Fuel Inc,bioblendfuels.com,Gas & Oil,Manitowoc,Wisconsin,United States,1-920-686-1997
Biostim Inc,www.orrco.biz,Gas & Oil,Portland,Oregon,United States,1-503-286-2713
Bishop Energy Service,www.bishopenergy.com,Gas & Oil,Midland,Michigan,United States,1-989-631-1536
Bi-State Oil Company,bistateoilcompany.com,Gas & Oil,Cape Girardeau,Missouri,United States,1-573-335-7186
Black Hills Corporation,www.blackhillscorp.com,Gas & Oil,Rapid City,South Dakota,United States,1-605-721-1700
Black Hills Exploration and Production,https://www.blackhillscorp.com/,Gas & Oil,Rapid City,South Dakota,United States,1-888-890-5554
Black Star Oil Company,http://www.a1oilrecyclingllc.com/,Gas & Oil,Los Angeles,California,United States,1-310-281-8035
Blaylock Oil Company - Dispatch,www.blaylockoil.com,Gas & Oil,Homestead,Florida ,United States,1-305-247-7249
Blight Oil & Propane Inc,blightpropane.com,Gas & Oil,Bancroft,Michigan,United States,1-989-634-9156
Blossman Oil Co,www.blossmanoil.com,Gas & Oil,Covington,Louisiana,United States,1-985-898-2663
Blue Diamond Fuel Oil Corporation,www.bluediamondfuel.com,Gas & Oil,Brooklyn,New York,United States,1-718-965-0900
Blue Dolphin Energy  ,http://www.blue-dolphin-energy.com/,Gas & Oil,Houston,Texas,United States,1-713-568-4725
Blue Flame Gas Company,midstateenergy.com,Gas & Oil,Lake Wales,Florida ,United States,1-863-676-2917
Blue Flame Gas Company,www.blueflamegascompany.com,Gas & Oil,Thomaston,Georgia ,United States,1-706-647-1590
BMH Oil,www.bmhoil.com,Gas & Oil,Wichita Falls,Texas,United States,1-800-637-1278
Boaz - Gas Board,www.boaz.net,Gas & Oil,Boaz,Alabama ,United States,1-256-593-6812
Boone Exploration Inc,booneexploration.com,Gas & Oil,Huntsville,Texas,United States,1-936-295-4066
Boregyde Inc,boregyde.com,Gas & Oil,Simi Valley,California,United States,1-805-583-5300
Boyett Petroleum,boyett.net,Gas & Oil,Modesto,California,United States,1-209-577-6000
BP Oil Company,coffmanoil.com,Gas & Oil,Morristown,Tennessee ,United States,1-423-586-0681
BP Oil Company,mcwherterspetroleum.com,Gas & Oil,Delaware,Ohio,United States,1-740-548-7632
Brabham Oil CO Inc,www.brabhamoil.com,Gas & Oil,Bamberg,South Carolina,United States,1-803-245-2471
Brad Company,bradcoinc.com,Gas & Oil,Holbrook,Arizona,United States,1-928-524-6531
Brandon Petroleum Properties,www.brandonpetro.com,Gas & Oil,Laurel,Mississippi ,United States,1-601-649-2261
Bratco Operating Company,www.bratco-operating.com,Gas & Oil,Dewey,Oklahoma,United States,1-918-534-2322
Brenner Oil,www.brenneroil.com,Gas & Oil,Holland,Michigan,United States,1-616-399-9742
BRG Energy Inc,brgcorp.com,Gas & Oil,Tulsa,Oklahoma,United States,1-918-496-2626
Bridger Pipeline LLC,www.truecos.com,Gas & Oil,Casper,Wyoming,United States,1-307-237-9301
Bridgetown Energy Corporation ,,Gas & Oil,Calgary,Alberta,Canada,1-403-263-4860
Bridgman Oil Company,www.bridgmanoil.com,Gas & Oil,Hutchinson,Kansas,United States,1-620-665-6811
Brigham Exploration Company ,http://www.brighamresources.net/,Gas & Oil,Austin,Texas,United States,1-512-220-1200
Briner Oil Company,www.brineroil.com,Gas & Oil,Jonesville,Michigan,United States,1-517-849-2144
Brown's Oil Service,brownsoilservice.com,Gas & Oil,Indianapolis,Indiana ,United States,1-317-547-5231
BTA Oil Producers,www.btaoil.com,Gas & Oil,Midland,Texas,United States,1-432-682-3753
Buckeye Oil Equipment Company,www.buckeyeoil.com,Gas & Oil,Dayton,Ohio,United States,1-937-274-8010
Burnett Oil Company,burnettoil.com,Gas & Oil,Fort Worth,Texas,United States,1-817-332-5108
Button Oil CO Inc,buttonoil.com,Gas & Oil,Mountain Top,Pennsylvania,United States,1-570-474-6635
BVM Corporation,bvmcorp.com,Gas & Oil,Stoneham,Colorado,United States,1-303-975-1402
Byrnes Oil CO Inc,www.byrnesoil.com,Gas & Oil,Pendleton,Oregon,United States,1-541-276-3361
C & C Technologies Survey Service,www.cctechnol.com,Gas & Oil,Lafayette,Louisiana,United States,1-337-261-0660
Cabot Oil & Gas Corporation,http://www.cabotog.com/,Gas & Oil,Houston,Texas,United States,1-281-589-4600
California Fresno Oil Company,www.calfresno.com,Gas & Oil,Fresno,California,United States,1-559-486-0220
California Fuels & Lubricants,www.cafueling.com,Gas & Oil,Fountain Valley,California,United States,1-714-530-4795
Callon Petroleum Company  ,http://www.callon.com/,Gas & Oil,Natchez,Mississippi ,United States,1-601-442-1601
Calumet Lubricants,calumetlubricants.com,Gas & Oil,Princeton,Louisiana,United States,1-318-949-2421
Calumet Lubricants,calumetlubricants.com,Gas & Oil,Cotton Valley,Louisiana,United States,1-318-832-4236
"Camac Holdings, Inc.",http://www.camac.com/,Gas & Oil,Houston,Texas,United States,1-713-965-5100
Canaan Resources LLC,www.canaanresources.com,Gas & Oil,Oklahoma City,Oklahoma,United States,1-405-604-9300
Carr Resources,www.carrresources.com,Gas & Oil,Tyler,Texas,United States,1-903-597-2336
Cass City Oil & Gas Company,casscitygas.com,Gas & Oil,Cass City,Michigan,United States,1-989-872-2065
Castor Oil Inc,castoroilinc.com,Gas & Oil,Plainview,Texas,United States,1-806-293-1693
Cato Oil Company,www.catooil.com,Gas & Oil,Salisbury,Maryland ,United States,1-410-546-1215
Central Oil & Supply Corporation,central-oil.com,Gas & Oil,Monroe,Louisiana,United States,1-318-388-2602
Central Penn Oil,www.asifuels.com,Gas & Oil,Elmira,New York,United States,1-607-734-2858
Centura Oil Inc,centuraoil.com,Gas & Oil,Hopkins,Minnesota,United States,1-952-545-6431
Champ Oil CO Oil Extraction,www.champoil.com,Gas & Oil,Williamsburg,Kentucky,United States,1-606-549-5797
Charles Tart Propane Inc,www.tartpropane.com,Gas & Oil,Dunn,North Carolina,United States,1-910-892-0111
Chart Distribution Group,chartauto.com,Gas & Oil,Lincoln,Illinois,United States,1-217-732-4747
Chesapeake Energy Corporation,http://www.chk.com/,Gas & Oil,Oklahoma City,Oklahoma,United States,1-877-245-1427
Cheshire Oil Co Inc,www.cheshireoil.com,Gas & Oil,Keene,New Hampshire,United States,1-603-352-2396
Cincinnati Vulcan Oil Company,www.vulcanoil.com,Gas & Oil,Cincinnati,Ohio,United States,1-513-242-2672
Citizens Oil Cooperative Inc,oilco-op.com,Gas & Oil,West Hartford,Connecticut,United States,1-860-561-6011
"Clayton Williams Energy, Inc.",http://www.claytonwilliams.com/,Gas & Oil,Midland,Texas,United States,1-432-688-3031
Clean Caribbean Corporation - Main OFC,www.cleancaribbean.org,Gas & Oil,Fort Lauderdale,Florida ,United States,1-954-983-9880
Clear River Fuel Oil,www.clearriverfueloil.com,Gas & Oil,East Hartford,Connecticut,United States,1-860-289-8858
CMS Energy Corporation,http://www.cmsenergy.com/home/default.aspx,Gas & Oil,Jackson,Mississippi ,United States,1-517-788-0550
Coast Oil Company,coastoil.com,Gas & Oil,San Jose,California,United States,1-408-251-0811
Coast Oil Company,coastoil.com,Gas & Oil,Greenfield,California,United States,1-831-674-5823
Cobra Oil & Gas Corporation,cobraogc.com,Gas & Oil,Wichita Falls,Texas,United States,1-940-716-5100
Coleman Oil,colemanoil.com,Gas & Oil,Wenatchee,Washington,United States,1-509-662-6400
Cole's BP,www.coleoilandpropane.com,Gas & Oil,Lomira,Wisconsin,United States,1-920-269-4407
Colorado County Oil CO Inc,www.coloradocountyoil.com,Gas & Oil,Columbus,Texas,United States,1-979-732-3024
Colorado Natural Gas,www.colopetro.com,Gas & Oil,Denver,Colorado,United States,1-303-294-0302
Colwell Oil CO Inc,texacocollectables.com,Gas & Oil,Waxahachie,Texas,United States,1-972-938-3830
Comfort Systems - 24-Hour Emercency Response,www.comfortsystems.ws,Gas & Oil,Duluth,Minnesota,United States,1-218-730-4100
Commissioners of Public Works,greenwoodcpw.com,Gas & Oil,Greenwood,South Carolina,United States,1-864-942-8100
Compton Petroleum Corporation,,Gas & Oil,Calgary,Alberta,Canada,1-403-237-9400
Comstock Resources Inc,www.comstockresources.com,Gas & Oil,Frisco,Texas,United States,1-972-668-8800
Connell Oil Corporation OFC,www.connelloil.com,Gas & Oil,Pasco,Washington,United States,1-509-547-3326
Contango Oil & Gas Company,https://www.contango.com/,Gas & Oil,Houston,Texas,United States,1-713-236-7400
Continental Energy Corporation,http://www.continentalenergy.com/,Gas & Oil,Vancouver,British Columbia,Canada,1-561-779-9202
Core Minerals Operating CO Inc,coreoperating.com,Gas & Oil,Evansville,Indiana ,United States,1-812-759-6950
Corey Oil Limited,www.coreyoil.com,Gas & Oil,North Lake,Wisconsin,United States,1-800-945-0231
CountryMark,www.countrymark.com,Gas & Oil,Indianapolis,Indiana ,United States,1-800-808-3170
Crimson Energy Company,crimsonenergy.com,Gas & Oil,Fort Worth,Texas,United States,1-817-820-0600
Cross Oil Refining & Marketing,crossoil.com,Gas & Oil,Smackover,Arkansas ,United States,1-870-881-8700
Crown Energy LLC,theeversullgroup.com,Gas & Oil,Frisco,Texas,United States,1-972-991-7373
Crown Exploration,crownexploration.com,Gas & Oil,Carrollton,Texas,United States,1-972-492-0058
Cunningham Energy,http://www.cunninghamenergy.com/,Gas & Oil,Charleston,West Virginia,United States,1-304-344-9291
Curlew Lake Resources Inc.,http://www.curlew-lake.com/,Gas & Oil,Vancouver,British Columbia,Canada,1-604-336-8613
Cutrona Heating Company,www.cutronaheating.com,Gas & Oil,Rochester,Pennsylvania,United States,1-724-728-6200
Dakota Gasification Co,www.dakotagasification.com,Gas & Oil,Bismarck,North Dakota,United States,1-701-221-4400
Dakota Gasification Company,www.dakotagas.com,Gas & Oil,Beulah,North Dakota,United States,1-701-873-2100
Dark Oil Company,www.darkoil.com,Gas & Oil,Attica,Kansas,United States,1-620-254-7266
Dart Energy Corporation,www.dartenergy.com,Gas & Oil,Mason,Michigan,United States,1-517-676-2900
Davidson Oil Company,www.davidsonoil.com,Gas & Oil,Amarillo,Texas,United States,1-806-374-6022
Delta Natural Gas CO Inc,www.deltagas.com,Gas & Oil,Winchester,Kentucky,United States,1-859-744-6171
Delta Oil Company,www.deltaoilcompany.com,Gas & Oil,Petersburg,Virginia,United States,1-804-733-3582
Denbury Resources Inc.,http://www.denbury.com/,Gas & Oil,Plano,Texas,United States,1-972-673-2000
Derek Resources,,Gas & Oil,Vancouver,British Columbia,Canada,1-604-331-1757
Devon Energy Corporation,http://www.devonenergy.com/,Gas & Oil,Oklahoma City,Oklahoma,United States,1-405-235-3611
Devries International,www.devriesintl.com,Gas & Oil,Irvine,California,United States,1-949-252-1212
Dewbre Petroleum Corporation,dewbre.com,Gas & Oil,Corpus Christi,Texas,United States,1-361-888-7978
Diamond Fuel Oil,www.ddmenergy.com,Gas & Oil,West Chester,Pennsylvania,United States,1-610-527-6220
Dietler Cortlandt S,www.transmontaigne.com,Gas & Oil,Denver,Colorado,United States,1-303-626-8200
Discountoil.Com,www.discountoil.com,Gas & Oil,Bethlehem,Pennsylvania,United States,1-610-868-4858
Dominick Fuel Inc,www.dominickfuel.com,Gas & Oil,Norwalk,Connecticut,United States,1-203-866-5836
Dominion Energy Inc.,https://www.dominionenergy.com/,Gas & Oil,Richmond,Virginia,United States,1-888-366-8280
Double M Sales & Service/Filter Service Corp.,doublemsales.com,Gas & Oil,Albuquerque,New Mexico,United States,1-505-327-0470
Doughtie Exploration Company,www.doughtieexploration.biz,Gas & Oil,Sugar Land,Texas,United States,1-281-494-5575
Downs Energy,www.downsenergy.com,Gas & Oil,Corona,California,United States,1-951-737-4230
Downs Energy,www.downsenergy.com,Gas & Oil,Lake Elsinore,California,United States,1-951-737-9866
"DTC Energy Group, Inc.",dtcenergygroup.com,Gas & Oil,Denver,Colorado,United States,1-303-242-3504
Duggan Oil Company,dugganoil.com,Gas & Oil,Holbrook,Massachusetts,United States,1-781-767-4400
Duke Energy Corporation,https://www.duke-energy.com/home,Gas & Oil,Charlotte,North Carolina,United States,1-800-521-2232
Duke of Oil,thedukeofoil.com,Gas & Oil,Merrillville,Indiana ,United States,1-219-769-0507
Duncan Valley Electric Cooperative,dvec.org,Gas & Oil,Duncan,Arizona,United States,1-928-359-2503
Duphil Inc,duphil.com,Gas & Oil,Orange,Texas,United States,1-409-886-0730
Dutcher & CO Inc,www.dutcherco.com,Gas & Oil,Oklahoma City,Oklahoma,United States,1-405-235-6664
"Dynegy, Inc.",https://www.dynegy.com/,Gas & Oil,Houston,Texas,United States,1-713-507-6400
E R Vine & Sons Distributors,www.vinefuels.com,Gas & Oil,Ceres,California,United States,1-209-537-0723
Earhart Petroleum Inc,www.earhartpetroleum.com,Gas & Oil,Troy,Ohio,United States,1-614-866-4176
Earlville Farmers Cooperative,earlcoop.com,Gas & Oil,Earlville,Illinois,United States,1-815-246-8181
Eastern Aviation Fuels Inc,easternaviationfuels.com,Gas & Oil,New Bern,North Carolina,United States,1-252-633-0066
Eastern Oil Company,easternoil.com,Gas & Oil,Pontiac,Michigan,United States,248-333-1333
Eastern Oil Well Service Company,primeenergy.com,Gas & Oil,Oklahoma City,Oklahoma,United States,1-405-947-1091
Eastern Shelf Consulting,eastern-shelf.com,Gas & Oil,Fort Worth,Texas,United States,1-817-568-1110
Eel River Fuels Inc,www.eelriverfuels.com,Gas & Oil,Ukiah,California,United States,1-707-462-5554
Eighty-Eight Oil LLC,www.truecos.com,Gas & Oil,Guernsey,Wyoming,United States,1-307-756-3292
El Paso Energy Corporation,https://www.kindermorgan.com/,Gas & Oil,Houston,Texas,United States,1-713-369-9000
Elite Power LLC,www.elitepowerllc.com,Gas & Oil,Dickinson,North Dakota,United States,1-701-483-8219
Elm Corporation,elmcorp.org,Gas & Oil,Mobile,Alabama ,United States,1-251-438-2510
Emerson Energy Fuels,www.emersonenergyfuels.com,Gas & Oil,Ellsworth,Maine,United States,1-207-667-2923
Empire Natural Gas Corporation,empirenatgas.com,Gas & Oil,Greene,New York,United States,1-607-656-7851
Energen Corporation,www.energen.com,Gas & Oil,Birmingham,Alabama ,United States,1-205-326-8100
Energen Resources Corporation,www.energen.com,Gas & Oil,Birmingham,Alabama ,United States,1-205-326-2710
Energy Companies of Oneok,www.oneok.com,Gas & Oil,Tulsa,Oklahoma,United States,1-918-588-7000
Energy Cooperative of America Inc,www.ecamerica.org,Gas & Oil,Amherst,New York,United States,1-716-580-3506
Energy Training Solutions LLC,energytrainingsolutions.com,Gas & Oil,The Woodlands,Texas,United States,1-281-783-5265
Enerplus Resources USA Corporation,www.enerplus.com,Gas & Oil,Denver,Colorado,United States,1-720-279-5500
ENX S.A.,,Gas & Oil,New York,New York,United States,1-646-233-2255
EOG Resources,http://www.eogresources.com/,Gas & Oil,Houston,Texas,United States,1-713-651-7000
Erie Petroleum,www.eriepetroleum.com,Gas & Oil,Erie,Pennsylvania,United States,1-814-456-7516
Eurogas Corporation,http://dundee-energy.com/,Gas & Oil,Toronto,Ontario,Canada,1-416-863-6990
Exxon Mobil,http://corporate.exxonmobil.com/en/,Gas & Oil,Irving,Texas,United States,1-800-243-9966
F C HABB,fchaab.com,Gas & Oil,Philadelphia,Pennsylvania,United States,1-215-336-3100
Fabcor Inc,www.fabco-nj.com,Gas & Oil,Long Branch,New Jersey,United States,1-732-571-3336
Fairbanks Natural Gas,www.fngas.com,Gas & Oil,Fairbanks,Alaska,United States,1-907-452-7111
Fairweather,fairweather.com,Gas & Oil,Anchorage,Alaska,United States,1-907-258-3446
Fannon Petroleum Service Inc,fannonpetroleum.com,Gas & Oil,Gainesville,Virginia,United States,1-703-468-2060
Farmers Oil Co Inc,farmersoilcoinc.com,Gas & Oil,Anthony,Kansas,United States,1-620-842-3117
Federal Oil Company,www.federaloil.com,Gas & Oil,Mount Pleasant,Michigan,United States,1-989-773-9873
Feece Oil Company,www.feeceoil.com,Gas & Oil,Batavia,Illinois,United States,1-630-879-1911
Fidelity Exploration & Production Company,,Gas & Oil,Denver,Colorado,United States,1-303-893-3133
Finest Oil Company,finest-oil.com,Gas & Oil,Missoula,Montana,United States,1-406-543-6969
Fitchburg Gas & Electric Light CO Unitil,www.unitil.com,Gas & Oil,Fitchburg,Massachusetts,United States,1-888-301-7700
Fletcher Oil,fletcheroil.com,Gas & Oil,Columbus,Georgia ,United States,1-706-322-3297
Flint Hills Resources LP,www.kochind.com,Gas & Oil,Wichita,Kansas,United States,1-316-828-7462
Flow-Zone,flow-zone.com,Gas & Oil,Pearland,Texas,United States,1-281-997-8899
Fluid Inclusion Technologies,www.fittulsa.com,Gas & Oil,Broken Arrow,Oklahoma,United States,1-918-461-8984
Fluid Tech Inc,www.fluidtechpa.com,Gas & Oil,Canonsburg,Pennsylvania,United States,1-724-942-3400
Focus Exploration,http://www.focusexploration.com/,Gas & Oil,Houston,Texas,United States,1-713-435-0021
Force Chem Technologies,forcechemtech.com,Gas & Oil,Broussard,Louisiana,United States,1-337-205-2156
Forest Oil Corporation,http://www.sabineoil.com/,Gas & Oil,Houston,Texas,United States,1-832-242-9600
Fountaintown Gas Company,fountaintowngas.net,Gas & Oil,Morristown,Indiana ,United States,1-765-763-6393
Four Wings Logistics,,Gas & Oil,San Antonio,Texas,United States,1-210-698-5335
Fox Fuel Co.,www.foxfuel.com,Gas & Oil,Willow Grove,Pennsylvania,United States,1-215-659-1616
Frazier Oil & LP Gas Company,www.frazieroil.com,Gas & Oil,Gower,Missouri,United States,1-816-424-6623
Fresh Express,energynorthgroup.com,Gas & Oil,Tewksbury,Massachusetts,United States,1-978-851-7050
Frontier Oil,http://frontieroilltd.com/,Gas & Oil,Houston,Texas,United States,1-713-325-2032
Frost Oil Company,www.frostoil.com,Gas & Oil,Van Buren,Arkansas ,United States,1-479-471-9992
Fuel Club,thefuelclub.com,Gas & Oil,Claremont,New Hampshire,United States,1-603-543-1940
Fuel Service,fuelservicellc.com,Gas & Oil,Chippewa Falls,Wisconsin,United States,1-715-723-1701
Fueltrac Inc,www.fueltrac.com,Gas & Oil,Baton Rouge,Louisiana,United States,1-225-751-6868
"FX Energy, Inc.",,Gas & Oil,Lake City,Utah,United States,1-801-486-5555
Gas Depot Oil Co,www.gasdepot.com,Gas & Oil,Morton Grove,Illinois,United States,1-847-581-0303
Gas Development Corporation,www.gasdevcorp.com,Gas & Oil,Tulsa,Oklahoma,United States,1-918-523-9090
Gas Technologies Inc,gfs-corp.net,Gas & Oil,Fort Lauderdale,Florida ,United States,1-954-693-9657
Gate Fuel Service,www.gatefuel.com,Gas & Oil,Jacksonville,Florida ,United States,1-904-636-9700
Gateway Resources USA Inc,www.gateres.com,Gas & Oil,Bartlesville,Oklahoma,United States,1-918-333-2115
Gene R George,gga-inc.com,Gas & Oil,Casper,Wyoming,United States,1-307-265-9199
Genecov Group,www.genecov.com,Gas & Oil,Tyler,Texas,United States,1-903-509-8844
Genie Oil & Gas Corporation,www.geniewell.com,Gas & Oil,Tulsa,Oklahoma,United States,1-918-747-3695
"Geodynamics, Inc.",www.perf.com,Gas & Oil,Millsap,Texas,United States,1-817-341-5300
Geo-Microbial Technologies Inc,gmtgeochem.com,Gas & Oil,Ochelata,Oklahoma,United States,1-918-535-2139
Georgia Natural Gas - Inside Metro Atlanta,www.georgianaturalgas.com,Gas & Oil,Atlanta,Georgia ,United States,1-770-850-6200
Glacial Lakes Energy LLC,www.glaciallakesenergy.com,Gas & Oil,Watertown,South Dakota,United States,1-605-882-8480
Goddard Energy Company,goddardenergy.com,Gas & Oil,Bandon,Oregon,United States,1-541-347-2808
Good Oil Company,goodoilcompany.com,Gas & Oil,Winamac,Indiana ,United States,1-574-946-4863
Grace Shursen Moore & Associates,gsm-inc.com,Gas & Oil,Amarillo,Texas,United States,1-806-358-6894
Grand Resources Inc,www.grandoil.com,Gas & Oil,Tulsa,Oklahoma,United States,1-918-492-2366
Grease Monkey,thehappycar.com,Gas & Oil,Battle Ground,Washington,United States,1-360-666-1533
Great Western Drilling Company,www.gwdc.com,Gas & Oil,Midland,Texas,United States,1-432-682-5241
Great Western Petroleum,gwpetrol.com,Gas & Oil,Missoula,Montana,United States,1-406-543-7621
Greens Energy Service,greensenergy.com,Gas & Oil,Orlando,Florida ,United States,1-407-830-5020
Greenstar Energy Production,www.greenstarenergy.com,Gas & Oil,Oklahoma City,Oklahoma,United States,1-405-604-0781
Grey Forest Utilities,greyforestutilities.com,Gas & Oil,Midland,Texas,United States,1-210-695-8781
Grimes Oil,www.grimesoil.com,Gas & Oil,Quincy,Massachusetts,United States,1-617-825-1200
Grimms Fuel Co,www.grimmsfuel.com,Gas & Oil,Tualatin,Oregon,United States,1-503-635-9147
Gulf Exploration LLC,www.garrettandco.com,Gas & Oil,Oklahoma City,Oklahoma,United States,1-405-840-3381
Gulfport Energy Corporation,www.gulfportenergy.com,Gas & Oil,Oklahoma City,Oklahoma,United States,1-405-848-8807
Gustavson Associates Inc,www.mineralsappraisers.com,Gas & Oil,Boulder,Colorado,United States,1-303-443-2209
H & M Wholesale Inc,hmwholesale.com,Gas & Oil,Helotes,Texas,United States,1-979-690-8925
Haffner's Service Stations,haffnersoil.com,Gas & Oil,Lowell,Massachusetts,United States,1-978-452-8413
Hampel Oil Distributors Inc,hampeloil.com,Gas & Oil,Iola,Kansas,United States,1-620-365-3621
Harbour Petroleum Corporation,harbourpetro.com,Gas & Oil,Melbourne,Florida ,United States,1-321-724-0641
Harding & Shelton Inc,hardingshelton.com,Gas & Oil,Oklahoma City,Oklahoma,United States,1-405-236-0080
Harper Oil Products Inc,www.harperoil.com,Gas & Oil,Florence,Kentucky,United States,1-859-283-1001
Harvest Tool LLC,harvesttool.com,Gas & Oil,Littleton,Colorado,United States,1-303-470-9202
Harvin Petroleum Company,harvinpetroleum.com,Gas & Oil,Sumter,South Carolina,United States,1-803-773-2442
Hasco Oil Company,hascooil.com,Gas & Oil,Long Beach,California,United States,1-562-426-9364
Haydens Oil Service,www.rutlandfuel.com,Gas & Oil,Rutland,Vermont,United States,1-802-773-3644
Heartland Petroleum LLC,www.heartland-petroleum.com,Gas & Oil,Columbus,Ohio,United States,1-614-441-4001
Heetco,heetco.net,Gas & Oil,Overbrook,Kansas,United States,1-785-665-7186
HEI Resources,heartlandenergy.com,Gas & Oil,Colorado Springs,Colorado,United States,1-719-226-2828
Helmerich & Payne Properties,hpinc.com,Gas & Oil,Tulsa,Oklahoma,United States,1-918-742-5531
Highland Oil Company,highlandcorp.com,Gas & Oil,Hohenwald,Tennessee ,United States,1-931-796-2274
Hill Resources Inc,hillresourcesinc.com,Gas & Oil,Oklahoma City,Oklahoma,United States,1-405-755-5826
Hoover Oil Field Supply Company,www.hooveroilfieldsupply.com,Gas & Oil,Winnie,Texas,United States,1-409-296-2525
Hornbeck Offshore Service Inc,www.hornbeckoffshore.com,Gas & Oil,Covington,Louisiana,United States,1-985-727-2000
House Oil CO Inc,barbourvilleky.com,Gas & Oil,London,Kentucky,United States,1-606-864-2665
Huber Energy,http://www.huber.com/,Gas & Oil,Edison ,New Jersey,United States,1-732-549-8600
Hunt Oil Co.,http://www.huntoil.com/,Gas & Oil,Dallas,Texas,United States,1-214-978-8000
Hunt Southland Refining Company,www.southlandoilco.com,Gas & Oil,Vicksburg,Mississippi ,United States,1-601-634-1361
Hunt Southland Refining Company,www.southlandoilco.com,Gas & Oil,Sandersville,Mississippi ,United States,1-601-426-3241
Husker Agency LLC,www.huskerag.com,Gas & Oil,Plainview,Nebraska,United States,1-402-582-4446
Husky Energy,http://www.huskyenergy.com/,Gas & Oil,Calgary,Alberta,Canada,1-403-298-6111
Hutchinson Oil Co,www.hutchs.net,Gas & Oil,Elk City,Oklahoma,United States,1-580-225-0301
Imagine Resources LLC,imagineresourcesllc.com,Gas & Oil,Corpus Christi,Texas,United States,1-361-882-2883
Imperial Oil Ltd. (Esso),http://www.imperialoil.ca/,Gas & Oil,Montreal,Quebec,Canada,1-416-682-3860
Independent Propane,www.ipropane.com,Gas & Oil,Pine,Colorado,United States,1-303-838-9880
Infinity Oil & Gas Inc,www.infinityog.com,Gas & Oil,Denver,Colorado,United States,1-303-825-0899
Innex Energy,innexenergy.com,Gas & Oil,Plano,Texas,United States,1-972-608-9994
Interstate Gas,igsenergy.com,Gas & Oil,Dublin,Ohio,United States,1-614-923-1000
ITL Inc,ifuel.net,Gas & Oil,Bell,California,United States,1-323-771-6275
J P Oil Company,jpoil.com,Gas & Oil,Lafayette,Louisiana,United States,1-337-234-1170
J&J Technical Services,http://j-jtech.com/,Gas & Oil,Shreveport,Louisiana,United States,1-318-636-6893
Jackson Energy Authorty,www.jaxenergy.com,Gas & Oil,Jackson,Tennessee ,United States,1-731-422-7500
Jackson Oil & Solvents Inc,www.jacksonoilsolvents.com,Gas & Oil,Indianapolis,Indiana ,United States,1-317-636-4421
James River Petroleum Inc,www.jrpetro.com,Gas & Oil,Richmond,Virginia,United States,1-804-358-9000
JBC Inc-Valley Oil Company,www.jbc1.com,Gas & Oil,Scottsbluff,Nebraska,United States,1-308-635-0455
Jefferson City Oil Company,www.jcoil.com,Gas & Oil,Jefferson City,Missouri,United States,1-573-634-2025
Jerry Brown Company,www.jbco.com,Gas & Oil,Eugene,Oregon,United States,1-541-688-8211
"Jetta Operating Company, Inc.",http://www.jettaoperating.com/,Gas & Oil,Fort Worth,Texas,United States,1-817-335-1179
Jetta Production Company,jettapc.com,Gas & Oil,Fort Worth,Texas,United States,1-817-335-1179
JMG Exploration Inc,skeehanco.com,Gas & Oil,Pasadena,California,United States,1-626-792-3842
John W Stone Oil Distributor,stoneoil.com,Gas & Oil,Golden Meadow,Louisiana,United States,1-985-396-2210
John Whitmire,wlandt.com,Gas & Oil,Cameron,Texas,United States,1-254-697-8098
Jones Energy Limited,jonesenergy.com,Gas & Oil,Austin,Texas,United States,1-512-328-2953
JP Oil,http://www.jpoil.com/,Gas & Oil,Lafayette,Louisiana,United States,1-337-234-1170
Jtd Resources LLC,jtdresources.com,Gas & Oil,Midland,Texas,United States,1-432-682-3712
Juniper Fuel Inc,www.juniperfuelinc.com,Gas & Oil,Redmond,Oregon,United States,1-541-548-1035
Justiss Oil CO Inc,www.justissoil.com,Gas & Oil,Jena,Louisiana,United States,1-318-992-4111
K & A Enterprises LLC,www.kaenterprisesllc.com,Gas & Oil,Meriden,Connecticut,United States,1-203-379-0193
Kaiser-Francis Oil Company,kfoc.net,Gas & Oil,Tulsa,Oklahoma,United States,1-918-494-0000
KB Johnson Oil and Gas Company,www.kbjohnson.com,Gas & Oil,Raleigh,North Carolina,United States,1-919-773-2900
Keepa Oil Corporation,maproyalty.com,Gas & Oil,Oklahoma City,Oklahoma,United States,1-405-235-4968
Keith Oil Company,www.admiralinc.com,Gas & Oil,Ferndale,Washington,United States,1-360-312-1100
Kent Oil & Propane Company,www.kentoilpropane.com,Gas & Oil,Nashville,Michigan,United States,1-517-852-9210
Kerivan-Lane Oil Company,www.kerivan-lane.com,Gas & Oil,Needham Heights,Massachusetts,United States,1-781-444-0279
Kern Oil & Refining Company,www.kernoil.com,Gas & Oil,Bakersfield,California,United States,1-661-845-0761
"Kinder Morgan, Inc.",https://www.kindermorgan.com/,Gas & Oil,Houston,Texas,United States,1-713-369-9000
Kirkpatrick Oil CO Inc,kirkpatrickoil.com,Gas & Oil,Oklahoma City,Oklahoma,United States,1-405-840-2882
Kivett Oil Company,fastphils.net,Gas & Oil,Statesville,North Carolina,United States,1-704-872-3601
Klasen Oil Company,www.klasenoil.com,Gas & Oil,Warren,Pennsylvania,United States,1-800-292-9670
Klingler Automatic,www.klinglerautomatic.com,Gas & Oil,Marine City,Michigan,United States,1-810-765-1096
Kludt & Sons Petroleum Products,www.kludtoil.com,Gas & Oil,Lodi,California,United States,1-209-368-0634
KNG Energy,www.kngenergy.com,Gas & Oil,Findlay,Ohio,United States,1-419-424-3427
"Koch Industries, Inc.",http://www.kochind.com/,Gas & Oil,Wichita,Kansas,United States,1-316-828-5500
Kuhlwein Petroleum Company,www.kuhlweinpetroleum.com,Gas & Oil,Hilliard,Ohio,United States,1-614-876-0338
L & L Oil CO Inc,lloil.com,Gas & Oil,Metairie,Louisiana,United States,1-504-832-8630
Lamamco,www.lamamco.com,Gas & Oil,Skiatook,Oklahoma,United States,1-918-396-3020
Lang Surveying,www.langsurveying.com,Gas & Oil,Bradford,Pennsylvania,United States,1-814-368-4139
Lank Oil Company,lankoil.com,Gas & Oil,Pompano Beach,Florida ,United States,1-954-978-6600
Laredo Petroleum,laredopetro.com,Gas & Oil,Tulsa,Oklahoma,United States,1-918-513-4570
Lario Oil & Gas Company,http://www.lariooil.com/,Gas & Oil,Wichita,Kansas,United States,1-316-265-5611
Leiszler Oil Company,www.leiszleroil.com,Gas & Oil,Clay Center,Kansas,United States,1-785-632-5648
Lenape Resources Inc,lenaperesources.com,Gas & Oil,Alexander,New York,United States,1-585-344-1200
Leominster Ice & Oil Co.,www.leominstericeandoil.com,Gas & Oil,Leominster,Massachusetts,United States,1-800-696-2653
Lewis & Raulerson Inc,lewisandraulerson.com,Gas & Oil,Waycross,Georgia ,United States,1-912-283-5951
Lighthouse Oil LLC,www.lighthouseoil.com,Gas & Oil,Old Saybrook,Connecticut,United States,1-860-388-0091
Lion Oil Company,lionoil.com,Gas & Oil,El Dorado,Arkansas ,United States,1-870-862-8111
Lorco Petroleum Service,www.lorcopetroleum.com,Gas & Oil,Elizabeth,New Jersey,United States,1-908-820-8800
Lorco Petroleum Services,www.lorcopetroleum.com,Gas & Oil,Edison,New Jersey,United States,1-800-734-0910
Lower Valley Energy,www.lvenergy.com,Gas & Oil,Afton,Wyoming,United States,1-307-885-3175
LYCO Energy Corporation,www.enerplus.com,Gas & Oil,Denver,Colorado,United States,1-720-279-5500
M P Mayeux Surveying & Boundry,mayeux-surveying.com,Gas & Oil,Scott,Louisiana,United States,1-337-266-9500
Madden Oil Co,www.maddenoil.com,Gas & Oil,Liberal,Kansas,United States,1-620-624-1961
Magellan Petroleum Corporation,http://www.tellurianinc.com/,Gas & Oil,Houston,Texas,United States,1-832-962-4000
Main Brothers Oil CO Inc,maincareenergy.com,Gas & Oil,Albany,New York,United States,1-518-438-4195
Main-Care Energy,www.maincareenergy.com,Gas & Oil,Albany,New York,United States,1-518-438-7856
Major Brands Oil Company,www.majorbrandsoil.com,Gas & Oil,Holland,Michigan,United States,1-616-392-5936
"Manti Resources, Inc.",http://mantires.com/,Gas & Oil,Covington,Louisiana,United States,1-985-327-5536
Marandola Fuel Service,www.marandolafuel.com,Gas & Oil,New Milford,Connecticut,United States,1-860-355-4877
Marathon Petroleum Co LLC,mapllc.com,Gas & Oil,Findlay,Ohio,United States,1-419-422-2121
Marjo Operating CO Inc,www.marjoop.com,Gas & Oil,Tulsa,Oklahoma,United States,1-918-583-0241
Marjo Operating CO Inc,www.marjoop.com,Gas & Oil,Carney,Oklahoma,United States,1-405-865-2291
Mark A O'Neal & Associates Inc,markaoneal.com,Gas & Oil,Baton Rouge,Louisiana,United States,1-225-389-1100
"MarkWest Hydrocarbon, Inc.",http://www.markwest.com/,Gas & Oil,Denver,Colorado,United States,1-303-925-9200
Maxey Energy Co,www.maxeyenergy.com,Gas & Oil,Uvalde,Texas,United States,1-830-278-7817
Mc Coy Petroleum Corporation,www.mccoypetroleum.com,Gas & Oil,Wichita,Kansas,United States,1-316-636-2737
Mc Neece Brothers Oil CO Inc,www.mcneecebros.com,Gas & Oil,Yuma,Arizona,United States,1-928-782-6543
Mc Neece Brothers Oil Company,mcneecebros.com,Gas & Oil,El Centro,California,United States,1-760-352-4721
Mc Pherson Companies Inc,mcphersonoil.com,Gas & Oil,Decatur,Alabama ,United States,1-256-353-3163
McClure Oil Corporation,www.mcclureoilcorp.com,Gas & Oil,Marion,Indiana ,United States,1-765-674-9771
McLambs LP Gas & Supplies,www.mclambslpgas.com,Gas & Oil,Dunn,North Carolina,United States,1-919-894-3842
McMoRan Oil & Gas Co.,http://www.fcx.com/,Gas & Oil,New Orleans,Louisiana,United States,1-504-582-4000
Metro Tank & Pump Company,www.metrotank.com,Gas & Oil,Wheeling,Illinois,United States,1-847-465-4000
Microbes Inc,microbesinc.com,Gas & Oil,Spring,Texas,United States,1-281-367-7500
Middleboro Gas & Electric Department,www.middleborogande.com,Gas & Oil,Middleboro,Massachusetts,United States,1-508-947-1371
Midland Transports,jcoil.com,Gas & Oil,Jefferson City,Missouri,United States,1-573-635-2008
Midwest Fuels,www.midwestfuels.com,Gas & Oil,Byron,Minnesota,United States,1-507-775-2669
Midwest Industrial Fuels,www.midwestfuels.com,Gas & Oil,La Crosse,Wisconsin,United States,1-608-782-3308
Midwestern Propane Gas Company,www.midwesternpropane.com,Gas & Oil,Belleville,Illinois,United States,1-618-234-0524
Mieco Inc,mieco.com,Gas & Oil,Long Beach,California,United States,1-562-435-0085
Millen Oil Company,millenoil.com,Gas & Oil,McKinney,Texas,United States,1-972-542-0206
"Miller Energy, Inc.",http://www.miller-energy.com/,Gas & Oil,Kalamazoo,Michigan,United States,1-269-324-3390
Miller Oil Company,www.mocgas.com,Gas & Oil,Louisville,Kentucky,United States,1-502-772-1722
Mini Gallon Oil Co,minigallon.com,Gas & Oil,Coinjock,North Carolina,United States,1-252-453-3100
Missouri Valley Petroleum,mvpinc.net,Gas & Oil,Mandan,North Dakota,United States,1-701-663-5091
Morgan Flex Pipe Inc,www.morganwellservice.com,Gas & Oil,Prague,Oklahoma,United States,1-405-567-2288
"Mulholland Energy Services, LLC",www.mulhollandenergyservices.com,Gas & Oil,McKinney,Texas,United States,1-432-695-4111
Murphy Oil Corporation,http://www.murphyoilcorp.com/,Gas & Oil,El Dorado,Arkansas ,United States,1-870-862-6411
Musselman Fred Oil Company,www.musselmanlumber.com,Gas & Oil,New Holland,Pennsylvania,United States,1-717-354-4321
National Fuel Resources Inc,nfrinc.com,Gas & Oil,Buffalo,New York,United States,1-716-630-6700
Natural Gas Service,ngsgi.com,Gas & Oil,Bloomfield,New Mexico,United States,1-505-632-4566
Nelson Fuel Inc,www.nelsonfuelinc.com,Gas & Oil,South Bend,Indiana ,United States,1-574-287-1579
New Distributing Company,www.newdistributing.com,Gas & Oil,Victoria,Texas,United States,1-361-575-1981
New Dominion LLC,www.newdominion.net,Gas & Oil,Tulsa,Oklahoma,United States,1-918-587-6242
New England Oil Company,www.newenglandoilcompany.com,Gas & Oil,Greenwich,Connecticut,United States,1-203-532-1851
New Horizon Exploration Inc.,http://www.oilandgas.com/,Gas & Oil,Houston,Texas,United States,1-281-578-0100
New Jersey Mining Company,newjerseymining.com,Gas & Oil,Kellogg,Idaho ,United States,1-208-783-1032
Newfield Exploration Company,http://www.newfield.com/,Gas & Oil,The Woodlands,Texas,United States,1-866-415-4470
Newtech Engineering,newtecheng.com,Gas & Oil,Fort Worth,Texas,United States,1-817-885-8548
Niko Resources Ltd.,http://www.nikoresources.com/,Gas & Oil,Calgary,Alberta,Canada,1-403-262-1020
Northboro Oil Co,www.northborooil.com,Gas & Oil,Northborough,Massachusetts,United States,1-508-393-6200
Northeast Energy Company,www.northeastenergy.net,Gas & Oil,West Hartford,Connecticut,United States,1-860-206-2555
"Northstar Energy, Inc.",http://nses.com/,Gas & Oil,Channelview,Texas,United States,1-281-452-2355
NT Field Services,www.ntfieldservices.com,Gas & Oil,Anaheim,California,United States,1-714-533-8128
Obele Oil Corporation,https://www.obeleoil.com/,Gas & Oil,Sedona,Arizona,United States,1-928-282-4908
Occidental Petroleum Corporation,www.glennsprings-copperbasinproject.com,Gas & Oil,Los Angeles,California,United States,1-310-208-8800
Occidental Petroleum Corporation (Oxy),http://www.oxy.com/Pages/default.aspx,Gas & Oil,Houston,Texas,United States,1-713-215-7000
Ohio Gas Company,www.ohiogas.com,Gas & Oil,Bryan,Ohio,United States,1-419-636-1117
Oil for Less,americandistributing.com,Gas & Oil,Marysville,Washington,United States,1-360-658-5027
Oil Tanking Texas City,oiltanking.com,Gas & Oil,Texas City,Texas,United States,1-409-797-1700
"ONEOK, Inc.",http://www.oneok.com/,Gas & Oil,Tulsa,Oklahoma,United States,1-918-588-7000
Oneonta Utilities Board,oneontautilities.com,Gas & Oil,Oneonta,Alabama ,United States,1-205-274-2159
Orange Line Oil CO Inc,www.orangelineoil.com,Gas & Oil,Pomona,California,United States,1-909-623-0533
Orion Exploration LLC,www.orionexploration.com,Gas & Oil,Tulsa,Oklahoma,United States,1-918-492-0254
"P3 Petroleum, LLC",http://www.p3petro.com/,Gas & Oil,Houston,Texas,United States,1-281-738-3382
Pacific Pride Coml Fueling,www.vandepolenterprises.com,Gas & Oil,Stockton,California,United States,1-209-466-5921
Palmer Petroleum Inc,www.palmerpetro.com,Gas & Oil,Shreveport,Louisiana,United States,1-318-222-0517
Paluca Petroluem Inc,palucapetroleum.com,Gas & Oil,Holdenville,Oklahoma,United States,1-405-379-5656
Pantera Energy Company,www.panteraenergy.com,Gas & Oil,Amarillo,Texas,United States,1-806-376-6625
Parallel Petroleum,http://www.parallel-petro.com/,Gas & Oil,Midland,Texas,United States,1-432-684-3727
Parker Oil & Propane CO Inc,parkeroilcompany.com,Gas & Oil,Hopewell,Virginia,United States,1-804-861-0202
Parker Oil Products Inc,parkeroilproducts.com,Gas & Oil,Parker,Arizona,United States,1-928-669-2617
Parkwest Resources Inc,ocgs.org,Gas & Oil,Oklahoma City,Oklahoma,United States,1-405-319-9300
Parwest Land Exploration,www.parwestlandexploration.com,Gas & Oil,Oklahoma City,Oklahoma,United States,1-405-843-1917
Payless Oil,www.paylessoil.net,Gas & Oil,Royersford,Pennsylvania,United States,1-484-984-8484
Payless Oil Co,www.cksmithfuel.com,Gas & Oil,Worcester,Massachusetts,United States,1-508-752-1010
Peak Completion Technologies,peakcompletions.com,Gas & Oil,Midland,Texas,United States,1-432-684-4155
Pence Petroleum,www.pencepetro.com,Gas & Oil,Bakersfield,California,United States,1-661-589-5620
"Penneco Oil Company, Inc.",http://penneco.com/,Gas & Oil,Kensington,Pennsylvania,United States,1-724-335-3611
Perham Natural Gas,www.cityofperham.com,Gas & Oil,Perham,Minnesota,United States,1-218-346-4455
Permits West Inc,www.permitswest.com,Gas & Oil,Santa Fe,New Mexico,United States,1-505-466-8120
Petrobank Energy and Resources Ltd.,,Gas & Oil,Calgary,Alberta,Canada,1-403-750-4400
Petrocon Corporation,www.petrocon.org,Gas & Oil,Frederick,Maryland ,United States,1-301-663-8906
Petroleum Development Corporation,http://www.petd.com/,Gas & Oil,Denver,Colorado,United States,1-303-860-5800
Petroleum International Inc,www.petroleumintl.com,Gas & Oil,Tulsa,Oklahoma,United States,1-918-712-1840
Petroleum Mex Inc,www.petromex.net,Gas & Oil,Midlothian,Illinois,United States,1-708-489-1733
Petroleum Quest Energy Inc,www.petroquest.com,Gas & Oil,Lafayette,Louisiana,United States,1-337-232-7028
Petroleum Software Technology,pstware.com,Gas & Oil,Aurora,Colorado,United States,1-303-337-1785
"PetroQuest Energy, Inc.",http://www.petroquest.com/,Gas & Oil,Lafayette,Louisiana,United States,1-337-232-7028
Phillips Energy Partners LLC,phillipsenergy.com,Gas & Oil,Shreveport,Louisiana,United States,1-318-698-0054
Phil's Propane Inc,www.philspropane.com,Gas & Oil,Tiverton,Rhode Island,United States,1-401-624-6395
Piceance Natural Gas Inc,fullspectrumenergy.com,Gas & Oil,Denver,Colorado,United States,1-303-832-6465
Pinnacle Oil Inc,www.pinnoil.com,Gas & Oil,Indianapolis,Indiana ,United States,1-317-875-9465
"Pioneer Natural Resources, USA",http://www.pxd.com/,Gas & Oil,Irving,Texas,United States,1-972-444-9001
Pioneer Oil and Gas,http://www.piol.com/,Gas & Oil,South Jordan,Utah,United States,1-801-566-3000
Pioneer Oil CO Inc,pioneeroil.net,Gas & Oil,Lawrenceville,Illinois,United States,1-618-943-5314
"Plains All American Pipeline, L.P.",https://www.plainsallamerican.com/,Gas & Oil,Houston,Texas,United States,1-713-646-4100
Plano Petroleum,www.planoprofile.com,Gas & Oil,Plano,Texas,United States,1-972-422-4335
Poco-Paulson Oil Company,pocooil.com,Gas & Oil,Chesterton,Indiana ,United States,1-219-926-8656
Portland Natural Gas Transmssn,pngts.com,Gas & Oil,Portsmouth,New Hampshire,United States,1-603-559-5500
Power Fuels LLC,www.power-fuels.com,Gas & Oil,Cheshire,Connecticut,United States,1-203-699-0099
Power Resources Operating Company,powerresources.com,Gas & Oil,Canton,Ohio,United States,1-330-492-6820
Precision Oil & Gas,poandg.com,Gas & Oil,Bridgeport,West Virginia,United States,1-304-848-0307
Prestige Petroleum Corporation,www.prestigepetroleum.com,Gas & Oil,East Windsor Township,New Jersey,United States,1-201-934-6100
Priestley & Sons Heating Oil,www.priestleyoil.com,Gas & Oil,Lake Oswego,Oregon,United States,1-503-774-2205
Primeland Cooperatives,www.primelandcoop.com,Gas & Oil,Lewiston,Idaho ,United States,1-208-743-8602
Primero Operating Inc,primerooperating.com,Gas & Oil,Roswell,New Mexico,United States,1-575-622-1001
Priority Fuel Inc,www.priorityfuel.net,Gas & Oil,Hartford,Connecticut,United States,1-860-527-5515
"Production Gathering Company, LLC",http://pgcgas.com/,Gas & Oil,Dallas,Texas,United States,1-972-680-9737
Purified Lubricants Inc,www.purifiedlubricants.com,Gas & Oil,Mokena,Illinois,United States,1-708-478-3500
Quality Oil Co LLC,www.preferredoil.com,Gas & Oil,Southington,Connecticut,United States,1-860-276-9932
Quality State Oil Company,qualitystate.com,Gas & Oil,Sheboygan,Wisconsin,United States,1-262-284-5656
Quest Offshore Resources,questoffshore.com,Gas & Oil,Sugar Land,Texas,United States,1-281-491-5900
Questar Pipeline Company,questarpipeline.com,Gas & Oil,Rifle,Colorado,United States,1-970-625-1017
Quinion Oil Company,www.quinoco.com,Gas & Oil,Bristol,Connecticut,United States,1-860-583-4609
R L Laughlin & Company,rllco.com,Gas & Oil,Charleston,West Virginia,United States,1-304-776-7740
R Lacy Inc,www.rlacy.com,Gas & Oil,Longview,Texas,United States,1-903-758-8276
Ram Inc,www.weallfordpropane.com,Gas & Oil,Mcalester,Oklahoma,United States,1-918-423-3121
Ramos-Strong Inc,rsipetroleum.com,Gas & Oil,Mojave,California,United States,1-661-822-4485
Range Resources Corporation,www.rangeresources.com,Gas & Oil,Fort Worth,Texas,United States,1-817-870-2601
Rebel Oil Company,www.rebeloil.com,Gas & Oil,Las Vegas,Las Vegas,United States,1-702-382-5866
Red Horse Oil Company,redhorseoil.com,Gas & Oil,Rock Springs,Wyoming,United States,1-307-362-3649
Redfield Energy,redfieldenergy.com,Gas & Oil,Redfield,South Dakota,United States,1-605-302-0090
Redigas Inc,www.redigasonline.com,Gas & Oil,McPherson,Kansas,United States,1-620-241-5282
Reeder Distributors Inc,www.reederdistributors.com,Gas & Oil,Fort Worth,Texas,United States,1-817-429-5957
Regent Resources Ltd.,http://regentresources.com/,Gas & Oil,Calgary,Alberta,Canada,1=403-264-0018
Regional Energy Group,www.regionalenergy.com,Gas & Oil,El Dorado,Kansas,United States,1-316-320-0324
Reliable Oil & Heat CO Inc - Burner Service,www.reliableoilandheat.com,Gas & Oil,Stamford,Connecticut,United States,1-203-324-2141
Reliance Energy Inc,www.reimid.com,Gas & Oil,Midland,Texas,United States,1-432-683-4816
Reserve Petroleum Company,reserve-petro.com,Gas & Oil,Oklahoma City,Oklahoma,United States,1-405-848-7551
Rex Energy,http://www.rexenergy.com/,Gas & Oil,State College,Pennsylvania,United States,1-814-278-7267
Richman Oil Corporation,richmanoil.com,Gas & Oil,Leander,Texas,United States,1-512-249-9252
Ricochet Fuel Distributors,www.ricochetfuel.com,Gas & Oil,Euless,Texas,United States,1-817-268-5910
Rinehart Oil,www.rinehartoil.com,Gas & Oil,Ukiah,California,United States,1-707-462-8811
Rio Petroleum,riopetroleum.com,Gas & Oil,Amarillo,Texas,United States,1-806-356-8033
Riviera Energy Corporation,www.rivieraenergy.com,Gas & Oil,Midland,Texas,United States,1-432-686-9400
Robert Shewokis Fuel Oil,shewokisfuels.com,Gas & Oil,New Philadelphia,Pennsylvania,United States,1-570-277-6168
Robinson Oil,www.robinsonoil.com,Gas & Oil,Garden City,Kansas,United States,1-620-276-8815
Rose Oil,www.rozoil.com,Gas & Oil,New Haven,Connecticut,United States,1-203-776-2000
Rosewood Resources,,Gas & Oil,Dallas,Texas,United States,1-214-849-9300
Ross Oil Co Inc,rossoil.com,Gas & Oil,Bayard,New Mexico,United States,1-575-483-2633
Royale Energy Inc.,http://www.royl.com/,Gas & Oil,El Cajon,California,United States,1-619-383-6600
Running Foxes Petroleum Inc,runningfoxes.com,Gas & Oil,Englewood,Colorado,United States,1-303-617-7242
Russell Oil Inc,www.russelloil.com,Gas & Oil,Plainfield,Illinois,United States,1-815-609-7000
Ruwco Oil & Gas Corporation,www.ruwco.com,Gas & Oil,Austin,Texas,United States,1-512-476-5500
Salathe Oil Company,www.salatheoil.com,Gas & Oil,Harvey,Louisiana,United States,1-504-366-4542
Samson Resources II,http://www.samson.com/,Gas & Oil,Tulsa,Oklahoma,United States,1-981-591-1791
"Sarita Energy Resources, Ltd.",http://www.saritaenergy.com/,Gas & Oil,Houston,Texas,United States,1-713-224-1681
Saveway Petroleum Inc,www.savewaypetro.com,Gas & Oil,Danielson,Connecticut,United States,1-860-779-2500
Sawyer Oil & Gas CO Inc,sogc.net,Gas & Oil,Boca Raton,Florida ,United States,1-561-393-6603
Scholl Oil & Transportation Company,scholloil.com,Gas & Oil,Holyoke,Colorado,United States,1-970-854-3300
Seismic Ventures Inc,www.seismicventures.com,Gas & Oil,Stafford,Texas,United States,1-281-240-1234
Sellers Petroleum Products,www.sellerspetroleum.com,Gas & Oil,Imperial,California,United States,1-760-355-7900
Senter Petroleum Inc,senterkauai.com,Gas & Oil,Lihue,Hawaii,United States,1-808-245-1911
Sentry Technologies Inc,www.sentryti.com,Gas & Oil,Sugar Land,Texas,United States,1-281-561-0008
Sevier County Utility District,www.scudgas.org,Gas & Oil,Sevierville,Tennessee ,United States,1-865-453-3272
SFLWELL LLC,www.shootfluidlevel.com,Gas & Oil,Broken Arrow,Oklahoma,United States,1-918-671-7777
Shell Oil CO Jobber,sawyerpetroleum.com,Gas & Oil,Van Nuys,California,United States,1-818-785-0902
Shepherd Oil CO Inc,www.shepherdoil.com,Gas & Oil,Blackwell,Oklahoma,United States,1-580-363-4280
Shores Lift Solutions,shoreslift.com/,Gas & Oil,Windsor,Colorado,United States,1-970-673-3646
Shoreside Petroleum Inc,www.shoresidepetroleum.com,Gas & Oil,Seward,Alaska,United States,1-907-224-8040
Shuqualak Oil Inc,www.shuqualak.com,Gas & Oil,Shuqualak,Mississippi ,United States,1-662-793-4591
Sierra Engineering Inc,www.sierra-engineering.net,Gas & Oil,Oklahoma City,Oklahoma,United States,1-405-843-5566
Sieveking Inc,www.sievekinginc.com,Gas & Oil,High Ridge,Missouri,United States,1-636-677-4355
Signature Oil Corporation,signatureoil.com,Gas & Oil,Lexington,Kentucky,United States,1-859-224-0501
Sioux Valley Energy,siouxvalleyenergy.com,Gas & Oil,Colman,South Dakota,United States,1-605-534-3535
Slawson Exploration Company,slawsoncompanies.com,Gas & Oil,Denver,Colorado,United States,1-303-592-8880
Slawson Exploration Company,www.slawsoncompanies.com,Gas & Oil,Wichita,Kansas,United States,1-316-263-3201
Sloan Del Geologst,www.sloanpetroleum.com,Gas & Oil,Midland,Texas,United States,1-432-682-2073
SM Energy Company,http://www.stmaryland.com/,Gas & Oil,Denver,Colorado,United States,1-303-861-8140
Smith Gas Liquids,smithgas.com,Gas & Oil,Holland,Michigan,United States,1-616-786-0001
Solitario Exploration & Rylty,solitarioresources.com,Gas & Oil,Wheat Ridge,Colorado,United States,1-303-534-1030
Solitario Exploration & Rylty,solitarioresources.com,Gas & Oil,Sugar Land,Texas,United States,1-713-682-4070
South Star,www.onlygng.com,Gas & Oil,Atlanta,Georgia ,United States,1-770-850-6200
Southeastern Ohio Oil & Gas,www.sooga.org,Gas & Oil,Marietta,Ohio,United States,1-740-374-3203
Southland Energy Consultants,www.williamsonogi.com,Gas & Oil,Shreveport,Louisiana,United States,1-318-226-0040
Southwestern Energy Company,https://www.swn.com/Pages/default.aspx,Gas & Oil,Spring,Texas,United States,1-832-796-1000
Spartan Operating Company,jes-engineer.com,Gas & Oil,Tyler,Texas,United States,1-903-593-5043
Speedy Gas & Wash,www.speedygasandwash.com,Gas & Oil,Ballwin,Missouri,United States,1-636-227-9274
St Lawrence Gas,www.stlawrencegas.com,Gas & Oil,Massena,New York,United States,1-315-769-3511
Stand Energy Corporation,www.stand-energy.com,Gas & Oil,Cincinnati,Ohio,United States,1-513-621-1113
Star-Oil Company,www.staroilco.net,Gas & Oil,Portland,Oregon,United States,1-503-283-1256
State Oil,www.stateoilcompany.com,Gas & Oil,North Chicago,Illinois,United States,1-847-680-5831
State Oil Company,www.stateoilcompany.com,Gas & Oil,Libertyville,Illinois,United States,1-847-680-5831
Stechschulte's Gas & Oil Company,stechgo.com,Gas & Oil,Owosso,Michigan,United States,1-989-723-8831
Stengel Oil,stengeloils.com,Gas & Oil,Milbank,South Dakota,United States,1-605-432-4900
Stephenson Oil Company,www.stephensonoil.com,Gas & Oil,Hamilton,Ohio,United States,1-513-863-7080
Stone Energy Corporation,www.stoneenergy.com,Gas & Oil,Lafayette,Louisiana,United States,1-337-237-0410
Stonebridge Operating Company,stonebridgeoperating.com,Gas & Oil,Fleming,Ohio,United States,1-740-373-6134
Strickland 76 Wholesale Fuel Distributing,www.kennystrickland.com,Gas & Oil,Coachella,California,United States,1-760-398-2031
Strobel Propane Gas Company,www.strobelfuels.com,Gas & Oil,Kewaskum,Wisconsin,United States,1-262-626-2212
Suburban Natural Gas,sngco.com,Gas & Oil,Cygnet,Ohio,United States,1-419-655-2345
Suburban Natural Gas,www.sngco.com,Gas & Oil,Lewis Center,Ohio,United States,1-740-548-2450
Sullivan's Petroleum,sullivanpetroleum.com,Gas & Oil,Bakersfield,California,United States,1-661-327-5008
Suncor Energy,http://www.suncor.com/,Gas & Oil,Calgary,Alberta,Canada,1-403-296-8000
"Sunoco, Inc.",https://www.sunoco.com/,Gas & Oil,Dallas,Texas,United States,1-214-981-0700
Superior Crude Gathering Inc,superiorcrude.com,Gas & Oil,Corpus Christi,Texas,United States,1-361-882-5117
Superior Oil Company Inc,www.superioroil.net,Gas & Oil,Indianapolis,Indiana ,United States,1-317-781-4400
Swift Energy Company,http://www.sbow.com/,Gas & Oil,Houston,Texas,United States,1-281-423-0025
"Sword Energy, Inc.",,Gas & Oil,Calgary,Alberta,United States,1-780-375-3730
Syncrude Canada Ltd.,http://www.syncrude.ca/,Gas & Oil,Fort McMurray,Alberta,Canada,1-780-790-6461
Syntroleum Corporation,,Gas & Oil,Tulsa,Oklahoma,United States,1-918-281-8230
T C Oil Company,tcoil.net,Gas & Oil,Refugio,Texas,United States,1-361-526-4693
Talisman Energy Inc.,https://www.repsol.com/ca_en/,Gas & Oil,Calgary,Alberta,Canada,1-403-237-1234
Ted W Walters & Associates,twalters.com,Gas & Oil,Tyler,Texas,United States,1-903-534-3890
Tesoro,http://tsocorp.com/,Gas & Oil,San Antonio,Texas,United States,1-877-876-7297
Tetra Technologies,www.tetratec.com,Gas & Oil,Spring,Texas,United States,1-281-367-1983
Texas American Resources,texasarc.com,Gas & Oil,Austin,Texas,United States,1-512-480-8700
The Jerry Brown CO - Main Office & Bulk Plant,www.jbco.com,Gas & Oil,Eugene,Oregon,United States,1-541-461-4049
Thiessen Oil Company,www.thiessenoil.com,Gas & Oil,Lewiston,Idaho ,United States,1-208-743-6201
Tidewater Oil Company,www.tidewateroil.net,Gas & Oil,Belfast,Maine,United States,1-207-338-4739
Tiger Natural Gas,www.tigernaturalgas.com,Gas & Oil,Tulsa,Oklahoma,United States,1-918-491-6998
Torch Energy Advisors Incorporated,,Gas & Oil,Houston,Texas,United States,1-713-650-1246
Torco Racing Fuels,www.torcoracefuels.com,Gas & Oil,Decatur,Michigan,United States,1-269-423-7737
TransGlobe Energy Corporation,http://www.trans-globe.com/,Gas & Oil,Calgary,Alberta,Canada,1-403-770-8855
Triangle Petroleum,www.trianglepetroleum.com/,Gas & Oil,Denver,Colorado,United States,1-303-260-7125
Tri-Con Inc,www.triconinc.org,Gas & Oil,Beaumont,Texas,United States,1-409-838-1925
Trinks Brothers Oil,www.trinksbrothers.com,Gas & Oil,Windsor,Connecticut,United States,1-860-648-4400
Triumph Energy Corporation,http://www.triumphenergy.com/,Gas & Oil,Harrison,Ohio,United States,1-513-367-9900
Trollinger Marsh Resources Inc,tmrmapping.com,Gas & Oil,Englewood,Colorado,United States,1-303-783-3603
Tropic Oil,www.tropicoil.com,Gas & Oil,Miami,Florida ,United States,1-305-888-4611
Trueblood Resources Inc,www.anadarkobasinproducer.com,Gas & Oil,Denver,Colorado,United States,1-303-782-0542
Truman Arnold Company,www.tacenergy.com,Gas & Oil,Texarkana,Texas,United States,1-903-794-3835
Tyree Oil Inc,www.tyreeoil.com,Gas & Oil,Roseburg,Oregon,United States,1-541-673-6215
U S Oil & Gas,globalinternationalmarine.net,Gas & Oil,Houma,Louisiana,United States,1-985-876-4651
Ultra Petroleum Corp.,http://www.ultrapetroleum.com/,Gas & Oil,Houston,Texas,United States,1-281-876-0120
Ultra Petroleum Corporation,ultrapetroleum.com,Gas & Oil,Englewood,Colorado,United States,1-303-708-9740
Union Distributing,www.uniondistributing.com,Gas & Oil,Phoenix,Arizona,United States,1-602-272-6795
Unit Corporation,http://www.unitcorp.com/,Gas & Oil,Tulsa,Oklahoma,United States,1-918-493-7700
Universal Lubricants Inc,universallubes.com,Gas & Oil,Wichita,Kansas,United States,1-316-832-0151
US Oil & Refining Company,www.usor.com,Gas & Oil,Tacoma,Washington,United States,1-206-242-3306
Vaalco Energy Inc.,http://www.vaalco.com/,Gas & Oil,Houston,Texas,United States,1-713-623-0801
Valero Energy Corporation,https://www.valero.com/en-us,Gas & Oil,San Antonio,Texas,United States,1-210-345-2000
Valley Co-Ops Corporate Office,valleyco-ops.com,Gas & Oil,Jerome,Idaho ,United States,1-208-324-8000
Valley Energy,valley-energy.com,Gas & Oil,Sayre,Pennsylvania,United States,1-570-888-9664
Valley Pacific Petroleum Service,vpps.net,Gas & Oil,Bakersfield,California,United States,1-661-746-7737
Van Manen Petroleum Group,vanmanen.com,Gas & Oil,Grand Rapids,Michigan,United States,1-616-453-6344
Van Unen Miersma Propane Inc,www.vmpropane.com,Gas & Oil,Ripon,California,United States,1-209-823-1315
Vanco Energy Company,http://www.vandyke-energy.com/,Gas & Oil,Houston,Texas,United States,1-713-457-8100
Vancouver Oil-First Call,firstcallheat.com,Gas & Oil,Vancouver,Washington,United States,1-360-694-1992
Vapor Systems Technologies Inc,vsthose.com,Gas & Oil,Dayton,Ohio,United States,1-937-704-9333
Vaquero Energy Inc,www.vaqueroenergy.com,Gas & Oil,Bakersfield,California,United States,1-661-616-0600
Velvin Oil Company,velvinoil.com,Gas & Oil,Henderson,Texas,United States,1-903-657-2108
Vermilion Resources Ltd.,http://www.vermilionenergy.com/,Gas & Oil,Calgary,Alberta,Canada,1-403-269-4884
Vest Inc,vestusa.com,Gas & Oil,Troy,Michigan,United States,1-248-649-9560
V-F Petroleum Inc,vfpetroleum.com,Gas & Oil,Midland,Texas,United States,1-432-683-3344
Vinalhaven Fuel,www.vinalhavenfuel.com,Gas & Oil,Vinalhaven,Maine,United States,1-207-863-4441
Virginia Fuels,vafuels.com,Gas & Oil,Mechanicsville,Virginia,United States,1-804-730-1966
Visa Petroleum Inc,visapetroleum.com,Gas & Oil,Fresno,California,United States,1-559-233-5136
Vista Resources Inc,vistaresources.com,Gas & Oil,Pittsburgh,Pennsylvania,United States,1-412-833-8884
Volta Oil,www.voltaoil.com,Gas & Oil,Plymouth,Massachusetts,United States,1-508-746-1341
Vulpolene Oil Company,approvedoil.com,Gas & Oil,Brooklyn,New York,United States,1-718-629-1100
W & T Offshore Inc,www.wtoffshore.com,Gas & Oil,Metairie,Louisiana,United States,1-504-831-4171
W B Mc Cartney Oil Company,www.mccartneyoil.com,Gas & Oil,Jena,Louisiana,United States,1-318-992-4186
W E Allford Propane,www.weallfordpropane.com,Gas & Oil,Mcalester,Oklahoma,United States,1-800-256-1712
W P M Exploration Inc,www.mpwproperties.com,Gas & Oil,Lafayette,Louisiana,United States,1-337-232-1438
Wabash Production,www.wabashoil.com,Gas & Oil,Fairfield,Illinois,United States,1-618-847-7401
Waco Oil & Gas Company,www.waco-trio.com,Gas & Oil,Glenville,West Virginia,United States,1-304-462-5741
Wagner & Brown Limited,wbltd.com,Gas & Oil,Midland,Texas,United States,1-432-682-7936
Wagner Oil CO Inc,www.wagner-oil.com,Gas & Oil,Antigo,Wisconsin,United States,1-715-623-5386
Wagner Oil Company,www.wagneroil.com,Gas & Oil,Fort Worth,Texas,United States,1-817-335-2222
Wallis Lubricant LLC,www.wallisco.com,Gas & Oil,Kansas City,Kansas,United States,1-913-621-6521
Walters Dimmick Petroleum Inc,www.waltersdimmick.com,Gas & Oil,Marshall,Michigan,United States,1-269-781-4654
Ward Petroleum Corporation,http://www.wardpetroleum.com/,Gas & Oil,Enid,Oklahoma,United States,1-580-234-3229
Ward Williston,wardwilliston.com,Gas & Oil,"Bloomfield Hills,",Michigan,United States,1-248-594-6622
Warren Resources Inc,www.warrenresources.com,Gas & Oil,New York,New York,United States,1-212-697-9660
Wayne Oakland Oil,www.spenceroilcompany.com,Gas & Oil,Roseville,Michigan,United States,1-248-548-4646
Webster & Garner Oil & Propane,www.webstergarner.com,Gas & Oil,Clio,Michigan,United States,1-810-686-9171
Welder Exploration & Prdctn,weldergroup.com,Gas & Oil,San Antonio,Texas,United States,1-210-354-1515
West Bay Exploration Company,www.westbayexploration.com,Gas & Oil,Traverse City,Michigan,United States,1-231-946-0200
West Texas Royalties Inc - Office,www.westtexasroyalties.com,Gas & Oil,Plainview,Texas,United States,1-806-291-9922
Western Refining,http://www.wnr.com/,Gas & Oil,Tempe,Arizona,United States,1-602-286-1400
Western States Oil,www.lubeoil.com,Gas & Oil,San Jose,California,United States,1-408-292-1041
Westfield Gas & Electric Light,www.wgeld.org,Gas & Oil,Westfield,Massachusetts,United States,1-413-572-0100
White Oil Company,www.michiganpetroleum.com,Gas & Oil,Clio,Michigan,United States,1-810-564-0720
Whiting Petroleum Corporation,www.whiting.com,Gas & Oil,Denver,Colorado,United States,1-303-837-1661
WhitMar Exploration Company,http://www.whitmar.com/,Gas & Oil,Denver,Colorado,United States,1-303-991-9400
Wilson Oil Inc,wilcoxandflegel.com,Gas & Oil,Longview,Washington,United States,1-360-575-9222
Wright Oil Company,royalmfg.com,Gas & Oil,Schertz,Texas,United States,1-210-337-2720
Wyman Oil CO Inc,www.wymanoil.com,Gas & Oil,Manchester,Connecticut,United States,1-860-643-2453
XP Laboratory Inc,www.xplab.com,Gas & Oil,San Diego,California,United States,1-619-233-3111
XTO Energy,http://www.xtoenergy.com/,Gas & Oil,Fort Worth,Texas,United States,1-817-870-2800
Yoder Oil Company,www.yoderoil.com,Gas & Oil,Elkhart,Indiana ,United States,1-574-262-2306
Yorkston Oil Company,www.yorkstonoil.com,Gas & Oil,Bellingham,Washington,United States,1-360-734-2201
"Zavanna, LLC",http://www.zavanna.com/,Gas & Oil,Denver,Colorado,United States,1-303-595-8004
Affordable Solar Hot Water & Power,www.asolarpro.com,Solar,Dothan,Alabama ,United States,1-334-828-1024
Abundant Energy,www.abundantenergy.com,Solar,Jupiter,Florida ,United States,1-561-744-5421
Alternate Energy Technologies,aetsolar.com,Solar,Jacksonville,Florida,United States,1-904-781-8305
ECS Solar Energy Systems,www.ecs-solar.com,Solar,Gainesville,Florida,United States,1-352-377-8866
Energy Store LLC,www.energystore-usa.com,Solar,Hollywood,Florida,United States,1-954-920-9009
Five County Wholesale Distributors,advancesolar.com,Solar,Fort Myers,Florida,United States,1-239-939-2470
Fun in the Sun Pool Heating,www.funpoolheating.com,Solar,Orlando,Florida,United States,1-407-696-5292
Guardiansolar.Com,guardiansolar.com,Solar,Clearwater,Florida,United States,1-727-410-5282
Harrimans Inc,www.solarbyharrimans.com,Solar,Port Charlotte,Florida,United States,1-941-743-4315
Mc Intosh Solar Systems Inc,www.mcintoshsolar.com,Solar,Port Richey,Florida,United States,1-727-868-0110
Mirasol Fafco Solar,www.mirasolfafco.com,Solar,Sarasota,Florida,United States,1-941-921-7761
Pool Heating Distributors,www.phdist.com,Solar,Sarasota,Florida,United States,1-941-359-9606
Red Hot Solar,www.redhotsolar.com,Solar,Loxahatchee,Florida,United States,1-561-790-6685
Red Hot Solar Energy Inc,www.redhotsolar.com,Solar,West Palm Beach,Florida,United States,1-561-790-6685
Russell & Sun Solar,www.brevardsolar.com,Solar,Cocoa,Florida,United States,1-321-636-1933
Simpler Solar Systems Inc,www.simplersolar.com,Solar,Tallahassee,Florida,United States,1-850-576-5271
Solar By Harrimans,www.swimwarm.com,Solar,Venice,Florida,United States,1-941-366-6630
Solar Direct,tampa.solardirect.com,Solar,Tampa,Florida,United States,1-813-386-0270
Solar Direct,www.solardirect.com,Solar,Sarasota,Florida,United States,1-941-359-8228
Solar Guy,www.thesolarguys.com,Solar,Summerfield,Florida,United States,1-352-307-7077
Solar Lights & More,www.solarlightsinc.com,Solar,Ocala,Florida,United States,1-352-690-9664
Solar Lights Inc,www.solarlightsinc.com,Solar,Gainesville,Florida,United States,1-800-347-9664
Solar Outdoor Lighting Inc,solarlighting.com,Solar,Palm City,Florida,United States,1-772-286-9461
Solar Solutions Corporation,www.solarsolutionsinc.net,Solar,Tampa,Florida,United States,1-813-963-5785
Solar Source,www.solarsource.net,Solar,Tampa,Florida,United States,1-813-654-3237
Solar Volusia,www.solarvolusia.com,Solar,North Venice,Florida,United States,1-386-319-5777
Sunbelt Solar Energy,www.sunbeltsolarenergy.com,Solar,Sarasota,Florida,United States,1-941-379-9781
Superior Solar,www.superiorsolar.com,Solar,Longwood,Florida,United States,1-407-331-9077
Superior Solar Systems LLC,www.superiorsolar.com/,Solar,Altamonte Springs,Florida,United States,1-407-331-9077
Symbiont Service Corporation,www.symbiontservice.com,Solar,Englewood,Florida,United States,1-941-474-9306
Symbiont Service Corporation,symbiontservice.com,Solar,Tampa,Florida,United States,1-941-474-9306
TCT Solar,tctsolar.com,Solar,Jacksonville,Florida,United States,1-904-358-3720
Thermal Conversion Tech,tctsolar.com,Solar,Jacksonville,Florida,United States,1-941-953-2177
Wayne's Solar,www.waynesolar.com,Solar,Ormond Beach,Florida,United States,1-386-673-9720
Wayne's Solar & Heat Pumps,www.waynesolar.com,Solar,Daytona Beach,Florida,United States,1-386-673-9720
Waynes Solar,www.waynesolar.com,Solar,Daytona Beach,Florida,United States,1-386-445-0059
Advantage Renewable Energy,decatursolarelectricitycompany.com,Solar,Atlanta,Geogia,United States,1-404-890-0913
Solairgen - Solar Energy Systems Training,www.solairgen.com,Solar,Dahlonega,Geogia,United States,1-706-867-0678
Accelerate Solar,accelerate-solar.com,Solar,Charlotte,North Carolina,United States,1-704-774-0675
NC Solar Now,www.ncsolarnow.com,Solar,Raleigh,North Carolina,United States,1-919-833-9096
Sbm Solar LLC,www.sbmsolar.com,Solar,Concord,North Carolina,United States,1-704-788-2881
Solar Consultants Inc,www.solarconsultants.com,Solar,Carrboro,North Carolina,United States,1-919-967-8554
Solar Dynamics,www.solardynamicsnc.com,Solar,Asheville,North Carolina,United States,1-828-665-8507
Solar Solutions,www.solarsolutionsnc.com,Solar,Durham,North Carolina,United States,1-919-941-0061
Southern Energy Management,www.southern-energy.com,Solar,Morrisville,North Carolina,United States,1-919-836-0330
Sundance Power Systems Inc,www.sundancepower.com,Solar,Weaverville,North Carolina,United States,1-828-689-2080
Thermacraft Energy Service,www.thermacraft.com,Solar,Asheville,North Carolina,United States,1-828-285-8825
Carolina Cooling & Plumbing Inc,carolinacool.com,Solar,Surfside Beach,South Carolina,United States,1-843-238-5805
Tablerock Technologies LLC,tablerocktech.com,Solar,Pickens,South Carolina,United States,1-864-878-5540
Big Frog Mountain Corporation,www.bigfrogmountain.com,Solar,Chattanooga,Tennessee ,United States,1-423-265-0307
DrSolar.US,www.drsolar.us,Solar,Memphis,Tennessee ,United States,1-901-399-9997
Lightwaves Solar Electric,www.lightwavesolarelectric.com,Solar,Antioch,Tennessee ,United States,1-615-941-4786
Ready Made Resources,www.readymaderesources.com,Solar,Tellico Plains,Tennessee ,United States,1-423-253-6789
Sustainable Future,www.sustainablefuture.biz,Solar,Knoxville,Tennessee ,United States,1-865-851-8192
Zuercher Electric Company,zuercherelectric.com,Solar,Crossville,Tennessee ,United States,1-931-484-8245
Acadiana Solar,acadianasolar.net,Solar,Lafayette,Louisiana,United States,1-337-989-9857
Gulf South Electric and Solar- LLC,www.gulfsouthelectric.com,Solar,Lafayette,Louisiana,United States,1-985-231-7143
Gunn Solar Energy Systems,www.gunnsolarenergysystems.com/,Solar,Pineville,Louisiana,United States,1-318-442-4428
One Planet Solar,oneplanetsolar.com,Solar,Stonewall,Louisiana,United States,1-318-925-9884
Accent Windows,www.calljoecool.com,Solar,Houston,Texas,United States,1-281-991-6101
All-Weather Window & Door Company,www.apollosolarscreens.com,Solar,Houston,Texas,United States,1-713-956-0079
Devices & Service Company,www.devicesandservices.com,Solar,Dallas,Texas,United States,1-214-902-8337
Devices & Services Inc,www.devicesandservices.com,Solar,Dallas,Texas,United States,1-469-621-2460
Garth Construction Company,www.garthconstruction.com,Solar,Austin,Texas,United States,1-512-266-2224
Meridian Energy Systems,www.meridiansolar.com,Solar,Austin,Texas,United States,1-512-448-0055
Precision Solar Controls Inc,www.precisionsolarcontrols.com,Solar,Garland,Texas,United States,1-972-278-0553
Rollac Shutter of Texas,www.rollac.com,Solar,Pearland,Texas,United States,1-281-485-1911
Seesaw USA Com,www.seesawusa.com,Solar,Houston,Texas,United States,1-281-493-0991
Sola-Lite,www.solalitetx.com,Solar,Shavano Park,Texas,United States,1-210-764-7652
Solar Craft,solarcraft.net,Solar,Stafford,Texas,United States,1-281-340-1224
Solar Screens Plus,www.solarscreensplus.com,Solar,Katy,Texas,United States,1-281-391-5880
Solarm Inc,www.solarm.com,Solar,Crowley,Texas,United States,1-817-447-7304
Sunrise Solar,www.sunrisesolartx.com,Solar,Austin,Texas,United States,1-512-243-0628
Texas Solar Power Company,www.txspc.com,Solar,Austin,Texas,United States,1-512-459-9494
Acculectric,www.kuckelmanpump.com,Solar,Santa Fe,New Mexico,United States,1-505-438-0369
Advent Solar Inc,adventsolar.com,Solar,Albuquerque,New Mexico,United States,1-505-243-1800
Affordable Solar,www.affordable-solar.com,Solar,Albuquerque,New Mexico,United States,1-505-244-1154
All Star Electric Com,www.allstarelec.com,Solar,Albuquerque,New Mexico,United States,1-505-856-1010
Array Technologies Inc,www.wattsun.com,Solar,Albuquerque,New Mexico,United States,1-505-881-7567
Eapco Inc,www.eapco.com,Solar,Socorro,New Mexico,United States,1-575-835-4723
Energy Concepts Inc,www.energyconcepts.net,Solar,Sapello,New Mexico,United States,1-505-454-0614
GO Solar,www.gosolarsantafe.com,Solar,Santa Fe,New Mexico,United States,1-505-250-9602
King Son Solar,www.kingsunsolar.com,Solar,Farmington,New Mexico,United States,1-505-564-2271
Morco Battery District Center,www.morcobattery.com,Solar,Albuquerque,New Mexico,United States,1-505-247-3434
Motorized Sun Solutions,www.motorizedsunsolution.com,Solar,Albuquerque,New Mexico,United States,1-505-822-1933
Solar Ray,www.solarray.com,Solar,Taos,New Mexico,United States,1-575-737-9553
Solar Wise LLC,www.solarwiseusa.com,Solar,Santa Fe,New Mexico,United States,1-505-471-0543
Sun King,www.sunkingsolar.com,Solar,Grants,New Mexico,United States,1-505-285-5300
Unirac,unirac.com,Solar,Albuquerque,New Mexico,United States,1-505-242-6411
BMI Systems Group,bmisys.com,Solar,Chandler,Arizona,United States,1-480-731-3127
Conservative Energy Systems,www.cessolar.com,Solar,Mesa,Arizona,United States,1-480-835-9549
E V Solar Products Inc,www.evsolar.com,Solar,Chino Valley,Arizona,United States,1-928-636-2201
First Solar Inc,www.firstsolar.com,Solar,Tempe,Arizona,United States,1-602-414-9300
Geoinnovation,www.geoinnovation.com,Solar,Tucson,Arizona,United States,1-520-615-3883
Global Solar Energy Inc,www.globalsolar.com,Solar,Tucson,Arizona,United States,1-520-546-6313
Heliocol Arizona Inc,heliocol.com,Solar,Tempe,Arizona,United States,1-520-770-9902
Jon Robinson's Solar & Plumbing LLC - Valleywide,www.jonrobinsonssolarandplumbing.com,Solar,Mesa,Arizona,United States,1-480-832-1785
"Jon Robinson's Solar & Plumbing, LLC",www.jonrobinsonssolarandplumbing.com,Solar,Mesa,Arizona,United States,1-480-832-1785
Matrix Inc,matrix-solar.com,Solar,Mesa,Arizona,United States,1-480-833-1413
Sedonix,www.sedonix.com,Solar,Sedona,Arizona,United States,1-928-284-0884
Solar Bill Solar River,www.solarbill.com,Solar,Quartzsite,Arizona,United States,1-928-927-7256
Solar Traffic Controls,solar-traffic-controls.com,Solar,Tempe,Arizona,United States,1-480-449-0222
Southwest Solar,southwest-solar.com,Solar,Tucson,Arizona,United States,1-520-885-7925
Southwest Solar,www.southwest-solar.com,Solar,Lake Havasu City,Arizona,United States,1-520-885-7925
Sun Pumps,www.sunpumps.com,Solar,Safford,Arizona,United States,1-928-348-9652
Mountain States Solar & Roofing,www.solarpowerutah.com,Solar,Oakley,Utah,United States,1-801-326-0984
Abraham Solar-The Power Broker,abrahamsolar.com,Solar,Pagosa Springs,Colorado,United States,1-970-731-4675
Adobe Solar LLC,www.adobesolar.com,Solar,Denver,Colorado,United States,1-303-339-0308
All Solar Inc,www.asolarelectric.com,Solar,Penrose,Colorado,United States,1-719-372-3808
Anasazi Solar Inc,www.anasazisolar.com,Solar,Evergreen,Colorado,United States,1-970-240-1147
Bella Energy,www.bellaenergy.com,Solar,Louisville,Colorado,United States,1-303-665-2100
Burnham-Beck & Sun,www.burnhambeck.com,Solar,Fort Collins,Colorado,United States,1-970-482-6924
Capitol Solar Energy LLC,www.capitolsolarenergy.com,Solar,Denver,Colorado,United States,1-303-792-0155
Colorado Solar Energy Industries Associates,www.coseia.org,Solar,Denver,Colorado,United States,1-303-333-7342
Colorado Solar Inc,www.cosolar.com,Solar,New Castle,Colorado,United States,1-970-984-3750
Durgin Electric LLC,www.durginelectric.com,Solar,Wheat Ridge,Colorado,United States,1-970-704-9473
Durgin Electric LLC,www.durginelectric.com,Solar,Carbondale,Colorado,United States,1-970-704-9473
Go Solar Now,coloradosolarestimate.com,Solar,Denver,Colorado,United States,1-303-507-1534
Golden Solar,www.goldensolar.net,Solar,Golden,Colorado,United States,1-303-955-6332
Great Solar Works,www.solarwork.com,Solar,Ridgway,Colorado,United States,1-970-626-5253
High Noon Solar,www.highnoonsolar.com,Solar,Grand Junction,Colorado,United States,1-970-241-0209
Ron Stauffer Enterprise,timeforsolar.com,Solar,Montrose,Colorado,United States,1-970-209-4764
RTN Roofing Systems,www.rtnroofing.com,Solar,Littleton,Colorado,United States,1-970-593-1100
RV Solar Connecion,www.rvsolarconnection.com,Solar,Westminster,Colorado,United States,1-303-945-5328
Simplicity Solar,simplicitysolar.com,Solar,Grand Junction,Colorado,United States,1-970-314-2679
Solar Design of Colorado,www.solardesignofcolorado.com,Solar,Colorado Springs,Colorado,United States,1-719-322-8891
Spiral Designs Inc,digitalsolar.com,Solar,Boulder,Colorado,United States,1-303-442-6553
Sunsense,www.sunsensesolar.com,Solar,Carbondale,Colorado,United States,1-970-963-1420
Terrasun Design Inc,www.terrasun.net,Solar,Breckenridge,Colorado,United States,1-970-453-0709
Watts Up Electric,wattsupelectric.net,Solar,Fort Collins,Colorado,United States,1-970-204-1771
Cromwell & Ramsey Environmental Group,www.hernly.biz,Solar,Lawrence,Kansas,United States,1-785-749-6020
Kansas Wind Power,www.kansaswindpower.net,Solar,Holton,Kansas,United States,1-785-364-4407
Mid-American Water & PLBG Inc,www.mawp.us,Solar,Manhattan,Kansas,United States,1-785-537-1072
G2Power Technologies LLC,g2power.com,Solar,Hazelwood,Missouri ,United States,1-314-839-1609
Ozark Energy Service,ozarkenergyservices.com,Solar,Joplin,Missouri ,United States,1-417-623-6296
Solar Dynamics Inc,solardynamicsinc.com,Solar,Ottumwa,Iowa ,United States,1-641-683-1834
Electrick,www.callfritzy.com,Solar,Monroe Center,Illinois,United States,1-815-393-4695
Professional Source,www.prosourceelectric.com/,Solar,Lena,Illinois,United States,1-815-275-4177
Solar Tracking Skylight,www.solar-track.com,Solar,Chicago,Illinois,United States,1-773-296-4200
Southern Lights,www.southernlights.biz,Solar,Carbondale,Illinois,United States,1-618-964-1980
Sunheat Solar,www.sunheatsolar.com,Solar,Addison,Illinois,United States,1-630-424-0563
Air Control Products Company,www.aircontrolproducts.com,Solar,Broadview Heights,Ohio,United States,1-440-526-3020
Blue Chip Solar & Wind,www.bluechipsolarandwind.com,Solar,Cincinnati,Ohio,United States,1-513-351-9463
Danco Enterprises Inc,www.dancoenterprises.com,Solar,Springfield,Ohio,United States,1-937-969-8440
Dovetail Solar & Wind,dovetailsolar.com,Solar,Athens,Ohio,United States,1-740-592-1800
Dovetail Solar And Wind,www.dovetailsolar.com/,Solar,Toledo,Ohio,United States,1-740-592-1800
SunRock Solar,www.sunrocksolar.com,Solar,Cincinnati,Ohio,United States,1-513-766-6025
Third Sun Solar & Wind Power,www.third-sun.com,Solar,Athens,Ohio,United States,1-740-597-3111
Renewable Energy Solutions LLC,www.goforsolar.com,Solar,Ann Arbor,Michigan,United States,1-734-649-1777
Seelye Equipment Specialists,flexcharge.com,Solar,Charlevoix,Michigan,United States,1-231-547-9430
Full Spectrum Solar,www.fullspectrumsolar.com,Solar,Madison,Wisconsin,United States,1-608-284-9495
Next Step Energy Systems,www.nextstepenergy.com,Solar,Eau Claire,Wisconsin,United States,1-715-830-9337
Photovoltaic Systems LLC,www.pv-systems.org,Solar,Amherst,Wisconsin,United States,1-715-824-2069
REMY Battery CO Inc,www.remybattery.com,Solar,Milwaukee,Wisconsin,United States,1-414-384-0340
Renewaire,renewaire.com,Solar,Madison,Wisconsin,United States,1-414-221-4499
TRI STATE TECHNICAL,www.tristatetechhvac.com,Solar,Mineral Point,Wisconsin,United States,1-608-987-3820
Oasis Montana Inc,www.oasismontana.com,Solar,Stevensville,Montana,United States,1-406-777-4321
Planetary Systems Inc,www.planetarysystems.com,Solar,Ennis,Montana,United States,1-406-682-5646
Solar Montana LLC,www.solarmontana.com,Solar,Helena,Montana,United States,1-406-442-4828
Sunelco,www.sunelco.com,Solar,Hamilton,Montana,United States,1-406-363-6924
Sunelco Inc,www.sunelco.com,Solar,Victor,Montana,United States,1-406-642-9746
SWT Energy Inc,www.swtenergy.com,Solar,Lincoln,Nebraska ,United States,1-402-440-5064
Boundary Electric Contracting,www.boundaryelectric.us,Solar,Bonners Ferry,Idaho ,United States,1-208-267-7340
Long Valley Solar Shades,www.longvalleysolarshades.com,Solar,Donnelly,Idaho ,United States,1-208-325-3777
Atomic Solar Screens,www.atomicsolarscreens.com,Solar,North Las Vegas,Nevada,United States,1-702-869-2083
Free Energy Store,freeenergystore.com,Solar,Las Vegas,Nevada,United States,1-702-320-0770
Infinity Solar Pool Heating BBB A+,www.infinitysolarlasvegas.com/,Solar,Jean,Nevada,United States,1-702-473-5181
Naylor Solar Specialists,www.naylorsolar.com,Solar,Las Vegas,Nevada,United States,1-702-810-3090
Polar Shades Sun Control Inc,www.polarshade.com,Solar,Las Vegas,Nevada,United States,1-702-260-6110
Southwest Awnings Inc,www.southwestawnings.com,Solar,Mesquite,Nevada,United States,1-702-397-2700
Sun Cat Skylights,www.suncatskylights.com,Solar,Las Vegas,Nevada,United States,1-702-436-0074
Sun Cat Skylights - Showroom,www.suncatskylights.com,Solar,Las Vegas,Nevada,United States,1-702-658-9847
A 1 Sun Inc,www.a1suninc.com,Solar,Berkeley,California,United States,1-510-526-5715
Advance Solar Hydro Wind Power,advancepower.net,Solar,Ukiah,California,United States,1-707-485-0588
Advanced Conservation Systems,www.avsolar.com,Solar,Lancaster,California,United States,1-661-945-4545
Alps Technology Inc,alpstechnologyinc.com,Solar,Walnut,California,United States,1-909-468-1800
Alter Systems LLC,www.altersystems.com,Solar,Berkeley,California,United States,1-510-704-0108
"Apex Solar, Inc.",www.ApexSolarInc.com,Solar,El Dorado Hills,California,United States,1-866-976-5271
APG Solar-Alternative Power Generation,www.apgsolar.com,Solar,Atwater,California,United States,1-209-358-1468
Awning Shoppe,www.theawningshoppe.com,Solar,Bakersfield,California,United States,1-661-328-1292
AWS Solar,aws-solar.com,Solar,Sun Valley,California,United States,1-818-484-3264
Aztec Solar,www.aztecsolar.com,Solar,Rancho Cordova,California,United States,1-916-853-2700
Aztec Solar Inc,www.aztecsolar.com,Solar,Sacramento,California,United States,1-916-853-2700
B & B Solar,www.bnbsolar.com,Solar,Redding,California,United States,1-530-365-4180
BDS,www.brightdaysolar.com,Solar,Sonoma,California,United States,1-707-996-9940
Bob's Pool & Spa,www.bobspool.com,Solar,Santa Rosa,California,United States,1-707-545-4530
Bogart Engineering,www.bogartengineering.com,Solar,Boulder Creek,California,United States,1-831-338-0616
BUEL Solar Peter Weich Elecl,www.buelsolar.com,Solar,Topanga,California,United States,1-310-455-1288
Cal Paso Solar Electric,www.calpasosolar.com,Solar,Paso Robles,California,United States,1-805-239-4851
California Showcase Construction,www.calshowcase.com,Solar,Riverside,California,United States,1-951-686-2769
California Solar Electric,www.californiasolarelectric.com,Solar,Ojai,California,United States,1-805-640-7903
California Solar Electric Company,www.cal-solar.com,Solar,Grass Valley,California,United States,1-530-274-3671
California Solar Engineering,www.calsolareng.com,Solar,Los Angeles,California,United States,1-323-258-8883
Clean Solar,www.cleansolar.com,Solar,San Jose,California,United States,1-408-436-7652
Clean Solar Inc,cleansolar.com,Solar,San Jose,California,United States,1-888-551-7652
Cleardome Solar Thermal,www.cleardomesolar.com,Solar,San Diego,California,United States,1-619-990-7977
Cobalt Power Systems Inc.,www.cobaltpower.com,Solar,Mountain View,California,United States,1-650-938-9574
ECKLUND Roofing,www.ecklundroofingpalmdesert.com,Solar,Palm Desert,California,United States,1-760-200-4001
Environmental Solar Design Inc,www.esolardesign.com,Solar,North Hollywood,California,United States,1-818-762-6624
Ericson Solar,www.ericsonsolar.com,Solar,Placerville,California,United States,1-530-626-5497
Fafco Inc,www.fafco.com,Solar,Chico,California,United States,1-530-332-2100
Fidelity Home Energy,www.fidelityhome.net,Solar,San Diego,California,United States,1-855-765-2748
Garden Sun Light Inc,gardensunlight.com,Solar,City Of Industry,California,United States,1-626-581-2288
Ground Up Builders,www.groundupbuilders.com,Solar,Upland,California,United States,1-909-985-5433
Gull Industries Factory Direct,www.gullsolar.com,Solar,San Jose,California,United States,1-408-293-3523
Heliodyne Inc,www.heliodyne.com,Solar,Richmond,California,United States,1-510-237-9614
Heliopower,heliopower.com,Solar,Murrieta,California,United States,1-951-677-7755
Holly Solar Products-Sun,hollysolar.com,Solar,Petaluma,California,United States,1-707-763-6173
Independent Energy Solutions,indenergysolutions.com,Solar,Vista,California,United States,1-760-752-9706
Independent Energy Solutions,www.indenergysolutions.com,Solar,San Marcos,California,United States,1-760-752-9706
ISA Corporation,isa-corporation.com,Solar,Union City,California,United States,1-510-324-3755
J & M Phillips Electrical & Plumbing Inc,www.getpowernow.net,Solar,Modesto,California,United States,1-209-523-1659
Jamar Companies,www.jamarelectric.com,Solar,Santee,California,United States,1-619-448-7770
Kennedy G J Occidental Power,www.oxypower.com,Solar,San Francisco,California,United States,1-415-681-8861
Lifestyle Solar,lifestylesolarinc.com/sacramento/,Solar,Sacramento,California,United States,1-866-991-7652
M D Electric & Solar,www.mdelectricsolar.com,Solar,Gualala,California,United States,1-707-884-1862
Mark Naylor & Company,www.naylorsolar.com,Solar,San Diego,California,United States,1-858-695-9465
Mark Snyder Electric,www.marksnyderelectric.com,Solar,Poway,California,United States,1-858-748-4612
Mike the Poolman,www.mikethepoolman.com,Solar,Folsom,California,United States,1-916-484-7665
Mike the Poolman Underwater,www.mikethepoolman.com,Solar,Folsom,California,United States,1-916-985-7665
Mohr Power Solar Inc,mohrpower.com,Solar,Palm Springs,California,United States,1-760-778-7778
Mohr Power Solar Inc,mohrpower.com,Solar,Corona,California,United States,1-951-736-2000
Mountain Solar,www.mountainsolar.net,Solar,Grass Valley,California,United States,1-530-274-7355
North Bay Aquatics Custom,www.nbaquatics.com,Solar,Rohnert Park,California,United States,1-707-585-7727
North Bay Aquatics Custom Swimming Pools & Spa's,www.nbaquatics.com,Solar,Santa Rosa,California,United States,1-707-585-7727
Owens Electric & Solar,www.owenselectricinc.com,Solar,San Mateo,California,United States,1-650-348-5727
Pacific Energy Company,www.alteryourenergy.com,Solar,San Luis Obispo,California,United States,1-805-544-4700
Padre Pools,www.padrepools.com,Solar,Lakeside,California,United States,1-619-561-7665
Parabolic Solar Energy Inc,www.psesolar.com,Solar,Studio City,California,United States,1-818-660-2525
Plan It Solar,www.planitsolar.com,Solar,Grass Valley,California,United States,1-530-432-3776
POCO Solar Energy Inc,www.pocosolar.com,Solar,Santa Clara,California,United States,1-408-970-0680
Pool Builders,www.chicopoolbuilders.com,Solar,Chico,California,United States,1-530-899-8988
Powerhouse Solar Inc,www.powerhousesolar.com,Solar,Redding,California,United States,1-530-275-5600
Pure Power Solutions,www.purepowersolutions.com,Solar,Healdsburg,California,United States,1-707-433-6556
Pure Power Solutions,www.purepowersolutions.com,Solar,Santa Rosa,California,United States,1-707-433-6556
Reid Heating & Energy Systems,reidheatingandenergy.com,Solar,San Rafael,California,United States,1-415-485-5000
Revco Solar Engineering Inc,www.revcosolar.com,Solar,Laguna Hills,California,United States,1-949-367-0740
Santa Cruz Solar,www.santacruzsolar.com,Solar,Aptos,California,United States,1-831-425-1451
Sierra Pacific Heating & Air Conditioning,www.sierrapacifichome.com,Solar,Rancho Cordova,California,United States,1-209-522-1919
Sierra Solar Systems,www.sierrasolar.com,Solar,Grass Valley,California,United States,1-530-273-6754
Silicon Valley Microelectronic,svmi.com,Solar,Santa Clara,California,United States,1-408-844-7100
Small Power Systems,smallpowersystems.com,Solar,Covelo,California,United States,1-707-983-8498
Solar Electrical Systems,www.solarelectricalsystems.com,Solar,Thousand Oaks,California,United States,1-805-497-9808
Solar Electrical Systems,www.solarelectricalsystems.com,Solar,Westlake Village,California,United States,1-805-497-9808
Solar Land Partners,www.solarlandpartners.com,Solar,Saratoga,California,United States,1-408-813-2683
Solar Lighting Express,www.maxsunlight.com,Solar,San Mateo,California,United States,1-650-578-1981
Solar Power System Pros,www.solarpowersystempros.com/,Solar,Ladera Ranch,California,United States,1-800-790-5548
Solar Power Systems,www.solarpwrsystems.com,Solar,Caliente,California,United States,1-661-331-1045
Solar Unlimited Inc,www.solarunlimited.com,Solar,Burbank,California,United States,1-818-843-1633
Solar Works,www.solarworksca.com,Solar,Sebastopol,California,United States,1-707-829-8282
Solar Works,www.chicosolarworks.com,Solar,Chico,California,United States,1-530-892-2385
Solar-Tec Systems,www.solar-tec.com,Solar,Dana Point,California,United States,1-949-248-9728
Solarponics,www.solarponics.com,Solar,Atascadero,California,United States,1-805-466-5595
Solarroofs.Com,www.solarroofs.com,Solar,Carmichael,California,United States,1-916-481-7200
Soleeva Energy,www.soleeva.com/,Solar,Fremont,California,United States,1-408-837-0343
Solforce Systems Inc,solforce.com,Solar,Santa Barbara,California,United States,1-805-695-0015
Stanley Louis Co.,www.stanleylouis.com,Solar,Los Angeles,California,United States,1-800-217-6527
Sullivan Solar Power,www.sullivansolarpower.com,Solar,San Diego,California,United States,1-858-271-7758
Sun Brothers,www.sunbrothers.com,Solar,Richmond,California,United States,1-510-215-2887
Sun First,sunfirstsolar.com,Solar,San Rafael,California,United States,1-415-458-5870
Sun Frost,sunfrost.com,Solar,Arcata,California,United States,1-707-822-9095
Sun Light & Power Company,www.sunlightandpower.com,Solar,Berkeley,California,United States,1-510-845-2997
Sun Pirate,www.sunpirate.com,Solar,Cotati,California,United States,1-707-792-6929
Sunlight Electric LLC,sunlightelectric.com,Solar,San Francisco,California,United States,1-415-831-8300
Suntrek Industries,www.suntreksolar.com,Solar,Irvine,California,United States,1-949-348-9276
Sustainable Technologies,www.sustainabletech.cc,Solar,Alameda,California,United States,1-510-523-1122
United Innovations,unitedinnovations.com,Solar,San Marcos,California,United States,1-760-744-2575
West Coast Solar Inc,www.westcoastsolar.com,Solar,Brentwood,California,United States,1-925-516-3900
Western Solar Inc,western-solar.com,Solar,Poway,California,United States,1-858-668-1701
Western Sun Systems,westernsunsystems.com,Solar,Carmel,California,United States,1-831-624-3337
21ST Century Technologies,www.smartenergyhawaii.com/Home.aspx,Solar,Kailua Kona,Hawaii,United States,1-808-373-4559
Allens Plumbing-Drain Surgeon,www.allensplumbinghi.com,Solar,Kahului,Hawaii,United States,1-808-877-6370
Alternative Energy Resources,bigislandrealestate.com,Solar,Hilo,Hawaii,United States,1-808-935-8710
Provision Technologies Inc,www.provisiontechnologies.com,Solar,Hilo,Hawaii,United States,1-808-969-3281
Smart Roof Systems,smartroofsystems.com,Solar,Honolulu,Hawaii,United States,1-808-876-0377
Abney Solar Electrix,www.abneysolarelectrix.com,Solar,Redmond,Oregon,United States,1-541-923-6000
Advanced Energy Systems,www.aesrenew.com,Solar,Eugene,Oregon,United States,1-541-683-2345
Blue Mountain Solar Inc,bluemountainsolar.com,Solar,Cove,Oregon,United States,1-541-568-4882
Inland Electric Inc,www.inlandelectricinc.com,Solar,Hillsboro,Oregon,United States,1-503-681-4700
Mr Sun Solar,www.mrsunsolar.com,Solar,Portland,Oregon,United States,1-503-222-2468
Portland Electrical Contractors,www.portlandelectricalcontractors.com,Solar,Portland,Oregon,United States,1-971-266-5550
Protech Solar,protechsolar.com,Solar,Klamath Falls,Oregon,United States,1-541-882-4545
Solar Assist,www.solarassist.net,Solar,Eugene,Oregon,United States,1-541-338-4957
Solar Store,www.thesolarstore.com,Solar,Bend,Oregon,United States,1-541-388-3637
Eco Depot,www.ecodepotinc.com,Solar,Veradale,Oregon,United States,1-509-924-8803
Frederickson Electric Inc,fredelectric.com,Solar,Port Townsend,Washington,United States,1-360-385-1395
Household Power,www.sunergysystems.com,Solar,Seattle,Washington,United States,1-206-297-0086
J X Crystals,www.jxcrystals.com,Solar,Issaquah,Washington,United States,1-425-392-5237
Puget Sound Solar,pugetsoundsolar.com,Solar,Tacoma,Washington,United States,1-206-706-1931
Rainshadow Solar,rainshadowsolar.com,Solar,Eastsound,Washington,United States,1-360-376-5336
Seraphim Electric Company,www.seraphimelectric.com,Solar,Goldendale,Washington,United States,1-509-773-3806
Truck-City CB,www.truckcitycbgps.com,Solar,Milton,Washington,United States,1-253-927-2088
Western Solar,www.westernsolarinc.com,Solar,Arlington,Washington,United States,1-360-746-0859
Whidbey Sun & Wind,whidbeysunwind.com,Solar,Coupeville,Washington,United States,1-360-678-7131
Whidbey Sun & Wind,www.whidbeysunwind.com,Solar,Seattle,Washington,United States,1-360-678-7131
Polar Wire Products,www.polarwire.com,Solar,Anchorage,Alaska,United States,1-907-561-5955
DCS Energy,solarcompanymanchester.com,Solar,New Milford,Connecticut,United States,1-860-856-9285
Optical Energy Technologies,www.opticalenergy.com,Solar,Stamford,Connecticut,United States,1-203-357-0626
Sunlight Solar Energy Inc,sunlightsolar.com,Solar,Milford,Connecticut,United States,1-203-878-9123
Alternate Energy,www.800dcsolar.com,Solar,Plymouth,Massachusetts,United States,1-508-759-5675
Alternate Energy Center,www.aecenter.com,Solar,Plymouth,Massachusetts,United States,1-508-746-0777
Alternate Energy Inc,aecenter.com,Solar,Plymouth,Massachusetts,United States,1-800-427-8633
Bpvs,www.bpvs.com,Solar,Adams,Massachusetts,United States,1-413-743-0152
Cazeault Solar & Home,www.cazeaultsolarhome.com/,Solar,Gloucester,Massachusetts,United States,1-978-281-4625
Contemporary Structures,www.contemporarystructures.com,Solar,Ludlow,Massachusetts,United States,1-413-589-0147
Cotuit Solar,www.cotuitsolar.com,Solar,Cotuit,Massachusetts,United States,1-508-428-8442
Dr Elizabeth Stefos and Associates,www.drstefos.com,Solar,Worcester,Massachusetts,United States,1-508-754-6221
Great Sky Solar,www.greatskysolar.com/,Solar,Brookline,Massachusetts,United States,1-617-334-7717
Green & CO Plumbing & Heating,www.greenplumbingheating.com,Solar,Holliston,Massachusetts,United States,1-508-429-3242
I N O Electrical Services Inc,www.inoelectricalservice.com/,Solar,Assonet,Massachusetts,United States,1-508-472-5474
Meacham Heating- Cooling & Energy Solutions,www.markemeacham.com/,Solar,Charlton,Massachusetts,United States,1-508-434-6110
ML Schmitt INC,www.mlschmittelectric.com,Solar,Springfield,Massachusetts,United States,1-413-733-7868
"Nantucket Solar, LLC.",www.acksolar.com,Solar,Nantucket,Massachusetts,United States,1-508-228-1948
New England Solar & Green SLTN,www.nesolarandgreen.com,Solar,Williamstown,Massachusetts,United States,1-413-458-4966
New England Solar Electric,www.newenglandsolar.com,Solar,Worthington,Massachusetts,United States,1-413-238-5974
Pioneer Valley Photovoltaics,pvsquared.coop,Solar,Greenfield,Massachusetts,United States,1-413-772-8788
Solar Wave Energy Inc,www.solarwave.com,Solar,Cambridge,Massachusetts,United States,1-617-242-2150
"SolarFlair Energy, Inc.",www.solarflair.com,Solar,Hopkinton,Massachusetts,United States,1-508-293-4293
Spirit Solar Inc,www.spiritsolar.net,Solar,Springfield,Massachusetts,United States,1-413-883-3144
Bear Electric,www.bearelectricinc.com,Solar,Rollinsford,New Hampshire,United States,1-603-617-3532
Green Energy Options Of Keene,www.geosolarstore.com,Solar,Keene,New Hampshire,United States,1-603-358-3444
K W Management,kwmanagement.com,Solar,Nashua,New Hampshire,United States,1-603-598-0181
W. Fortune & Co.,www.wfortuneco.com,Solar,Lee,New Hampshire,United States,1-603-365-0251
Maine Generator & Solar Power,www.mainegenerator.com,Solar,Milo,Maine,United States,1-207-943-5070
Maine Solar,mainesolar.com,Solar,Anson,Maine,United States,1-207-696-8136
Penobscot Solar Design,www.penobscotsolar.com,Solar,Penobscot,Maine,United States,1-207-326-0779
Solar Marketing,www.solarmarket.com,Solar,Kennebunkport,Maine,United States,1-207-985-0088
Sun Dog Solar Store,www.sundogenergysystems.com,Solar,Liberty,Maine,United States,1-207-548-1100
Central Vermont Solar and Wind,www.middlebury.net/cvsolar,Solar,Rutland,Vermont,United States,1-802-747-0577
Global Resource Options Inc,www.grosolar.com,Solar,White River Junction,Vermont,United States,1-802-295-4415
Solar Specialists,www.thesolarspecialists.com,Solar,Worcester,Vermont,United States,1-802-223-7014
Altpower,altpower.com,Solar,New York,New York,United States,1-646-736-6008
Empire Clean Energy Supply,www.empirecleanenergy.com,Solar,Bohemia,New York,United States,1-631-589-4340
ETM Solar Works Inc,etmsolar.com,Solar,Endicott,New York,United States,1-607-785-6499
Fielack Electric Corporation,www.fielackelectric.com,Solar,Farmingdale,New York,United States,1-631-420-1700
Foerst Plumbing,totallytankless.us,Solar,Wappingers Falls,New York,United States,1-845-790-5013
Gilberto Morales,www.aguasolar.com,Solar,New York,New York,United States,1-212-673-6222
Great Brook Enterprises,www.great-brook-solar.com,Solar,South New Berlin,New York,United States,1-607-847-6366
Great Brook Solar,www.greatbrooksolar.com,Solar,South New Berlin,New York,United States,1-607-847-6366
O'Connell Electric Company,www.oconnellelectric.com,Solar,Victor,New York,United States,1-585-924-2176
Paradise Energy Solutions- LLC,www.paradisesolarenergy.com/,Solar,New Windsor,New York,United States,1-845-764-4010
Positive Energy NY LLC,www.positiveconstruction.com,Solar,Middle Granville,New York,United States,1-518-642-8110
Quixotic Systems,www.quixotic-systems.com,Solar,New York,New York,United States,1-212-367-9161
1 Light Energy,www.1stlightenergy.com,Solar,South Plainfield,New Jersey,United States,1-908-668-9040
Aten Solar Corporation,www.atensolar.com,Solar,Edison,New Jersey,United States,1-732-361-3253
Garden State Solar,www.gardenstatesolar.net,Solar,Middletown,New Jersey,United States,1-732-787-5545
Krannich Solar Inc,krannich-solar.com,Solar,Hainesport,New Jersey,United States,1-856-802-0991
NJ Solar Power,www.njsolarpower.com,Solar,Minotola,New Jersey,United States,1-877-765-2763
Roof Diagnostics Inc,www.roofdiagnostics.com,Solar,Wall Township,New Jersey,United States,1-732-974-8874
Solar Living Inc,www.capturethesun.com,Solar,Netcong,New Jersey,United States,1-973-691-8483
Solar Solutions,www.solarsolutionsnj.com,Solar,Sparta,New Jersey,United States,1-856-768-6663
Solar Works New Jersey,www.solarworksusa.com,Solar,Blackwood,New Jersey,United States,1-856-232-6363
Solarworks NJ LLC,www.solarworksnj.com,Solar,Turnersville,New Jersey,United States,1-856-232-6363
K-W Solar Solutions,www.kwsolarsolutions.com,Solar,Bear,Delaware,United States,1-302-838-8400
K-W Solar Solutions,www.kwsolarsolutions.com,Solar,Newark,Delaware,United States,1-302-838-8400
Furbish Company LLC,www.furbishco.com,Solar,Brooklyn,Maryland,United States,1-443-874-7465
Holy Trinity Monastery,trinitarians.org,Solar,Pikesville,Maryland,United States,1-410-486-5171
Maryland Solar Solutions Inc.,www.marylandsolarsolutions.com,Solar,College Park,Maryland,United States,1-410-363-4300
"Solar Energy Services, Inc",www.solarsaves.net,Solar,Pasadena,Maryland,United States,1-410-255-7773
Solar Gaines LLC,www.solargaines.com,Solar,Salisbury,Maryland,United States,1-410-785-1760
Belmont Solar,www.belmontsolar.com,Solar,Gordonville,Pennsylvania,United States,1-717-768-7796
Morningstar Corporation,www.morningstarcorp.com,Solar,Newtown,Pennsylvania,United States,1-215-321-4457
Rushforth Solar LLC,www.RushforthSolar.com,Solar,Bryn Mawr,Pennsylvania,United States,1-610-520-1968
Common Wealth Solar Service LLC,www.commonwealthsolar.com,Solar,Ashland,Virgina,United States,1-804-798-5371
Commonwealth Solar LLC,www.cwsolar.com,Solar,Manassas,Virgina,United States,1-804-798-5371
Huffman Electrical Systems Inc,huffmanelectricalsystems.com,Solar,Marshall,Virgina,United States,1-540-578-1907
Solar Block Inc,www.solarblockinc.com,Solar,Chesterfield,Virgina,United States,1-804-745-8468
Advanced Solar & Wind Technologies L.L.C.,solarwindok.com/,Solar,Choctaw,Oklahoma,United States,1-405-769-7511
Solar Power & Pump,www.togosolar.com,Solar,Elk City,Oklahoma,United States,1-580-225-1704
Sun City Solar Energy-Oklahoma City,www.SunCityEnergy.com,Solar,Oklahoma City,Oklahoma,United States,1-405-842-3800
,,,,,,