Company Name,Website,City,State,Country,Phone
800BuyCart.com,http://800buycart.com/,Queens,New York,United States,800-289-2278
AA Catering Truck,http://www.aacatertruck.com/,Los Angeles,California,United States,323-235-6650
AAA Concession Trucks & Trailers,,Oakland Park,Florida,United States,954-587-1710
ADG Custom Food Trucks & Trailers,https://www.adgfoodtrucks.com/,Orlando,Florida,United States,407-399-8883
Advanced Concession Trailers,http://www.advancedconcessiontrailers.com/,Dahlonega,Georgia,United States,706-867-8315
All a Cart Mfg. Inc.,http://allacart.com/,Columbus,Ohio,United States,614-443-5544
All Star Carts and Vehicles,,Bay Shore,New York,United States,800-831-3166
Apollo Food Trucks,http://apollofoodtrucks.com/,Surrey,British Columbia,Canada,778-565-1801
Armenco Catering Trucks,http://www.cateringtruck.com/,Sun Valley,California,United States,800-345-0104
Backyard Food Truck Builders,,Houston,Texas,United States,832-301-3741
Best Built Trailer,https://www.bestbuilttrailer.com/,Grovetown,Georgia,United States,706-863-7380
Biz on Wheels,http://foodtrucks4sale.com/,Charlotte,North Carolina,United States,800-944-2589
"Bostonian Body, Inc.",http://www.bostonianbody.com/,Everett,Massachusetts,United States,617-389-7791
C. Nelson Manufacturing Co.,http://www.cnelson.com/,Oak Harbor,Ohio,United States,419-898-3305
C.R.A.F.T.,,Houston,Texas,United States,832-831-6678
Caged Crow Fabrication,https://www.cagedcrowfabrication.com/,St. Germain,Wisconsin,United States,608-886-7397
California Cart Builders,http://californiacartbuilder.com/,Lake Elsinore,California,United States,866-347-1010
"Camion Unique Truck, Inc.",http://uniquefoodtruck.com/en/,Laval,Quebec,Canada,514-819-8817
"Cardinal Carts and Equipment, Inc.",http://www.cardinalcarts.com/,Stafford,Virginia,United States,888-864-3694
Carlin Manufacturing LLC,http://www.carlinmfg.com/,Naperville,Illinois,United States,630-355-1660
Carriage Works,https://www.carriageworks.com/,Klamath Falls,Oregon,United States,541-882-0700
Cart Concepts International,http://cartconcept.com/,Manchester,Connecticut,United States,860-432-0253
Chameleon Concessions,http://buildmeafoodtruck.com/,Plymouth,Minnesota,United States,612-889-9095
Chef Units Food Trucks Builders,http://chefunits.com/,Houston,Texas,United States,713-589-2613
CKF Venus,http://www.ckfvenus.com/,Venus,Texas,United States,877-225-1722
Cleveland Custom Trucks,http://www.clevelandcustomtrucks.com/,Cleveland,Ohio,United States,440-342-4047
Concession Trailers Warehouse,http://concessiontrailerswarehouse.com/,Fort Lauderdale,Florida,United States,888-390-4479
Concession Works,,Durham,North Carolina,United States,919-601-8154
Cool Blue Customs,http://www.coolbluecustoms.com/,Orlando,Florida,United States,877-546-6124
Creative Mobile Systems,http://cmssystem.com/,Manchester,Connecticut,United States,860-649-6272
Cruising Kitchens,http://www.cruisingkitchens.com/,San Antonio,Texas,United States,888-414-1680
Custom Concessions,http://www.customconcessionsusa.com/,Chester,Virginia,United States,800-910-8533
Custom Creations,,Franklin,Ohio,United States,937-305-7516
"Custom Sales and Services, Inc.",https://www.custommobilefoodequipment.com/,Hammonton,New Jersey,United States,609-561-6900
Detroit Custom Coach,http://www.detroitcustomcoach.com/,Oak Park,Michigan,United States,800-645-9949
"Double R Trailer Mfg., Inc.",http://doublertrailers.com/,Nampa ,Idaho,United States,208-461-7544
East Coast Custom Coaches,http://eastcoastlaunchpad.com/,Manassas,Virginia,United States,571-292-1583
Eat Street Trucks,,St. Cloud,Florida,United States,321-205-6439
El Monte Catering Truck,,San Jose,California,United States,408-516-6973
Eri Vending Cart,,Philadelphia,Pennsylvania,United States,267-984-3208
Experiential Food Truck Rental & Manufacturing,https://www.experientialfoodtruckrental.com/,Gardena,California,United States,877-705-6624
Food Cart USA,http://www.foodcartusa.com/,Miami,Florida,United States,866-274-6935
Food Truck Heaven,http://www.foodtruckheaven.com/,Davie,Florida,United States,954-275-7218
Food Trucks by Design,,Johnson City,Tennessee,United States,423-676-3040
Food Trucks Inc,,Calgary,Alberta,Canada,403-234-8812
Food Trucks South,http://foodtruckssouth.com/,Marietta,Georgia,United States,404-913-4452
Foodcarts Galore,https://www.foodcartsgalore.com/,Aurora,Oregon,United States,503-776-0147
Gallery Carts,https://www.gallerycarts.com/,Greenwood Village,Colorado,United States,303-843-7202
Gorilla Fabrication,http://www.gorillafabrication.com/,Charleston,South Carolina,United States,843-789-4481
High Standard Customs,,Kissimmee,Florida,United States,407-412-2666
Houston Food Truck Masters,,Houston,Texas,United States,
Ibarra's Mobile Kitchen Solutions,,Las Vegas,Nevada,United States,702-461-2950
Imagi-Motive,http://www.imagimotive.com/,Magnolia,Texas,United States,281-766-1340
Jack of All Trades,http://www.jackofalltradesbygeorge.com/,Garner,North Carolina,United States,919-427-3199
Joe the Cart Guy,http://www.joethecartguy.com/,Hampton,Virginia,United States,804-477-9724
JRP Concession Trailers,http://www.jrpconcessiontrailers.com/,Wilson,North Carolina,United States,252-206-5209
Kareem Carts,http://kareemcarts.com/cart/,Los Angeles,California,United States,323-232-6880
"Kitchen Corps, Inc",http://kitchencorps.com/,Chesapeake,Virginia,United States,757-487-8977
Kitchens on Wheels,,New Braunfels,Texas,United States,830-629-5514
LA Custom Food Trucks,http://www.lacustomfoodtrucks.com/,Sylmar,California,United States,747-225-0117
LA Stainless Kings,http://lastainlesskings.com/,Northridge,California,United States,855-343-5464
Legion Manufactoring,http://www.legionmfg.com/,South El Monte,California,United States,626-442-0200
M Design,https://www.mdesigntrucks.com/,Rochester,New York,United States,585-458-4869
M&R Specialty Trailers and Trucks,http://www.mr-trailers.com/,Macclenny,Florida,United States,904-397-0246
MAG Specialty Vehicles,http://apexspecialtyvehicles.com/,Kansas City,Missouri,United States,816-853-3360
"Merchandising Frontiers, Inc.",https://www.mfi4u.com/,Winterset,Iowa,United States,515-462-4965
Miami Trailer,http://www.miamitrailer.com/,Miami,Florida,United States,305-597-0043
Midwest Food Trucks,http://midwestfoodtrucks.com/,Chicago,Illinois,United States,312-324-4754
Millennium Trailers,https://www.milltrailers.com/,Indianapolis,Indiana,United States,800-978-7223
Missouri Great Dane,http://www.missourigreatdane.com/index.htm,Benton,Missouri,United States,573-545-3065
Missouri Great Dane,http://www.missourigreatdane.com/index.htm,O'Fallon,Missouri,United States,633-980-9429
Mobile Kitchen Solutions,http://www.mobilekitchensolutions.com/,Eldersburg,Maryland,United States,888-217-3681
Morgan Olson,http://morganolson.com/products/specialty-vans/,Sturgis,Michigan,United States,800-624-9005
MSM Catering Trucks Manufacturing,http://www.msmcateringtrucks.com/,Paramount,California,United States,562-272-4595
Northwest Mobile Kitchens,https://northwestmobilekitchens.com/,Portland,Oregon,United States,503-704-2450
On the Move,http://www.onthemovetrucks.com/,West Boerne,Texas,United States,844-708-3744
One Fat Frog Food Trucks & Trailers,https://onefatfrog.com/,Orlando,Florida,United States,407-480-3409
Plano Manufacturing,http://www.planomfginc.com/,Fontana,California,United States,909-350-3030
Premier Food Trucks,https://www.premierfoodtrucks.com/,Palm Coast,Florida,United States,386-597-7580
Prestige Food Trucks,http://prestigefoodtrucks.com/,Elkhart,Indiana,United States,888-418-8855
Push Cart International,http://www.pushcarts.com/,Clifton,New Jersey,United States,973-773-4401
Quality Food Trailers,https://qualityfoodtrailers.com/,Portland,Oregon,United States,971-220-2626
Red Door Trucks,,Boston,Massachusetts,United States,617-464-4260
Road Kitchens USA,,Old Forge,New York,United States,315-240-0740
Rolling Restaurants,,Fredericksburg,Virginia,United States,540-371-1366
RPM Truck & Trailer Sales & Service,http://www.rpmtrailersales.com/,Braselton,Georgia,United States,877-776-8812
Russell Cocessions,http://www.russellconcessions.com/,Lucedale,Mississippi,United States,601-947-6160
Schantz Manufacturing Inc.,http://www.schantzmobilekitchens.com/,Highland,Illinois,United States,618-654-1523
Shanghai Mobile Kitchen Solutions,http://shanghaimks.com/,Brooklyn,New York,United States,800-253-4815
Silver Star Metal Fabricating,http://www.silverstarmetal.com/,Mississauga,Ontario,Canada,905-671-1143
Sizemore Ultimate Food Trucks,http://www.sizemoreultimatefoodtrucks.com/,Bunnell,Florida,United States,386-313-5942
Snowie LLC,https://snowie.com/,Salt Lake,Utah,United States,801-268-1814
Southern Yankee BBQ,http://www.sybbq.com/,New Haven,Indiana,United States,765-621-3822
Stradabella Food Trucks,http://www.stradabella.com/,Phoenix,Arizona,United States,623-217-4737
Texas Mobile Kitchens,http://www.txmobilekitchens.com/,Abilene,Texas,United States,325-864-4381
The Pizza Truck Company,http://www.thepizzatruckcompany.com/,Bethel,Connecticut,United States,203-858-4723
Trailer Factory,http://www.trailerfactory.com/,Miami,Florida,United States,866-535-3369
Trailerlogic,http://trailerlogic.com/,Belton,South Carolina,United States,864-261-5151
Trailers USA,https://www.trailersusa.com/,Ocala,Florida,United States,866-652-7794
Trailex Concession Trailers,http://www.caravansunlimited.com/,Canfield,Ohio,United States,330-533-6814
Upfitters,,Phoenix,Arizona,United States,602-442-0787
US Catering Truck Mfg,http://www.uscateringtrucks.com/,Hayward,California,United States,510-441-1927
Utah Food Trucks,,Murray,Utah,United States,801-266-9199
Utilimaster ,http://www.spartanmotors.com/fleet-vehicles/,Bristol,Indiana,United States,866-383-3695
Vending Trucks Inc.,https://vendingtrucks.com/,East Brunswick,New Jersey,United States,844-233-5338
Venture Food Trucks,http://venturefoodtrucks.com/,Napanee,Ontario,Canada,855-405-2324
West Coast Catering Trucks,http://www.westcoastcateringtrucks.com/,Los Angeles,California,United States,323-278-1279
Willy Dogs,http://www.willydogs.com/,Ogdensburg,New York,United States,613-308-9197
WWT Mfg,https://www.wwtmfg.com/,Waycross,Georgia,United States,912-283-7551
WYSS Catering Truck,http://www.wysscateringtrucks.com/,Sante Fe Springs,California,United States,562-921-7050