Company Name,Website,City,State,Country,Phone
D J'S Fine Meats,http://www.djsfinemeats.com/,Alabaster,Alabama ,United States,205-664-7232
Delta Meat & Sausage Company,http://www.deltameat.com/,Delta Junction,Alaska ,United States,907-895-4006
Glenn's Wild Game Processing,http://www.glennswildgame.com/,Anchorage,Alaska ,United States,907-337-1278
Indian Valley Meats,http://www.indianvalleymeats.com/,Indian,Alaska ,United States,907-653-7511
Mr Prime Beef,http://www.mrprimebeef.com/,Anchorage,Alaska ,United States,907-344-4066
Tenth & M Seafoods,http://www.10thandmseafoods.com/,Anchorage,Alaska ,United States,907-272-3474
Denmark Sausage CO Inc,http://denmarkfoods.com/,Peoria,Arizona,United States,623-979-4234
Manny's Game Processing,http://www.gameprocessing.com/,Flagstaff,Arizona,United States,928-526-2417
Mc Reynolds Farms Roasting,http://www.gameprocessing.com/,Phoenix,Arizona,United States,602-269-6788
Cypress Valley Meat Co,http://www.cypressvallermeatcompany.com/,Romance,Arkansas,United States,501-556-5055
House of Webster Inc,http://www.houseofwebster.com/,Rogers,Arkansas,United States,479-636-4640
Busetto Foods,http://www.busetto.com/,Fresno,California,United States,209-237-9591
Day-Lee Foods Inc,http://www.day-lee.com/,Santa Fe Springs,California,United States,800-329-5331
Del Monte Meat Company,http://www.delmontemeat.com/,Oakland,California,United States,510-465-2400
Del Monte Meat Company,http://www.delmontemeat.com/,Sacramento,California,United States,916-927-0595
Don Pedros Meat,http://www.donpedrosmeat.com/,Covina,California,United States,626-339-3963
Engelhart Gourmet Foods,http://www.engelhartgourmet.com/,Fairfield,California,United States,800-400-6454
Harris Ranch Beef Company,http://harrisranchbeef.com/,Selma,California,United States,559-233-4116
Henry & Sons Inc,http://dhenryandsons.com/,Bradley,California,United States,805-472-2600
Longhorn Meat Co,http://www.longhornmeatco.com/,Auburn,California,United States,530-823-0275
Los Banos Abattoir Co,http://losbanos.com/,Los Banos,California,United States,209-826-2675
"Manas Ranch Custom Meats, Inc.",http://manasmeats.com/,Esparto,California,United States,530-787-1740
Marisa Foods,http://www.marisafoods.com/,Long Beach,California,United States,562-437-7775
Meat Market Inc,http://themeatmarket.com/,Fresno,California,United States,559-436-6688
Miller Packing Company,http://millerhotdogs.com/,Lodi,California,United States,209-339-2310
National Custom Packing,http://www.centralcoldstorage.com/,Castroville,California,United States,831-633-0203
New Zealand Lamb Company,http://www.nzlamb.com/,Compton,California,United States,310-885-4855
Old World German Sausage Company,http://owgs.com/,Oakland,California,United States,510-533-7211
Orangevale Meat Shoppe,http://www.orangevalemeatshoppe.com/,Orangevale,California,United States,916-988-0540
Ramar Foods,http://www.ramarfoods.com/,Pittsburg,California,United States,800-660-0962
Rocker Brothers Meat & Prvsn,http://rockerbrosmeat.com/,Inglewood,California,United States,310-674-0541
Ross Cutlery & Sharpening Service,http://www.rosscutlery.com/,Los Angeles,California,United States,213-626-1897
Santa Fe Importers-Marisa,http://marisafoods.com/,Long Beach,California,United States,562-435-5629
Seaport Meat Company,http://seaportmeat.com/,Spring Valley,California,United States,619-239-0880
Serv Rite Meat Co,http://www.bar-m.com/,Los Angeles,California,United States,323-227-1911
Shalhoob Meat Co,http://www.shalhoob.com/,Santa Barbara,California,United States,805-963-1208
Shelton's Poultry Inc,http://www.sheltons.com/,Pomona,California,United States,909-623-4361
South Bay Abrams Company,http://www.southbayabrams.com/,Huntington Beach,California,United States,714-934-3400
Stafford Meat Co,http://www.smcjerky.com/,Rio Linda,California,United States,916-991-3021
Willow Glen Meats & Smoke HSE,http://willowglenmeats.com/,San Jose,California,United States,408-279-4009
Country Prime Meats,http://www.countryprime.com/,Lac La Hache,British Columbia,Canada,250-396-4110
Boulder Sausage,http://www.bouldersausage.com/,Louisville,Colorado,United States,866-529-0595
Colorado Premium,http://www.coloradopremium.com/,Denver,Colorado,United States,970-313-4400
Meat Cleaver,http://www.meatcleavergameprocessing.com/,Denver,Colorado,United States,303-458-7563
Meat Speciality of Colorado,http://meatspecialty.com/,Denver,Colorado,United States,303-399-6888
Otteman's Inc Meat Processing,http://www.ottemans.com/,Brighton,Colorado,United States,719-765-4436
Ready Foods Inc,http://www.readyfoods.biz/,Denver,Colorado,United States,800-748-1218
Rocky Mountain Food Factory,http://www.rockymtnfoodfactory.com/,Englewood,Colorado,United States,303-761-3330
Scanga Meat Company,http://scangameat.com/,Brush,Colorado,United States,719-539-3511
Simla Frozen Foods,http://www.simlafoods.com/,Calhan,Colorado,United States,719-541-2360
Steamboat Meat & Seafood Company,http://www.steamboatseafood.com/,Steamboat Springs,Colorado,United States,970-879-3504
Steve's Meat Market,http://www.stevesmeatmarket.com/,Arvada,Colorado,United States,303-422-3487
Sunnyside Meats Inc,http://www.sunnysidemeats.com/,Henderson,Colorado,United States,970-385-0230
Larry Kline Wholesale Meats,http://larryklinemeats.com/,Deerfield Beach,Florida,United States,954-420-0070
Nital Trading Co Inc,http://www.nitaltrading.com/,Deerfield Beach,Florida,United States,305-888-6820
Corner Butcher Shop,http://www.thecornerbutchershop.com/,Canton,Georgia,United States,770-720-8015
Country Ranch Foods,http://www.countryranchfoods.com/,Marietta,Georgia,United States,888-653-5550
Douglasville Retail Meat,http://www.mygourmetsteaks.com/,Douglasville,Georgia,United States,770-947-6624
Oak Grove Market,http://oakgrovemarket.com/,Decatur,Georgia,United States,404-315-9831
Sisson Scale & Equipment Inc,http://www.sissonscale.com/,Savannah,Georgia,United States,912-966-2114
Thompson Farms Smoke House,http://thompsonfarms.com/,Dixie,Georgia,United States,229-263-9074
Jones Meat & Food Service Inc,http://www.jonesmeatandfood.com/,Rigby,Idaho,United States,208-745-6523
Scarrow Meat,http://scarrowmeats.com/,Jerome,Idaho,United States,208-324-7657
Allen Brothers,http://www.allenbrothers.com/,Chicago,Illinois,United States,800-548-7777
Anichini Brothers WHLS Meats,http://www.anichinibrothers.com/,Chicago,Illinois,United States,312-644-8004
Ashland Sausage,http://www.ashlandsausage.com/,Carol Stream,Illinois,United States,630-690-2600
Assemblers Inc,http://www.assemblers.com/,Chicago,Illinois,United States,847-969-5280
Belmont Sausage Co,http://www.belmontsausage.com/,Elk Grove Village,Illinois,United States,847-357-1515
Best Chicago Meat Co,http://www.tastechicagosbest.com/,Chicago,Illinois,United States,773-523-8161
Bob's Better Beef,http://baribeef.com/,South Elgin,Illinois,United States,847-695-7525
Consumer Meat Packing Company,http://consumerspacking.com/,Melrose Park,Illinois,United States,708-344-0047
Deli Direct,http://www.delidirect.com/,Lake Zurich,Illinois,United States,847-438-2604
Echo Valley Meats,http://www.echovalleymeats.com/,Peoria,Illinois,United States,309-697-0083
Economy Packing CO Inc,http://www.economypacking.com/,Chicago,Illinois,United States,312-421-5566
Elegance in Meats Catering,http://www.eleganceinmeat.com/,Northbrook,Illinois,United States,847-480-6328
Elgin Fresh Market,http://www.elginfreshmarket.com/,Elgin,Illinois,United States,847-608-1500
Elgin Fresh Market,http://www.elginfreshmarket.com/,Elgin,Illinois,United States,847-488-0100
Heartland Meats Inc,http://www.heartlandmeats.com/,Mendota,Illinois,United States,815-538-5326
Henry J'S Meat Specialties,http://www.eathash.com/,Chicago,Illinois,United States,773-227-5400
Heybeck's Market,http://www.heybecks.com/,Palatine,Illinois,United States,847-358-3820
James Calvetti Meats Inc,http://www.jcmeats.com/,Chicago,Illinois,United States,773-927-9242
Meats by LINZ,http://meatsbylinz.com/,Calumet City,Illinois,United States,708-862-0830
Nealey Foods Inc,http://nealeyfoods.com/,Chicago,Illinois,United States,312-829-0856
Raber Packing,http://www.raberpacking.com/,Peoria,Illinois,United States,800-331-0545
Randolph Packing,http://www.randolphpacking.com/,Streamwood,Illinois,United States,800-451-1607
Real Sausage Co,http://www.realsausage.com/,Chicago,Illinois,United States,312-842-5330
Reason's Locker Service,http://www.reasonsprairiepride.com/,Buffalo Prairie,Illinois,United States,309-537-3424
Schneider Quality Meats,http://www.schneidersqualitymeats.com/,Waterloo,Illinois,United States,618-939-5252
Speco Inc,http://www.speco.com/,Schiller Park,Illinois,United States,847-678-4240
Stampede Meat Inc,http://www.stampedemeat.com/,Oak Lawn,Illinois,United States,708-636-6275
Suter Company,http://www.suterco.com/,Sycamore,Illinois,United States,800-435-6942
Valley Meats LLC,http://valleymeatsllc.com/,Coal Valley,Illinois,United States,309-799-7341
Beutler Meats,http://www.beutletmeat.com/,Lafayette,Indiana,United States,765-742-7285
Knightstown Locker,http://www.ktownmeatsandcatering.com/,Knightstown,Indiana,United States,765-345-2410
Manley Meats Inc,http://www.manleymeats.com/,Decatur,Indiana,United States,260-592-7313
Parrett's Meat Processing,http://www.parrettscatering.com/,Flora,Indiana,United States,574-967-3711
Rice's Quality Farm Meats Inc,http://www.ricequalityfarmmeats.com/,Spencer,Indiana,United States,812-829-4562
Rihm Foods,http://www.rihmfoods.com/,Cambridge City,Indiana,United States,800-846-6328
B & R Quality Meats Inc,http://www.b-rqualitymeats.com/,Waterloo,Iowa,United States,319-232-6328
Dupey Equipment Company,http://www.dupeyequipment.com/,Clive,Iowa,United States,515-223-0700
Farmland Foods,http://farmlandfoods.com/,Carroll,Iowa,United States,712-792-1686
Mary Ann's Specialty Foods,http://maryannsfoods.com/,Webster City,Iowa,United States,515-832-4740
Oakland Foods LLC,http://osigroup.com/,Council Bluffs,Iowa,United States,712-482-6640
Sioux-Preme Pork Products Limited,http://www.siouxpremepork.com/,Sioux City,Iowa,United States,712-252-0500
West Liberty Foods,http://www.wlfoods.com/,West Liberty,Iowa,United States,888-511-4500
Buffalo Guys LLC,http://www.thebuffaloguys.com/,Goodland,Kansas,United States,785-899-9274
Creekstone Farms Premium Beef,http://www.creekstonefarms.com/,Arkansas City,Kansas,United States,620-741-3100
Elkhorn Valley Packing,http://elkhornvalleypacking.com/,Harper,Kansas,United States,620-896-2508
Fanestil Packing Company,http://fanestils.com/,Emporia,Kansas,United States,620-342-6354
Klowa Locker System,http://www.chieftainmeats.com/,Kiowa,Kansas,United States,620-825-4574
Critchfield Meats Wholesale,http://www.critchfieldmeats.com/,Lexington,Kentucky,United States,859-255-6021
Robertson's Country Hams,http://www.finchvillefarms.com/,Finchville,Kentucky,United States,502-834-7952
Webb's Butcher Block,http://www.webbsbutcherblock.com/,Payneville,Kentucky,United States,270-496-4124
Double D Meats,http://www.doubledsausage.com/,Bogolusa,Louisiana,United States,800-256-1222
McCain Farms,http://www.mccainfarm.com/,Calhoun,Louisiana,United States,318-644-2677
Mitchell Family Farm,http://www.mitchellfamilyfarm.net/,Rayville,Louisiana,United States,318-728-4037
Targil Inc,http://www.targil.com/,Opelousas,Louisiana,United States,337-942-6276
Lukas Foods,http://www.lukasfoods.com/,Biddeford,Maine,United States,207-284-7052
Bianco & Sons Italian Sausage,http://www.biancosausage.com/,Revere,Massachusetts ,United States,781-289-4688
Butcher Block Meat Company,http://butcherblockinc.com/,Boston,Massachusetts ,United States,617-269-1470
Butchery,http://www.danversbutchery.com/,Newbury,Massachusetts ,United States,978-463-3001
Dimetra Delights,http://www.dimetradelights.com/,North Grafton,Massachusetts ,United States,800-763-1113
Hatfield Beef Co,http://hatfieldbeef.com/,Hatfield,Massachusetts ,United States,413-247-5441
Bellingar Packing,http://www.bellingarpacking.com/,Saint Louis,Michigan,United States,989-838-2274
Byron Center Meats,http://www.byroncentermeats.com/,Byron Center,Michigan,United States,616-878-1578
D J'S Meats,http://www.djmeats.com/,Highland,Michigan,United States,248-889-0300
Fairway Packing Company,http://www.fairwaypacking.com/,Detroit,Michigan,United States,313-832-2710
Galesburg Meat Company,http://www.galesburgmeatco.com/,Galesburg,Michigan,United States,269-665-9501
Vollwerth & CO Sausage MFG,http://vollwerth.com/,Hancock,Michigan,United States,906-482-1550
Wolverine Packing,http://www.wolverinepacking.com/,Detroit,Michigan,United States,313-259-7500
​Captain Kens Foods,http://www.captainkens.com/,St. Paul,Minnesota,United States,800-510-3811
Backus Locker,http://backusmeatmarket.com/,Waconia,Minnesota,United States,218-947-4220
Foley Locker Service,http://foleylocker.com/,Hugo,Minnesota,United States,320-968-7267
French Lake Butcher Shop,http://www.frenchlakebutchershop.com/,South Haven,Minnesota,United States,320-286-5345
Greater American Ribs,http://www.garibs.com/,Woodbury,Minnesota,United States,651-739-0161
Lorentz Processing Plant,http://lorentzmeats.com/,Cannon Falls,Minnesota,United States,507-263-3618
McDonald's Meats Inc,http://www.mcdonaldsmeats.com/,Clear Lake,Minnesota,United States,320-743-2311
Stone Gate Foods,http://www.stone-gatefoods.com/,Shakopee,Minnesota,United States,952-445-1350
American Halal Meat Inc,http://halal-meats.com/,New Haven,Missouri,United States,573-237-4773
Frick's Quality Meats Inc,http://frickmeats.com/,Washington,Missouri,United States,636-239-2200
Heintz Processing,http://www.heintzprocessing.com/,Cuba,Missouri,United States,573-732-9938
Ozark Pride Meat Company,http://www.ozarkpride.com/,Bonne Terre,Missouri,United States,573-358-7340
Performance Foodservice,http://www.pfgmiddendorf.com/,Saint Louis,Missouri,United States,314-241-4800
Special D Meats,http://specialdmeats.com/,Macon,Missouri,United States,660-385-2141
Thomas Farm Quality Meats,http://www.thomasfarmmeats.com/,Ridgeway,Missouri,United States,660-872-6716
Chalet Markets of Montana,http://www.chaletmarket.com/,Belgrade,Montana,United States,406-388-4687
House of Meats Game Processing,http://www.houseofmeats.net/,Great Falls,Montana,United States,406-727-7849
Fremont Meat Market Inc,http://www.fremontmeats.com/,Fremont,Nebraska,United States,402-721-8782
Needham Inc,http://www.needhaminc.net/,Omaha,Nebraska,United States,402-344-3820
Panama Locker,http://www.needhaminc.net/,Panama,Nebraska,United States,402-788-2571
Quality Pork INTL Inc,http://qpii.com/,Hastings,Nebraska,United States,402-339-1911
Butler Gourmet Meats,http://butlermeats.com/,Carson City,Nevada,United States,775-883-0211
Calvada Sales Company,http://www.calvadafoods.com/,Sparks,Nevada,United States,775-359-4740
Butcher Block Inc,http://ncsmokehouse.com/,Claremont,New Hampshire,United States,603-542-8323
Sausage Source,http://sausagesource.com/,Hillsborough,New Hampshire,United States,603-464-6275
Burger Maker Inc,http://burgermaker.com/,Carlstadt,New Jersey,United States,201-939-4747
Bylada Foods,http://www.byladafoods.com/,Moonachie,New Jersey,United States,201-933-7474
Carl Streit & Son Company,http://www.byladafoods.com/,Neptune,New Jersey,United States,732-775-0803
Carnegie Deli Inc,http://www.carnegiedeli.com/,Carlstadt,New Jersey,United States,201-507-5557
Dan Rich Meat Products Inc,http://nicolosifoods.com/,Union City,New Jersey,United States,201-863-8070
Deep Foods Inc,http://www.deepfoods.com/,Union,New Jersey,United States,866-672-3378
Martin's Specialty Sausage,http://martinssausage.com/,Mickleton,New Jersey,United States,856-423-4000
Monneaux's Marche,http://www.becfin.com/,Linden,New Jersey,United States,908-925-2043
Beef Jerky-Route 66 Old Santa,http://www.route66beefjerky.com/,Albuquerque,New Mexico ,United States,505-255-7950
​Li Destri Foods Inc,http://www.lidestrifoods.com/,Fairport,New York,United States,201-944-1233
B Rosen & Sons Inc,http://rosenlamb.com/,Bronx,New York,United States,718-842-4447
Crescent Packing Corp,http://www.crescentpacking.com/,Farmingdale,New York,United States,631-253-0700
Crescent Packing Corporation,http://crescentpacking.com/,Wyandanch,New York,United States,631-253-0700
G & L Davis Meat Company,http://gianellisausage.com/,Liverpool,New York,United States,315-471-9164
Giovanni Esposito & Sons,http://www.espositosausage.com/,New York,New York,United States,212-868-4142
Hartmann's Old World Sausage,http://www.hartmannssausage.com/,Rochester,New York,United States,585-266-4960
Hofmann Sausage Company,http://www.hofmannsausage.com/,Syracuse,New York,United States,315-437-7257
Imperial Co-Packing,http://www.imperialcopacking.com/,Gloversville,New York,United States,518-921-0006
Marsh Mill Ranch,http://marshmillranch.com/,Kirkville,New York,United States,315-633-2888
Mountain States Rosen Co,http://www.mountainstatesrosen.com/,Bronx,New York,United States,800-872-5262
Smith Packing,http://www.smithpacking.com/,Utica,New York,United States,315-732-5125
Tony's Fish & Seafood,http://tonysfish.com/,Bronx,New York,United States,718-328-5200
Wilson Beef Farms,http://wilsonbeeffarms.com/,Canaseraga,New York,United States,607-545-8308
Biltongusainc,http://www.biltongusa.com/,Stallings,North Carolina ,United States,704-882-2219
Decore-Ative Specialties,http://www.decore.com/,Monroe,North Carolina ,United States,704-291-9669
Key Packing Co,http://www.keypackingcompany.com/,Robbins,North Carolina ,United States,910-464-3507
Mays Meat Processing,http://www.maysmeats.net/,Taylorsville,North Carolina ,United States,828-632-2034
Seven Foods,http://www.sevenfoods.net/,Charlotte,North Carolina ,United States,888-778-5866
Thomas Brothers Country Ham,http://thomasbrothersham.com/,Asheboro,North Carolina ,United States,336-672-0337
Triad Meat Co,http://www.triadmeat.com/,Greensboro,North Carolina ,United States,336-275-5671
Casselton Cold Storage,http://casselton.net/,Casselton,North Dakota,United States,701-347-4781
Fargo Packing & Sausage Company,http://qualitymeats.com/,West Fargo,North Dakota,United States,701-282-3211
Maple Valley Lockers,http://www.maplevalleylocker.com/,Enderlin,North Dakota,United States,701-437-3311
Myers' Meats & Specialties,http://www.myersmeats.com/,Parshall,North Dakota,United States,701-743-4451
Quality Meats & Seafood,http://www.qualitymeats.com/,West Fargo,North Dakota,United States,701-282-0202
Barb & Patty's Butcher Palace,http://barbandpattys.com/,Mentor,Ohio,United States,440-255-7774
Burkettsville Stockyards,http://werlingandsons.com/,Burkettsville,Ohio,United States,419-375-4186
Canal Fulton Provision Inc,http://canalfultonpro.com/,Canal Fulton,Ohio,United States,330-854-3502
Classic Delight Co,http://www.classicdelight.com/,St. Marys,Ohio,United States,419-394-7955
Curlys Custom Meats,http://www.curlysjerky.com/,Sidney,Ohio,United States,937-596-6518
Curly's Custom Meats,http://www.curlysjerky.com/,Jackson Center,Ohio,United States,937-596-6518
Duma Meats Inc,http://dumameatsfarmmarket.com/,Mogadore,Ohio,United States,330-628-3438
Herman Falter Packing Company,http://www.faltersmeats.com/,Columbus,Ohio,United States,614-444-1141
Jerry's Meats & Pizza Supply,http://www.mobilegrills.com/,Columbus,Ohio,United States,614-268-4646
Marshallville Packing Co,http://www.marshallville-meats.com/,Marshallville,Ohio,United States,330-855-2871
Meat Packers Outlet Company,http://www.meatpackersoutlet.com/,Columbus,Ohio,United States,614-469-1720
Michael's Finer Meats Seafoods,http://www.michaelsmeats.com/,Columbus,Ohio,United States,614-527-4900
OLDE VILLAGE MEATS,http://oldevillagemeats.com/,Garfield Heights,Ohio,United States,740-828-2823
Shaker Valley Foods,http://shakervalleyfoods.com/,Cleveland,Ohio,United States,216-961-8600
Sugar Creek,http://www.sugarcreek.com/,Dayton,Ohio,United States,800-848-8205
Sugar Valley Meats,http://www.sugarval.qpg.com/,Sugarcreek,Ohio,United States,330-852-4423
Zwanenberg Food Group,http://www.zwanfood.com/,Cincinnati,Ohio,United States,888-466-4398
Bar S Foods Company,http://bar-s.com/,Altus,Oklahoma,United States,580-481-3800
Country Home Meat Company,http://www.countryhomemeats.com/,Edmond,Oklahoma,United States,405-341-0267
Meat Supply Wholesale,http://hebertsmeats.com/,Tulsa,Oklahoma,United States,918-392-2939
Oklahoma City Meat Co Inc,http://www.okcmeat.com/,Oklahoma City,Oklahoma,United States,405-235-3308
Ralph's Packing Co,http://www.ralphspacking.com/,Perkins,Oklahoma,United States,800-522-3979
Schwab Meat,http://www.schwabmeat.com/,Oklahoma City,Oklahoma,United States,405-235-2376
Alpak Food Equipment,http://www.alpakfoodequipment.com/,Portland,Oregon,United States,503-257-7941
Bornstein Seafoods,http://bornstein.com/,Astoria,Oregon,United States,503-325-6164
Century Oak Packing Co,http://www.centuryoakpacking.com/,Mt. Angel,Oregon,United States,503-845-4180
Gartner's Country Meat Market,http://www.gartnersmeats.com/,Portland,Oregon,United States,503-252-7801
Genes Meat Market,http://www.genesmeatmarket.com/,Salem,Oregon,United States,503-859-2252
Gene's Meat Market,http://www.genesmeatmarket.com/,Mehama,Oregon,United States,503-859-2252
Highland Oak Farm LLC,http://www.highlandoakfarm.com/,Scio,Oregon,United States,503-551-2680
Painted Hills Premium Beef,http://natural-beef.com/,Fossil,Oregon,United States,541-763-2333
Reed & Hertig Packing Company,http://reedandhertig.com/,Warrenton,Oregon,United States,503-861-2237
Sweet Home Farms Meats LLC,http://www.swmeats.com/,Sweet Home,Oregon,United States,541-367-1127
Voget Meats Inc,http://www.vogetmeats.com/,Hubbard,Oregon,United States,503-981-6271
Willamette Valley Meat,http://www.wvmeat.com/,Portland,Oregon,United States,503-232-0933
Astra Foods,http://astrafoods.com/,Upper Darby,Pennsylvania,United States,610-352-4400
Brody Butcher Supplies,http://brodybutchersupply.com/,Bethel Park,Pennsylvania,United States,412-833-3801
Bur-Pak Butcher Shop,http://www.bur-pak.com/,Myerstown,Pennsylvania,United States,717-933-5373
Citterio USA,http://www.citteriousa.com/,Freeland,Pennsylvania,United States,570-636-3171
Hatfield Quality Meats Inc,http://www.hatfieldqualitymeats.com/,Hatfield,Pennsylvania,United States,215-368-2500
Kessler's Locker Plant & Quality Frozen Foods,http://www.royalgourmetfoods.com/,Nazareth,Pennsylvania,United States,610-759-4540
Miller's Quality Meats Inc,http://millersqualitymeats.com/,Butler,Pennsylvania,United States,724-287-5480
Safe Pac,http://www.safepac.biz/,Philadelphia,Pennsylvania,United States,267-324-5631
Smuckers Meat,http://smuckersmeats.com/,Mount Joy,Pennsylvania,United States,717-653-0303
Uncle Charley's Sausage,http://unclecharleyssausage.com/,Vandergrift,Pennsylvania,United States,724-845-3302
Wayne Nell & Sons Meat Inc,http://pameats.com/,East Berlin,Pennsylvania,United States,717-259-9587
Wenger Meats & Ice Company,http://www.wengermeats.com/,Carlisle,Pennsylvania,United States,717-249-3223
Four Oaks Farm,http://www.fouroaksfarm.com/,Columbia,South Carolina ,United States,803-356-3194
Long Seafood Industries,http://www.longfoodindustries.com/,Fripp Island,South Carolina ,United States,843-838-3205
Lee's Meats & Sausages,http://www.leesmeats.com/,Tea,South Dakota,United States,605-368-2161
North Central Food Processing,http://www.northcentralfoods.com/,Sioux Falls,South Dakota,United States,605-274-3064
Scotland Locker,http://www.scotlandsd.org/,Scotland,South Dakota,United States,605-583-4182
Fineberg Packing,http://www.finebergpacking.com/,Memphis,Tennessee,United States,901-458-2622
Hampton Meat Processing,http://www.hamptonmeat.com/,Decatur,Tennessee,United States,423-334-1079
Monogram Foods,http://www.monogramfoods.com/,Memphis,Tennessee,United States,901-685-7167
Vietti Foods Co Inc,http://www.viettifoodsinc.com/,Nashville,Tennessee,United States,615-244-7864
Addison Foods Inc,http://addisonfoods.com/,Addison,Texas,United States,972-713-6700
Andy Garcia Foods,http://www.garciafoods.com/,San Antonio,Texas,United States,210-349-6262
Burgundy Pasture Beef,http://burgundypasturebeef.com/,Dallas,Texas,United States,817-866-2247
Columbia Packing CO Inc,http://www.columbiapacking.com/,Dallas,Texas,United States,214-946-8171
DEEN Meats,http://www.deenmeat.com/,Fort Worth,Texas,United States,817-335-2257
Dewied International Inc,http://dewied.com/,San Antonio,Texas,United States,210-661-6161
Ditta Meat Foodservice Company,http://dittameat.com/,Pasadena,Texas,United States,281-487-2010
Fischers Meat,http://www.fischersmeatmarket.com/,Muenster,Texas,United States,940-759-4240
Freedman Food Service,http://freedmanfoods.com/,Dallas,Texas,United States,214-331-8711
Freer Deer Camp,http://www.freerdeercamp.com/,Freer,Texas,United States,361-394-5586
Going's Meat Processing,http://www.goingsmeatprocessing.com/,Baytown,Texas,United States,281-421-2237
Heritage Family Specialty Foods,http://www.hsffoods.com/,Grand Prairie,Texas,United States,800-648-2837
Hill Country Deer Processing,http://hillcountrydeer.com/,Fredericksburg,Texas,United States,830-997-6043
J & J Packing CO Inc,http://pork2go.com/,Brookshire,Texas,United States,281-375-6060
Jackson's Deer Processing,http://www.jacksonsdeerprocessing.com/,Crosby,Texas,United States,281-328-3515
Johnny G'S Butcher Block,http://www.johnnygbutcherblock.com/,Austin,Texas,United States,512-280-6514
Kenco Service,http://www.alliedkenco.com/,Houston,Texas,United States,713-691-2935
Kuby's Sausage House Inc,http://www.kubys.com/,Dallas,Texas,United States,214-951-7441
Lad's Smoke House & Catering,http://ladssmokehouse.com/,Needville,Texas,United States,979-793-6210
Martin Preferred Foods,http://martinpreferredfoods.com/,Houston,Texas,United States,713-457-8337
Mount Royal USA,http://www.mountroyal.com/,Houston,Texas,United States,713-862-1800
Patterson Food Processors,http://www.pattersonfoods.com/,Dallas,Texas,United States,214-821-3300
Red Rock Foods,http://www.redrockfoods.com/,Grand Prairie,Texas,United States,817-484-6949
Rhodes Brothers Taxidermy,http://www.rhodestaxidermy.com/,Kerrville,Texas,United States,830-896-6996
Rhodes Taxidermy & Game Processing,http://www.rhodestaxidermy.com/,Houston,Texas,United States,830-896-6996
Southwest Saw Corporation,http://www.southwestsaw.com/,Houston,Texas,United States,713-796-9231
Taylor Meat Company,http://www.southwestsaw.com/,Taylor,Texas,United States,512-365-6358
Woodbury Wild Game Processing,http://woodburytaxidermy.com/,Lewisville,Texas,United States,830-367-5855
Yoakum Packing Company,http://farmpac.com/,Yoakum,Texas,United States,361-293-3541
Stone Meats Inc,http://stonemeats.com/,Lindon,Utah,United States,801-782-9825
Vermont Packinghouse LLC,http://www.vermontpackinghouse.com/,North Springfiels,Vermont,United States,802-886-8688
Food Technology Corporation,http://www.foodtechcorp.com/,Sterling,Virginia,United States,703-433-9247
MTS Equipment,http://mtsequipment.com/,Winchester,Virginia,United States,540-662-5927
Organic Butcher,http://www.theorganicbutcher.com/,Charlottesville,Virginia,United States,434-244-7400
Virginia Packing LLC,http://www.virginiapacking.com/,Toano,Virginia,United States,757-741-4016
Wholesome Foods Inc,http://www.wholesomefoodsinc.com/,Edinburg,Virginia,United States,540-984-8219
Alaska General Seafoods,http://www.akgen.com/,Kenmore,Washington,United States,425-485-7755
Aleutian Spray Fisheries,http://starboats.com/,Seattle,Washington,United States,206-784-5000
American Seafoods Company,http://americanseafoods.com/,Seattle,Washington,United States,206-448-2331
Angus Meats Inc,http://www.angusmeats.com/,Spokane,Washington,United States,509-482-7033
Bornstein Seafoods Inc,http://www.bornstein.com/,Bellingham,Washington,United States,360-734-7990
Cascioppo Brothers Italian,http://cascioppomeats.com/,Seattle,Washington,United States,206-784-6121
CNJ Custom Meats,http://www.cnjcustommeats.com/,Clayton,Washington,United States,509-276-6940
Glacier Fish Co LLC,http://glacierfish.com/,Seattle,Washington,United States,206-298-1200
Interocean Seafood Company,http://inseaco.com/,Seattle,Washington,United States,206-352-8686
Leitor Sales & Service,http://leitor.com/,Seattle,Washington,United States,206-781-8110
Littlerock Meats,http://www.littlerockmeats.com/,Olympia,Washington,United States,360-754-5233
Minder Meats Inc,http://www.mindermeats.com/,Bremerton,Washington,United States,360-479-0880
Shining Ocean,http://kanimi.com/,Sumner,Washington,United States,253-826-3126
Shining Ocean,http://www.kanimi.com/,Seattle,Washington,United States,206-285-8238
Brossman's Meat Market & Ctrng,http://www.brossmansmeats.com/,Racine,Wisconsin,United States,262-639-5828
C A Flipse Sons Company,http://www.flipseandsons.com/,Sheboygan,Wisconsin,United States,920-452-5321
Country Fresh Meats,http://www.countryfreshmeats.com/,Schofield,Wisconsin,United States,715-359-1311
Detjens Country Cutting Inc,http://www.detjensmeat.com/,Watertown,Wisconsin,United States,920-261-7807
Family Farms Inc,http://www.familyfarmsinc.com/,Eleva,Wisconsin,United States,715-287-4670
Gays Mills Locker Service Kickapoo,http://www.kickapoolocker.com/,Gays Mills,Wisconsin,United States,608-735-4531
Holly Storage,http://hollyss.com/,Sun Prairie,Wisconsin,United States,608-837-3505
Holmen Locker & Meat Market,http://www.holmenmeatmarket.com/,Holmen,Wisconsin,United States,608-526-3112
Leroy Meats Of Horicon,http://www.leroymeats.com/,Horicon,Wisconsin,United States,920-485-2554
Lindsay Foods,http://www.lindsayfoods.com/,Milwaukee,Wisconsin,United States,414-649-2500
Maplewood Meats,http://www.maplewoodmeats.com/,Green Bay,Wisconsin,United States,920-865-7901
Miesfeld's Triangle Market Inc,http://www.miesfelds.com/,Sheboygan,Wisconsin,United States,920-565-6328
Northstar Bison,http://www.northstarbison.com/,Rice Lake,Wisconsin,United States,715-234-9085
Northstar Bison LLC,http://www.northstarbison.com/,Conrath,Wisconsin,United States,715-532-5063
Pritzlaff Brothers Meats,http://pritzlaffbrothers.com/,New Berlin,Wisconsin,United States,262-786-1151
Rivers Edge Farm Market,http://www.riversedgemarket.com/,Jefferson,Wisconsin,United States,920-674-6466
Roehrborn Meat,http://www.roehrbornmeats.com/,Brillion,Wisconsin,United States,920-756-2400
Smoky Valley Meats,http://cher-make.com/,Manitowoc,Wisconsin,United States,920-683-5980
Toubl Game Bird Farms,http://www.toubl.com/,Beloit,Wisconsin,United States,608-365-1789
Wisconsin River Meats,http://www.wisconsinrivermeats.com/,Mauston,Wisconsin,United States,608-847-7413
R & B Meats & Catering,http://www.whitemountainbuffalo.com/,Green River,Wyoming,United States,307-875-2556
Wyoming Gourmet Beef,http://www.wyominggourmetbeef.com/,Cody,Wyoming,United States,307-587-9841
,,,,,
,,,,,
,,,,,