Company Name,Website,City,State,Country,Phone
A & B Sheet Metal Inc,www.aandbsheetmetal.com,Portland ,Oregon,United States,503-254-5584
A S Fabricating,www.asfabricating.com,Mount Vernon,Illinois,United States,618-242-7438
A-1 Sheet Metal & Air Cond Inc,www.a-1sheetmetal.com,Beaumont,Texas,United States,409-833-9947
ABC Sheet Metal,www.abcsheetmetal.com,Anaheim ,California,United States,714-630-6200
Abel Manufacturing CO,www.abelmanufacturing.com,Appleton,Wisconsin,United States,920-734-4443
Able Sheet Metal Inc,www.ablemetal.com,Los Angeles ,California,United States,323-269-2181
ABS Sign Company,www.absneon.com,Wildwood,New Jersey,United States,609-522-6833
Accu-Fab Inc,www.accu-fabinc.com,Wheeling ,Illinois,United States,847-541-4230
Accurate Machine & Tool Corporation,www.acctool.net,Madison,Alabama,United States,256-461-8063
Accurate Metal Stamping,www.ams-metal.com,Forth Worth ,Texas,United States,817-284-9444
Acme Manufacturing Corporation,www.fastcurbs.net,Claremore,Oklahoma,United States,918-266-3097
Action Compaction,www.actioncompaction.com,Phoenix,Arizona,United States,602-278-0512
Action Duct Cleaning,www.actionduct.com,Los Angeles ,California,United States,951-582-9046
Active Roofing CO Inc,www.activeroofing.com,Hickory Hills,Illinois,United States,708-430-8080
Advanced Welding Technology,,Burley,Idaho,United States,208-878-9455
Aelott Air Conditioning,www.aelott.com,Escondido ,California,United States,760-480-7844
Aeron Group,www.aerongroup.com,Broken Arrow,Oklahoma,United States,918-294-1167
Aerospace America Inc,www.aerospaceamerica.com,Bay City,Michigan,United States,989-684-4486
AES Inc,www.aescurb.com,Tallassee,Alabama,United States,334-283-6578
AFC Finishing Systems,www.afc-ca.com,Oroville,California,United States,530-533-8907
AION Creative,www.aioncompany.com,Toluca Lake,California,United States,805-341-0288
Air Flow CO Inc,www.airflowco.net,Addison,Illinois,United States,630-628-1138
Air Systems Inc,www.airsystemsinc.com,San Jose,California,United States,408-280-1666
Airtech Products Inc,www.airtechproducts.com,Tulsa ,Oklahoma,United States,918-241-0264
Airtech Service Co Inc,www.airtech-service.com,Powell,Tennessee,United States,865-938-7826
Ajax Window Corporation Factory Shwrm,www.polarsealwindow.com,Grand Rapids,Michigan,United States,616-454-1180
AJL MFG Company,www.ajlmfg.com,Rochester ,New York,United States,585-254-1128
Akiwa Technology,www.akiwa.com,Cerritos,California,United States,562-483-6767
Alabama Steel Building Systems,www.alabamasteel.com,Montgomery,Alabama,United States,334-834-1505
Alaska Sheet Metal,www.aksheetmetal.com,Anchorage ,Alaska ,United States,907-279-6009
Alba's Custom Iron Inc,,Houston,Texas,United States,713-694-2918
Alco Precision,www.alcoprecision.com,Chatsworth ,California,United States,818-998-4457
All Metal Specialties,www.allmetalspecialties.com,Jamestown,New York,United States,716-664-6009
All Metals Fabricating Inc,www.ametals.com,Allen ,Texas,United States,972-699-8221
All West Fabricators Inc,,Fremont,California,United States,510-623-1200
Allied Sheet Metal Works Inc,www.alliedsheetmetalworks.com,Charlotte,North Carolina,United States,704-376-8469
Alta Industries,www.speclight.com,Fall River,Massachusetts,United States,508-678-3374
Alubridge LLC,,Ann Arbor,Michigan,United States,855-373-7500
Amazon Steel Construction Inc,www.amazonsteelconstruction.com,Milford,Delaware,United States,302-751-1146
American Artisan Machinery & Fabrication Inc,,Cary,North Carolina,United States,919-388-7561
American Bridge Manufacturing Co,,Coraopolis,Pennsylvania,United States,541-271-1100
American Controls Inc,www.americancontrolsinc.com,Farmington,Michigan,United States,248-476-7782
American Duct Systems,www.americanduct.net,Garland,Texas,United States,972-494-7300
"American Products, Inc",www.americanprod.com,Tampa,Florida,United States,813-925-0144
Amtech Manufacturing Inc,www.amtech-eng.com,Forth Worth ,Texas,United States,817-563-1251
Anco Products Inc,www.ancoproductsinc.com,Elkhatr,Indiana,United States,574-293-5574
APW Wyott Inc,www.apwwyott.com,Dallas,Texas,United States,214-421-7366
Aran Stainless Fabricators Inc,www.aranstainless.com/,Litchfield,Illinois,United States,800-228-2726
ARC Enterprises Inc,www.arcenterprisesinc.com,Kingfield,Maine,United States,207-265-2646
Archer Precision INC,www.archersprecision.com,Portland ,Oregon,United States,503-968-9144
Architectural Building Cmpnnts,www.archmetalroof.com,Houston,Texas,United States,281-931-3986
Argo Blower & MFG CO Inc,www.argoblower.com,Seattle,Washington,United States,206-762-9336
Artistic Welding Precision,www.artistic-welding.com,Carson,California,United States,310-515-4922
Arvite Technologies Inc,www.arvite.com,Sharon Hill ,Pennsylvania,United States,814-838-9444
Ascension Industries,www.asmfab.com,North Tonawanda,New York,United States,716-693-9381
Ash Manufacturing Inc,www.ashdome.net,Plainfield,Illinois,United States,815-436-9403
Asi Metal Fabrication & Sls,,Springfield,Illinois,United States,217-523-4740
Asp Industries Inc,www.aspindustries.com,Rochester ,New York,United States,585-254-9130
Astro Machine Company,www.astromachine.net,Hawthorne,California,United States,310-679-8291
Atlantic Air Products,www.atlanticairproducts.com,Bow,New Hampshire,United States,603-224-9680
Atlantic Engineered Products,www.atlanticengineered.com,Brunswick,Georgia,United States,912-265-7384
Atlas Tool Inc,www.atlastool.com,Roseville,Michigan,United States,586-778-3570
Aurora Machine & MFG Inc,www.auroramachine.com,Rochester ,New York,United States,585-436-8730
Auto Metal Craft Inc,www.autometal.com,Oak Park,Michigan,United States,248-398-2600
Avenue Metal MFG Co,www.avenuemetal.com,Chicago,Illinois,United States,312-243-3483
Aviaid Metal Products,www.aviaidmetal.com,North Hollywood,California,United States,818-765-2051
A-W Airflo Industries Inc,www.awairflo.com,Newburyport,Massachusetts,United States,978-465-6260
Award Metals,www.awardmetals.com,Denver,Colorado,United States,303-371-8330
AZ Manufacturing,www.azmfginc.com,Costa Mesa,California,United States,714-444-4446
B & K Dock & Barge CO,,Lake Ozark,Missouri,United States,573-348-5016
Badger Sheet Metal Inc,www.badgersheetmetal.com,De Forest,Wisconsin,United States,608-846-2175
Baker Tank,www.bakeraltech.com,Arp ,Texas,United States,903-859-2111
Barncraft Building Supply,www.barncraftjc.com,Junction City,Oregon,United States,541-998-2317
Barnes & Jones Inc,www.barnesandjones.com,Randolph,Massachusetts,United States,781-963-8000
Barrington Manufacturing,www.barringtonmfg.com,El Dorado Springs,Missouri,United States,417-876-5885
Barzillai Manufacturing Company,www.barzillaimfg.com,Ontario,California,United States,909-947-4200
Batts Inc,www.battsinc.com,Advance,Indiana,United States,765-676-5123
Baxley Tank & Coating,www.baxleycompanies.com,Dothan ,Alabama,United States,334-794-5550
Bay Cities Metal Products,www.baycitiesmetalproducts.com,Gardena,California,United States,310-660-0351
Bayou Sheet Metal,www.bsmshouma.com,Houma,Lousiana,United States,985-876-8026
Baytown Sheet Metal Works,www.baytemperaturecontrol.com,Baytown,Texas,United States,281-421-5791
Bdj Techmation,www.bdj-techmation.net,West Unity,Ohio,United States,419-924-2386
Beach Sheet Metal CO Inc,www.beachsheetmetal.com,Sunnyvale,Texas,United States,972-226-4440
Beckert & Hiester Inc,www.bhdustcollectors.com,Saginaw,Michigan,United States,989-793-2420
BEHL Precision Fabricating Inc,www.behl.com,Stafford,Texas,United States,281-564-2345
Belco Industries Inc,www.belcoind.com,Belding,Michigan,United States,616-794-0410
Belle City Metal Products Inc,www.bellecitymetal.com,Mount Pleasant,Wisconsin,United States,262-633-1495
Benavente Inc,www.benaventeinc.com,Santa Ana,California,United States,714-979-0300
Bethel Engineering-Equipment,www.bethelengr.com,New Hampshire,Ohio,United States,419-568-1100
Better BILT Products,www.bbponline.com,Addison,Illinois,United States,630-543-6767
Bhv Sheet Metal Fabricators Of,www.bhvfab.com,Vestal,New York,United States,607-797-1196
Bill Benetreu Co,www.benetreu.com,Springfield,Oregon,United States,541-747-2510
Biological Fab Technologies Inc,www.biofabtech.com,Kenosha,Wisconsin,United States,262-948-8130
Bliss Industries Inc,www.blissindustries.com,Milpitas,California,United States,408-945-8401
Blount Metal Finishing,,Walland,Tennessee,United States,865-984-4941
Blumenthal Sheet Metal,www.blumenthalinc.com,Houston,Texas,United States,713-228-6432
Bohnert Welding Pioneer Seed,www.bohnertwelding.com,Jewell,Kansas,United States,785-428-3238
Bos Sheet Metal Inc,www.bossheetmetal.com,Sacramento,California,United States,916-428-7633
Boston Retail,www.bostonretail.com,Medford,Massachusetts,United States,781-395-7417
Bowman Roofing & Sheet Metal,www.bowmanroofing.com,Hickory,North Carolina,United States,828-256-2101
Braka Industries Inc,www.braka.com,Salem ,Oregon,United States,503-245-2936
Brake Supply CO Inc,www.brake.com,Evansville,Indiana,United States,812-467-1000
Bridge Brothers Inc,www.bridgebrothers.com,Atlanta,Georgia,United States,866-258-3401
Bridges & Towers Inc,,New Castle,Pennsylvania,United States,724-654-6672
Bridgework Construction Supply Inc,,Plainfield,Illinois,United States,815-577-0478
Broadway Sheet Metal & MFG,www.broadwaysheetmetal.com,South San Francisco,California,United States,650-873-4585
Brogdon Machine,www.brogdontool.com,Blue Springs ,Missouri,United States,816-229-1171
Bruce & Dana Inc,www.bruceanddana.com,Salem,Oregon,United States,503-364-5274
Brydenscot Metal Products,www.brydenscot.com,San Bernardino,California,United States,909-799-0088
Buck's Awning,www.bucksawning.com,Forth Worth ,Texas,United States,817-498-1010
BUDDY Sheetmetal Works,www.buddesheetmetal.com,Cincinatti,Ohio,United States,419-222-3045
Bullard Company,www.bullardeng.com,Ottawa Lake,Michigan,United States,419-841-8775
Burning Beard Fabrication,,Albuquerque,New Mexico,United States,505-480-7144
C & S Canopy Inc,www.cscanopy.com,Clanton ,Alabama,United States,205-755-1581
C B Fabrication,www.cbfabricating.com,Plainfield,Indiana,United States,765-649-1336
C J Products,www.cjproducts.net,Hutchinson,Kansas,United States,620-662-3426
C Keller MFG Inc,www.ckellermfg.com,Villa Park,Illinois,United States,630-833-5593
C L Dews & Sons Foundry-Mchn,www.dewsfoundry.com,Hattiesburg,Mississippi,United States,601-582-4427
C P Eakes Co,www.cpeakes.com,Greensboro,North Carolina,United States,336-574-1800
Cain Manufacturing CO Inc,www.cainmfg.com,Pellham ,Alabama,United States,205-663-2200
Cal-Coast Dairy Systems Inc,www.calcoastinc.com,Turlock,California,United States,209-634-3458
Cambridgeport Air Systems Inc,www.cambridgeport.net,Salisbury,Massachusetts,United States,978-465-8481
"Cameron Bridge Works, LLC",www.cameronbridgeworks.com,Elmira,New York,United States,607-734-9456
Campbell International Inc,www.campbellcab.com,Wauconda,Illinois,United States,847-526-7300
Canaan Industries LLC,www.canaanind.com,Racine,Wisconsin,United States,262-898-1555
"Carbis, Inc",www.carbissolutions.com,Florence,South Carolina,United States,800-845-2387
Carbone Sheet Metal Company,www.cmfi.com,Chelsea,Massachusetts,United States,617-884-0237
Cargo Plus Sales & Service,www.cargoplusrv.com,Middlebury,Indiana,United States,574-825-0900
Carolina Machining & Fab Inc,www.cmfinc.net,Youngsville,North Carolina,United States,919-554-9700
Casco Bay Steel Structures Inc,www.cascobaysteel.com,Saco,Maine,United States,207-282-7360
Castle Industries of CA Inc,www.mcgillcorp.com,Ontario,California,United States,909-390-0899
Cazeault Roofers Osterville,www.cazeault.com,Osterville,Massachusetts,United States,508-428-1177
Ceco Inc,www.cecoinc.net,Witchita,Kansas,United States,316-942-7431
CEI,www.ceifloor.com,Dallas,Texas,United States,214-321-1234
Centryco,www.centryco.com,Burlington,New Jersey,United States,609-386-6448
Century Metal Products Inc,www.centurymetalproducts.com,Lowell,Massachusetts,United States,978-454-8051
Chadwick Manufacturing Co,www.chadwickmfg.com,Chadwick,Illinois,United States,815-684-5152
Champion Charter Sales & Service,www.champion-charter.com,Grand Rapids,Michigan,United States,906-779-2360
Champion Metal of Washington,www.championmetal.com,Woodinville,Washington,United States,425-485-3003
Chamtek Manufacturing Inc,www.chamtek.com,Rochester ,New York,United States,585-328-2938
Charles Mc Gee & Associates Inc,,Waxhaw,North Carolina,United States,704-843-2624
Circle Metal Specialties,www.circlemetal.com,Alsip,Illinois,United States,708-597-1700
Citadel Architectural Products,www.citadelap.com,indianapolis,Indiana,United States,317-894-9400
Clad-Rex Inc,www.cladrex.com,Franklin Park,Illinois,United States,847-455-7373
Classic Sheet Metal Inc,www.classic-sheet-metal.com,Franklin Park,Illinois,United States,630-694-0300
Clement Welding & Fabricating,www.cwfcorp.com,Kenosha,Wisconsin,United States,262-652-8280
Clover Sheet Metal Company,www.cloversm.com,Elkhart,Indiana,United States,574-293-5912
CNC Products Inc,www.cncproducts-llc.com,Niles,Michigan,United States,269-684-5500
Cody Company,www.codycompany.com,San Antonio,Texas,United States,210-651-5305
Columbia Manufacturing Services,www.colmfg.com,Vancouver,Washington,United States,360-694-1501
Complete Fusion Wldg & Insptn,,West Linn,Oregon,United States,360-232-2051
Compumeric,www.compumeric.com,Ontario,California,United States,909-605-7666
Compu-Metal,www.compu-metal.com,Ontario,California,United States,909-923-5787
Computron Metal Products Inc,www.computronmetal.com,Whitman,Massachusetts,United States,781-447-2265
Concord Sheet Metal Products Inc,www.concordsheetmetal.com,Concord,California,United States,925-680-8723
Conservatek Industries Inc,www.conservatek.com,Conroe,Texas,United States,936-539-1747
Consolidated Fabricators Inc,www.consolidatedfabricators.com,Auburn,Massachusetts,United States,508-832-9686
Contech Engineered Solutions LLC,www.conteches.com,Alexandria,Minnesota ,United States,320-852-7500
Contractors Welding Service,www.contractorswelding.com,Webster Groves,Missouri,United States,314-962-0202
Convault Inc,www.convault.com,Orlando,Florida,United States,352-748-6462
COPP Industrial MFG Inc,www.coppmfg.com,Pomona,California,United States,909-593-7448
Copper Bridge Technologies LLC,,Salinas,California,United States,831-417-3660
Coreslab Structures Oklahoma Inc,www.coreslab.com,Oklahoma City,Oklahoma,United States,405-672-2325
Corrugated Metals,www.corrugated-metals.com,Belvidere,Illinois,United States,815-323-1310
Cortec Precision Sheet Metal,www.cortecprecision.com,San Jose,California,United States,408-278-8540
Crawford & Co,www.crawfordsheetmetal.com,Rock Island ,Illinois,United States,309-788-4573
Crescent Iron Works Inc,www.crescentironworks.com,Philadelphia,Pennsylvania,United States,215-729-1204
Crown Steel MFG,www.crownsteelmfg.net,San Marcos,California,United States,760-471-1188
Curbs & Damper Products Inc,www.curbsanddampers.com,Roseville,Michigan,United States,586-776-7890
Custom Metal Products,www.custommetalproductsnc.com,Wilmington,North Carolina,United States,910-343-3338
Custom Sheet Metal,www.customsheetmetalinc.com,Pflugerville,Texas,United States,512-836-3259
Custom Sheet Metal Fabricators,www.csmfab.net,Chattanooga,Tennessee,United States,423-867-2355
D & D Metal,www.dndmetal.com,Englewood,Colorado,United States,303-466-4300
D & R Specialties,www.dandrspecialties.com,Navasota,Texas,United States,936-873-2947
D A Moore Corporation,www.damoorecorp.com,Concord,North Carolina,United States,704-788-1128
D C Rollform Corporation,www.dcrollform.com,Falconer,New York,United States,716-483-3294
D J Fabricators Inc,www.djfab.com,Ipswich,Massachusetts,United States,978-356-9400
Dafoura Corporation,,Austin,Texas,United States,512-326-8688
Dallas Trailer Repair Company,www.dallastrailer.com,Irving ,Texas,United States,972-579-9027
Danco Machine Inc,www.dancomachine.com,Santa Clara,California,United States,408-988-0133
Danville Metal Stamping CO Inc,www.danvillemetal.com,Danville,Illinois,United States,217-446-0647
Dave Droegkamp Heating,www.davedroegkamp.com,Hartland,Wisconsin,United States,262-367-2820
Daves Heating & Cooling,www.davesheating.com,Zionsville,Indiana,United States,765-653-7346
David Abood A C Design,www.davidaboodacdesign.com,Melbourne,Florida,United States,352-669-0035
David J Hyde & Associate Inc,www.dhasheetmetal.com,Fenton,Missouri,United States,636-349-5801
Davis & Davis Machine & Fabrication LLC,www.davismachineandfabricating.com,Sedro Woolley,Washington,United States,360-854-9648
Decimal Engineering,www.decimal.net,Pompano Beach ,Florida,United States,954-975-7992
Decimet Sales Inc,www.dsimn.com,Janesville,Minnesota ,United States,763-428-4321
Deer Creek Business Enterprise,www.deer-creek.org,Camden,Indiana,United States,574-859-3552
Deer Creek Business Enterprises Inc,www.deer-creek.org,South Bend,Indiana,United States,574-859-3550
Delta Manufacturing,www.deltamfg.net,Escanaba,Michigan,United States,906-233-1500
Denton Roofing & Metal Works,www.dentontrinityroofing.com,Denton,Texas,United States,940-382-8424
Derecktor of Florida Inc,www.derecktor.com,Dania,Florida,United States,954-920-5756
Detronic Industries Inc,www.detronic.com,Sterling Heights,Michigan,United States,586-977-5660
Dewys Manufacturing Inc,www.dewysmfg.com,Marne,Michigan,United States,616-677-5281
Dexco Co Inc,www.dexcoinc.com,Burlington,North Carolina,United States,336-584-0260
Diamond Perforated Metals Inc,www.diamondperf.com,Visalia,California,United States,559-651-1889
Dibert Electric & Custom Homes LLC,,Newton Falls,Ohio,United States,330-372-1700
Dilbeck Manufacturing Inc,www.dilbeckmfg.com,Tulsa ,Oklahoma,United States,918-836-1555
Di-Matrix,www.azdimatrix.com,Phoenix,Arizona,United States,602-437-1635
DIW Engineering & Fabrication LLC,www.diwfab.com,Dewey,Oklahoma,United States,918-534-0000
Donovan Sheet Metal Inc,www.donovansheetmetal.com,Middleton,Massachusetts,United States,978-739-1553
Ductmate Industries Inc,www.ductmate.com,Lodi,California,United States,209-333-4680
Dufresne Manufacturing Company,www.dufresnemfg.com,Rogers,Minnesota ,United States,651-483-8130
Dunn Heat Exchangers Inc,www.dunnheat.com,Texas City,Texas,United States,409-948-1704
Duval E T & Sons Inc SHT Metl Workers,www.gtrmfg.com,Brockton,Massachusetts,United States,508-588-3240
Dynabilt Steel Truss Mfrng,,Hallandale,Florida,United States,305-919-9800
Dywidag Systems International USA Inc,www.dywidag-systems.com,Bolingbrook,Illinois,United States,630-739-1100
Eab Fabrication Inc.,www.eabfab.com,Quincy,Michigan,United States,517-639-7080
Eagle Machinery & Supply,www.eaglemorlin.com,Addison,Illinois,United States,630-773-3003
Eagle Magnetic CO Inc,www.eaglemagnetic.com,indianapolis,Indiana,United States,317-297-1030
"Eastern Metal Works, Inc",www.easternmetalworks.com,Milford,Connecticut,United States,203-878-6995
Eastern Vent Systems Inc,www.easternvent.com,Pellham ,New Hampshire,United States,603-595-8559
Easy B-Z Manufacturing Company,,Plainview,Minnesota ,United States,507-534-2487
"Eddie Kane Steel Products, Inc",www.eddiekanesteel.com,Commerce,California,United States,562-776-1810
Educated Roofing Systems Inc,www.educatedroofingsystems.com,Driftwood,Texas,United States,888-884-9727
Edwards Metal Shop,www.edwardsmetalshopinc.com/,Winston Salem,North Carolina,United States,336-764-2290
Eldred Sheet Metal Works,www.eldredsheetmetal.com,Houston,Texas,United States,713-227-3251
Electronic Sheetmetal,www.esc-of-fl.com,Melbourne,Florida,United States,321-727-0633
Elkhart Steel Service Inc,www.elkhartsteel.com,Elkhart,Indiana,United States,574-262-2552
Elmhirst Industries,www.elmhirst.net,Sterling Heights,Michigan,United States,586-731-8663
Elston Metal Tanks Inc,www.elstonmetaltanks.com/,Chicago,Illinois,United States,312-486-2873
E-M Metal Fabricator Corporation,www.emmetalfab.com,Elk Grove Village,Illinois,United States,847-593-9970
Embassy Industries Inc,www.embassyind.com,Hauppauge,New York,United States,631-694-1800
EMF,www.emfinc.net,Meritt Island,Florida,United States,321-453-3670
Engineering & INDL Service,www.eislogan.com,Logansport,Indiana,United States,574-722-3714
Engwald Corporation,www.engwald.com,Inwood,New York,United States,516-371-2222
Equipment Design & MFG,www.equipmentdesign.net,Pomona,California,United States,909-594-2229
Erw Inc,www.erwinc.com,Branford ,Connecticut,United States,860-928-1199
Express Metal Inc,www.expressmetalinc.com,Gilroy,California,United States,408-847-7995
Fab Metal,www.fabmetal.net,Powell,Tennessee,United States,865-947-1743
"Fab Shop, Incorporated",www.thefabshop.com,Wahoo,Nebraska,United States,402-443-4330
Fabcor,www.fabcor.net,Fountain Valley,California,United States,714-545-1155
Fabpro Technologies,www.fabprotech.com,Halethorpe,Maryland,United States,410-737-7780
Fabricating Machinery Inc,www.fabmachine.com,Dallas ,Texas,United States,214-688-0472
"Fabrication Automation, LLC",www.fabricationautomation.com,Concord,North Carolina,United States,704-785-2120
Fabrication Sales & Service,,Cincinnati,Ohio,United States,513-504-9810
Fabrication Technologies Inc,www.fabricationtechnologies.com,Libertyville,Illinois,United States,847-362-9800
Falls Manufacturing Inc,www.fallsmanufacturing.com,Brookfield,Wisconsin,United States,262-373-0439
Far West Fabricators,www.farwestfabricators.com,Moxee,Washington,United States,509-453-1663
Field Controls LLC,www.fieldcontrols.com,Kinston ,North Carolina,United States,252-208-7300
Flamco,www.flamco.com,Waco ,Texas,United States,254-799-2657
Flame Cut Steel Inc,www.njprecision.com,Irvington,New Jersey,United States,862-227-3776
Flanders Sheet Metal Inc,www.flandershvac.com,Riverhead ,New York,United States,631-727-2760
Flexmaster,www.flexmasterusa.com,Houston,Texas,United States,713-462-7694
Florida Metal Stamping Inc,www.florida-metal.com,Seminole,Florida,United States,727-541-6441
For Tech,www.fortechfab.com,Syracuse ,New York,United States,315-478-2048
Forced Air Products CO,www.forcedairproducts.com,New Berlin,Wisconsin,United States,262-782-2434
Fox Meadow Forge,,Eugene,Oregon,United States,541-344-4916
Freezing Systems & Service,www.freezingsystems.net,indianapolis,Indiana,United States,219-879-6236
Friedrich Metal Products,www.friedrichmetalproducts.com,Browns Summit,North Carolina,United States,336-375-3067
Ftj Fabrications Inc,,Rocky Mount,Virginia,United States,540-483-9741
Fusion Plus,,Cheney,Washington,United States,509-838-5090
G & M Metal Fabricators,www.gmmetalfab.com,Franklin Park,Illinois,United States,847-678-6501
Gastonia Sheet Metal Works Inc,www.gastoniasheetmetal.com,Gastonia,North Carolina,United States,704-464-4339
General Southern Industries,www.ggsteel.com,Russellville,Alabama,United States,256-332-6654
Genesis Metalworks Inc,www.genesismetalworks.com,Lexington,North Carolina,United States,336-238-5760
Genzink Steel,www.genzinksteel.com,Holland,Michigan,United States,616-392-1437
Ghm Industries Inc,,Charlton,Massachusetts,United States,508-248-3941
Gladwin Machinery & Supply Inc,www.gladwinmachinery.com,Schaumburg ,Illinois,United States,847-490-3500
Global Finishing Solutions LLC,www.globalfinishingsolutions.com,Oseo,Wisconsin,United States,715-597-3168
Gorilla Fabrication,www.gorillafabrication.com,Charleston,South Carolina,United States,843-789-4481
Gould Bass Co Inc,www.gould-bass.net,Pomona,California,United States,909-629-1467
Grating Systems Inc,www.gratingsystems.com,Ogden,Utah,United States,801-621-4243
Grid Division,,Coraopolis,Pennsylvania,United States,412-631-3000
Group Manufacturing Service Inc,www.groupmanufacturing.com,San Jose,California,United States,408-436-1040
GSE Dynamics Inc,www.gsedynamics.com,Hauppauge,New York,United States,631-231-1044
Gulmar Inc,www.bedc.com/gulmar-inc,Brownsville,Texas,United States,956-831-4547
Guzman Manufacturing Inc,www.fabricators-sheetmetal.com,Rowlett,Texas,United States,972-475-4530
H & M Metals Inc,www.hmmetals.net,Amherst,New Hampshire,United States,603-889-8320
H & S MFG Company,www.hsmfg.com,Rowlett,Texas,United States,972-475-4747
H Hirschberger CO Inc,www.hhirschberger.com,Portland ,Oregon,United States,503-228-6732
Hallmark Metals,www.hallmarkmetals.com,Glendora,California,United States,626-335-1263
Halman Steel & Fabrication,,Ashtabula,Ohio,United States,440-992-4239
Hamilton Cascade Corporation,,Carmel,Indiana,United States,317-466-2310
Hamilton Form CO Limited,www.hamiltonform.com,Forth Worth ,Texas,United States,817-590-2111
Hardcore Composites,,New Castle,Delaware,United States,302-442-5900
Harold R Henrich Inc,www.haroldhenrich.com,Lakewood,New  Jersey,United States,732-370-4455
Hart & Cooley Inc,www.hartandcooley.com,Grand Rapids,Michigan,United States,616-656-8200
"Havit Steel Structure Co.,ltd",www.havitsteelstructure.com,Culver City,California,United States,310-920-5186
Hawkins-Hawkins Company,www.hawkinstraffic.com,Berkley,California,United States,510-525-8500
Hayes Metal Fabrication LLC,www.hayesmetalfabrication.com,Derry,Pennsylvania,United States,724-694-5280
Heacock Metal & Machine Company,www.heacockmetal.com,Sylacauga,Alabama,United States,256-245-7761
Hercules Machine Tool & Die Company,www.hmtd.com,Warren,Michigan,United States,586-778-4120
High Tech Industries,www.hitechindcorp.com,Tarpon Springs,Florida,United States,727-942-7933
Highway Systems Incorporated,www.highwaysystemsinc.com,Sumterville,Florida,United States,352-402-0113
Hill Manufacturing,www.hill-mfg.com,Santa Clara,California,United States,408-988-4744
Hill Manufacturing Inc,www.hillmfginc.com,Wauseon,Ohio,United States,419-335-5006
Hillman Thibodeaux Contractor,,Lafayette,Louisiana,United States,337-233-5178
Hirschfeld Steel Group Lp,www.hirschfeld.com,Nashville,North Carolina,United States,252-459-7116
Hi-Tech Fabricators,www.hitechfabricators.com,Milford,New Hampshire,United States,603-672-3766
Hi-Tech Metal & Finish Inc,www.hitechmetals.com,Bellingham,Massachusetts,United States,508-966-0332
HJM Machine Shop & Indl Metal,www.hjmmachine.com,New Orleans,Louisiana,United States,504-733-1060
Holliday Sheet Metal Co,www.hollidaysheetmetal.com,Tyler,Texas,United States,903-561-1375
Hooper Machine,,Macon,Tennessee,United States,931-582-8395
Hoosier Trim Products,www.hoosiertrim.com,indianapolis,Indiana,United States,317-271-4007
Horacio's Welding & Sheet MTL,www.horacios.com,New Bedford,Massachusetts,United States,508-990-9112
HSS IND,www.hsspostal.com,Traverse City,Michigan,United States,231-946-6101
Hub Associates,www.hubassociates.com,Oakland,California,United States,510-633-2000
Huntington Sheet Metal,www.hsmetal.com,Huntington ,Indiana,United States,260-356-9011
Hurricane Archetectural Metal,www.hurricanearchitecturalmetals.com,Naples,Florida,United States,239-643-6847
HVAC Custom Enclosure Company,www.hvaccustomenclosure.com,Hamburg,New York,United States,716-646-0900
Hyde Sheet Metal Inc,www.hydesheetmetal.com,Saint Louis,Missouri,United States,314-423-2332
I D S I,www.idsi.com,Sewickley,Pennsylvania,United States,412-682-3041
I Rauch's Sons,www.irauch.com,East Elmhurst,New York,United States,718-507-8844
Icf Industries Inc,www.icfinc.com,Pleasant Hill,Missouri,United States,816-540-4200
IMC Corporation,www.imc4cnc.com,indianapolis,Indiana,United States,317-787-6358
IMCOR,www.imcor-mfg.com,Phoenix,Arizona,United States,602-245-0148
IMH Products Inc,www.imh.com,indianapolis,Indiana,United States,317-252-5566
Indaco Metals,www.indacometals.com,Shawnee,Oklahoma,United States,405-273-9200
Industrial Sheet Metal & FAB,www.ismfab.com,Vidor ,Texas,United States,409-769-7841
Industricorp,www.industricorp.com/,Frederick,Maryland,United States,410-882-6350
Innovative Manufacturing Solutions,www.innovmfg.com,Des Plaines,Illinois,United States,847-391-8100
Integrated Metal Components,www.imcmetals.com,Wilsonville,Oregon,United States,503-570-8560
Interlock Industries Inc,www.interlockindustries.com,Louisville,Kentucky,United States,502-569-2007
J & M MFG Inc,www.jmmfg.com,Cotati,California,United States,707-795-8223
J M Fabrication Corporation,www.jmfab.com,Arlington,Texas,United States,817-652-0526
J P Bell Fabricating,www.jpbellfab.com,Wood Dale,Illinois,United States,630-766-3366
J R Custom Metal Products INC,www.jrcustommetal.com,Witchita,Kansas,United States,316-263-1318
J T Cazeault & Sons,www.josephtcazeaultroofing.com,Hingham,Massachusetts,United States,781-335-6800
"J. M. L. Contracting & Sales, Inc",www.jmlsheetmetal.com,Warren,Michigan,United States,586-756-4133
Jay Manufacturing Oshkosh Inc,www.jaymanufacturing.com,Oshkosh,Wisconsin,United States,920-235-1770
Jay Moody LLC Heating & Air Conditioning,www.jaymoodyinc.com,Leominster,Massachusetts,United States,978-534-9483
Jedco Inc,www.jedinc.com,Grand Rapids,Michigan,United States,616-459-5161
Jentsch & Company,www.jentschandcompany.com,Buffalo,New York,United States,716-852-4111
Jet Precision Metal Inc,www.jetprecision.com,Hawthorne,New Jersey,United States,973-423-4350
Jewel Precision Sheetmetal Inc,www.jewelprecision.com,Cedar Grove,New Jersey,United States,973-857-5545
Kal Tool & Die Company,www.kal-mfg.com,Webster ,New York,United States,585-265-4310
Kasa Fab,www.kasafab.com,Salina,Kansas,United States,785-825-5612
Kemlee Manufacturing Inc,www.kemleemfg.com,Galena,Kansas,United States,620-783-5035
Ken-Mar Llc,www.ken-mar-psf.com,Salem,New Hampshire,United States,603-898-1268
Ken-Weld Co,www.kenweld.com,Worcester,Massachusetts,United States,508-798-8756
King-Lar Roofing Inc,www.kinglar.com,Decatur,Illinois,United States,217-429-2323
Kitchen Stainless Hoods,www.kitchenstainlesshoods.com,Mentor ,Ohio,United States,330-455-7577
KLW Name Plate,www.klw-mfg.com,Arlington,Washington,United States,360-435-6288
K-Met Industries,www.k-metindustries.com,Monee,Illinois,United States,708-534-3300
KSO Metalfab Inc,www.kso.com,Streamwood,Illinois,United States,630-372-1200
Ktek Carolina,www.dtek-net.com,Pineville,North Carolina,United States,704-554-5657
Kuest Corporation,www.kuestcorp.com,San Antonio,Texas,United States,210-655-8378
L & W Engineering,www.lw-eng.com,Middlebury,Indiana,United States,574-825-5351
L J Custom Saddlery,www.ljsaddlery.com,Guthrie,Oklahoma,United States,405-282-5336
La Follette Machine & Tool Co,www.lafollettemachine.com,La Follette,Tennessee,United States,423-562-5854
Lake HVAC,www.lakehvac.com/,Stoneham,Massachusetts,United States,781-438-8814
Land Metal Precision,www.landmetal.com,Fremont,California,United States,510-687-9450
Landis & GYR Inc,www.landisgyr.us,Lafeyette,Indiana,United States,765-742-1001
Laserfab,www.laserfab.net,Lebanon,Pennsylvania,United States,866-297-6149
Laurel Metal Products Inc,www.laurelmetal.com,Lincolnwood,Illinois,United States,847-674-0064
LAZ Tool & Fabricators,www.laztool.com,Snohomish,Washington,United States,360-568-5749
Lee Products Inc,www.leemetalfab.com,Cleburne ,Texas,United States,817-556-3276
Lehi Sheet Metal Corporation,www.lehisheetmetal.com,Westborough,Massachusetts,United States,508-366-8550
Link Burns MFG CO Inc,www.linkburns.com,Vorhees ,New Jersey,United States,856-429-6844
Linn Products Inc,www.linnproducts.net,Charlotte,Michigan,United States,517-543-1820
Loadmaster,www.loadmaster.org,Norway,Michigan,United States,906-563-9226
Lorrich Industries Inc,www.lorrich.com,Cavalier,North Dakota,United States,701-549-3333
Loyal Manufacturing,www.loyalmfg.com,indianapolis,Indiana,United States,317-359-3185
Ludlow Fabrication & Machining,,Gunter,Texas,United States,214-797-9493
Lundeen Steel Fabrication,,Sandy,Oregon,United States,503-668-3747
Lyman Kevin Roofing,www.lymanroofing.com,Bridgewater,Massachusetts,United States,508-697-8244
M & M MFG Company,www.mmmfg.com,Garland,Texas,United States,214-349-8474
M J M MFG Inc,www.mjmmfg.com,Hialeah,Florida,United States,305-620-2020
M J Williams Heating & Air Conditioning Inc,www.mjwhvac.com/airconditioning/,Webster,Massachusetts,United States,508-949-0035
Mac Cal Inc,www.maccal.com,San Jose,California,United States,408-441-1435
Mac Sheet Metal,www.macsheetmetal.com,Highland,Indiana,United States,317-634-4761
Macy Industries Inc,www.macyindustries.com,Hooksett,New Hampshire,United States,603-623-5568
Magnus High-Tech Industries,www.magnushitech.com,Melbourne,Florida,United States,321-724-9731
Marks Metal Technology Inc,www.digitalweldingsolutions.com,Clackmas,Oregon,United States,503-656-0901
Matrix Metals MFG,www.matrixmminc.com,Lewisville,Texas,United States,972-317-5685
May Tool Inc,www.maytool.com,Paramount,California,United States,562-634-0080
Mayco Industries Inc,www.maycoindustries.com,Birmingham ,Alabama,United States,205-942-4242
Mayoni Enterprises,www.mayoni.com,Pacoima,California,United States,818-896-0026
Mazza Sheet Metal Inc,www.mazza-hvac.com,Olean,New York,United States,716-372-0091
Mc Alpin Industries Inc,www.mcalpin-ind.com,Rochester ,New York,United States,585-266-3060
MC Corvey Sheet Metal Works LP,www.mccorvey.com,Houston,Texas,United States,713-672-0509
MC Laughlin Body CO,www.mclaughlinbody.com,Moline,Illinois,United States,309-762-7755
McGarvin Engineering,www.mcgarvin.com,Lowell,Massachusetts,United States,978-454-2741
MDI Industries Inc,www.mdiindustries.com,Deer Park,New York,United States,631-254-3100
Melrose Metal Products,www.gomelrose.com,Fremont,California,United States,510-657-8771
Metafab DIV Renosys Corporation,www.meta-fab.com,indianapolis,Indiana,United States,317-217-1546
Metal Crafters Inc,www.metal-crafters.com,Ronkonkoma,New York,United States,631-471-7733
Metal Master Inc,www.metalmasterinc.com,San Diego,California,United States,858-292-8880
Metal Masters Northwest,www.metalmastersnw.com,Lynnwood,Washington,United States,425-775-4481
Metal Men,www.the-metalmen.com,Chicopee,Massachusetts,United States,413-533-0513
Metal tech structures,,Asheboro,North Carolina,United States,336-625-3872
Metal Works Inc,www.metalworks-inc.com,Londonderry,New Hampshire,United States,603-332-9323
Metalaire,www.metalaire.com,Milpitas,Florida,United States,727-441-2651
Metallist Inc,www.metallistinc.com,Hillsdale,Michigan,United States,517-437-4476
Metal-Tronics Inc,www.metaltronics.net,Dundas,Minnesota ,United States,651-483-2641
Metfab Engineering,www.metfabeng.com,Attleboro,Massachusetts,United States,508-695-1007
Methods Tooling & MFG Inc,www.methodstooling.com,Mount Marion,New York,United States,845-246-7100
Met-L-Fab Inc,www.met-l-fab.com,Londonderry,New Hampshire,United States,603-432-8400
Metro Fabricating Inc,www.metrofab.com,Bay City,Michigan,United States,989-667-8100
Metzger's Heating & Cooling,www.metzgers.biz,Kalamazoo,Michigan,United States,269-962-7135
Miami Tech Inc,www.miamitech.com,Miami,Florida,United States,305-592-2290
Mid-Continent Engineering Inc,www.mid-continent.com,Minneapolis,Minnesota ,United States,612-781-0260
Midwest Metal Products,www.midwestmetal.com,Muncie,Indiana,United States,765-741-3130
Midwest Metal Works,www.midwestmetalworksinc.com,indianapolis,Indiana,United States,812-981-0810
Mier Products Inc,www.mierproducts.com,Kokomo,Indiana,United States,765-457-0223
Mike's Metal Works Inc,www.mikesmetalworks.net/Home.html,Jamul,California,United States,619-440-8804
Milton Manufacturing Inc,www.miltonmfg.com,Highland Park,Michigan,United States,313-366-2450
Mission Metal Fabricators,www.missionmetalfabricators.com,San Antonio,Texas,United States,210-223-3243
MMP Industries,www.meltometalproducts.com,Freeport,New York,United States,516-546-8866
Mode Industries,www.modeindustries.com,Delavan,Wisconsin,United States,262-728-3036
Modern Sheet Metal Heating & Cleaning,www.modernhvac.com,Neenah ,Wisconsin,United States,920-733-4713
Modineer Company,www.modineer.com,Niles,Michigan,United States,269-683-2550
Montana Metal Products Inc,www.mmpllc.com,Des Plaines,Illinois,United States,847-803-6600
Moss Precision Inc,www.mossprecision.com,Hayward,California,United States,510-785-2247
Mountain View Heating Inc,www.mtviewheating.com,Bend ,Oregon,United States,541-389-6714
Multimetal Products Corporation,www.multimetal.com,Gurnee,Illinois,United States,847-662-9110
Muskogee Metal Fabricators Inc,www.muskogeemetalfab.com,Muskogee,Oklahoma,United States,918-682-7788
Nashua Fabrication Inc,www.nashuafab.com,Hudson,New Hampshire,United States,603-889-2181
National Fabtronix Inc,www.natfab.com,Hayward,California,United States,510-785-3135
National Metal Stampings Inc,www.nationalmetal.com,Lancaster,California,United States,661-945-1157
Nemesis Metals,www.nemesismetals.com,Fond Du Lac ,Wisconsin,United States,920-922-6900
Nesterowicz & Associates,www.nesterowiczandassociates.com,Kirkland,Illinois,United States,815-522-4469
New Age Metal Fabricating Company,www.namf.com,Fairfield ,New Jersey,United States,973-227-9107
New Hampshire Ball Bearings,www.nhbb.com,Peterborough,New Hampshire,United States,603-924-3311
New Hampshire Precision Metal,www.nhprecision.com,Londonderry,New Hampshire,United States,603-668-6777
nfinity Manufactured,www.imilaser.com,Largo,Florida,United States,727-532-4453
NH Standex International Corporation,www.standex.com,Salem,New Hampshire,United States,603-893-9701
Nor-Cal Metal Fabricators,www.ncmf.biz,Oakland,California,United States,510-208-2838
Nordfab Ducting,www.nordfab.com,Thomasville,North Carolina,United States,336-821-0801
North Park Metalworks Inc,www.northparkmetalworkers.com,Rhinebeck,New York,United States,845-876-4775
Northern Manufacturing CO,www.northernmfg.com,Oak Harbor,Ohio,United States,419-898-2821
NUDO Products,www.nudo.com,Springfield,Illinois,United States,217-528-5636
Nu-Way Industries Inc,www.nuwayindustries.com,Des Plaines,Illinois,United States,847-298-7710
O W Hubbell & Sons Inc,www.hubbellgalvanizing.com,Yorkville ,New York,United States,315-736-8311
Oakland Sheet Metal Inc,www.oaklandsheetmetal.com,Scarborough,Maine,United States,207-465-9726
Oakley Industries Inc,www.oakley-ind.com,Clinton Township,Michigan,United States,586-792-1261
Oneto Metal Products Corporation,www.onetometal.com,Sacramento,California,United States,916-681-6555
Oviedo & Segovia Roofing,www.oviedo-segoviaroofing.com,Del Rio ,Texas,United States,830-775-5506
Pacific Air Balance Inc,www.mestek.com,Carson,California,United States,818-838-6606
Palisades Heating & Cooling,www.palisadesheatingandcooling.com,Menasha ,Wisconsin,United States,920-729-1282
Palmer Roofing & Sheet Metal,www.palmerroofing.com,Jeffersonville,Indiana,United States,812-283-4800
Par Inc,www.parmetal.com,Phoenix,Arizona,United States,602-258-2299
Paramount Industries Inc,www.paramountlighting.com,Croswell,Michigan,United States,810-679-2551
Partner Steel Co,www.partnersteel.com,Pocatella,Idaho,United States,208-233-2371
Perfection Architechtural,www.perfectionarch.com,Orlando,Florida,United States,407-678-2821
Phoenix Metal Products Inc,www.phoenixgse.com,Fort Pierce,Florida,United States,772-595-6386
Pinnacle Equipment CO Inc,www.pinnaclequipment.com,indianapolis,Indiana,United States,317-259-1180
Plas-Tal MFG Co,www.plas-tal.com,Santa Fe Springs,California,United States,562-696-7620
Polaris Sheet Metal,www.polarissmi.net,Gloucester,Massachusetts,United States,978-281-5644
Powell Scales NW,www.scalesnw.com,Scio,Oregon,United States,503-394-3660
Prefab Seel Structure Co,www.prefabsteelstructure.com,Glendora,California,United States,909-394-5186
Prestige Metal Products Inc,www.prestigemetals.com,Antioch ,Illinois,United States,847-395-0775
Profab Metal Products,www.profab-metal.com,Lynn,Massachusetts,United States,781-599-8500
Professional Metal Works,www.prometalworks.com,East Lansing,Michigan,United States,517-351-7411
Progressive Metal Forming,www.pmfdraw.com,Whitmore Lake,Michigan,United States,810-231-1100
Prototype & Short Run Service Inc,www.prototype-shortrun.com,Fullerton,California,United States,714-449-9661
PSI Inc,www.psimfg.com,Escondido ,California,United States,760-743-5500
PWP Manufacturing,www.pwpmfg.com,Santa Clara,California,United States,408-748-0120
Quality Fabrication Inc,www.quality-fab.com,Chatsworth ,California,United States,818-709-8505
Quality Stainless Inc,www.qualityfoodequip.com,Oklahoma City,Oklahoma,United States,405-634-4300
Quality Steel Fabrication,www.qsfab.com,Sidney ,Ohio,United States,937-492-9503
Quanex Corporation,www.quanex.com,Houston,Texas,United States,713-961-4600
Quick Draw & Machining Inc,www.quickdraw.com,Ventura,California,United States,805-644-6888
Quincy Metal Fabricators Inc,www.quincymetal.com,Quincy,Illinois,United States,217-228-1037
R & D Laser Processing,www.rndlaser.com,Janesville,Wisconsin,United States,608-743-0305
R & M MFG Co,www.rmmco.com,Minneapolis,Minnesota ,United States,952-929-0468
R F Meeh Co,www.scalefreeintl.com,Fenton,Missouri,United States,636-349-4990
R P Fedder Corporation,www.rpfedder.com,Rochester ,New York,United States,585-288-1600
Radiation Systems Inc,www.radiationsystems.com,Wyckoff,New Jersey,United States,201-891-7515
Rauch David Attorney,www.irauch.com,Long Island City,New York,United States,718-507-8844
Red Bud Industries,www.redbudindustries.com,Red Bud,Illinois,United States,618-282-3801
Regal Research & MFG Company,www.regalresearch.com,Plano,Texas,United States,972-494-0359
Reliance Manufacturing Corporation,www.reliance-manufacturing.com,Woodinville,Washington,United States,425-481-3030
Repair Products Inc,www.rprhouston.com,Houston,Texas,United States,713-697-7003
RESH Inc,www.reshinc.com,Franklin ,Massachusetts,United States,508-541-8844
Responsible Metal FAB,www.responsiblemetal.com,Sunnyvale,California,United States,408-734-0713
Ridge Engineering Inc,www.ridgeeng.com,Hampstead,Maryland,United States,410-374-6818
Rigidized Metal Corporation,www.rigidized.com,Buffalo,New York,United States,716-849-0214
Robert Yick Co,www.yickcompany.com,San Francisco,California,United States,415-648-3950
Robertson Metal Fabrication,www.rmfab.com,Houston,Texas,United States,713-910-9777
Rock Industries Corporation,www.rockindustriescorp.com,Fort Yates,North Dakota,United States,701-854-4770
Rolok Products,www.rolok.com,Portland ,Oregon,United States,503-285-9851
Royal Manufacturing Industries,www.royalmfgind.com,Santa Ana,California,United States,714-668-9199
Ruoff & Sons Inc,www.ruoffandsons.com,Runnemede,New Jersey,United States,856-931-2064
Russ International Inc,www.russ-international.com,Gardena,California,United States,310-329-7121
Russell Hinton Company,www.russellhinton.com,San Francisco,California,United States,415-206-0150
S.S. Metal Fabricators,www.ssmetalfabricators.com,Costa Mesa,California,United States,949-631-4272
Salsbury Industries,www.salisburyindustries.com,Los Angeles ,California,United States,323-846-6700
Samson Roll Formed Products Company,www.samsonrollform.com,Skokie,Illinois,United States,847-965-6701
Sattler Sheet Metal,www.sattlersheetmetal.com,Nashville ,Tennessee,United States,615-832-7832
Schlemmer Brothers,www.sbmw.com,Wabash,Indiana,United States,260-563-3417
Scientific Research Company,www.srcfab.com,Portland ,Oregon,United States,503-281-7048
Scotty Fabricators Inc,www.consteril.com,Allston,Massachusetts,United States,617-782-7221
SEFI Fabricators Inc,www.imcteddy.com,Amityville,New York,United States,631-842-2200
Shade Tree MFG,www.shadetreemfg.com,Grand Rapids,Michigan,United States,616-791-9089
Sheet Metal Connectors,www.smcduct.com,Rockford,Illinois,United States,815-874-4600
Sheet Metal Fabricators & SUPL,www.smfab.com,Sacramento,California,United States,916-641-6884
Shirlee Industries Inc,www.shirleeindustries.com,Chino,California,United States,909-590-4120
Skyway Roofing Inc,www.skywayroofinginc.com,Albany,New York,United States,518-463-1670
SMC Metals Fabricators Inc,www.smcmetal.com,Oshkosh,Wisconsin,United States,920-426-6080
Southbridge Sheet Metal Works,www.ssmwusa.com,Southbridge,Massachusetts,United States,508-347-7800
"Southeastern Machine & Welding Company, Inc.",,Wilmington,North Carolina,United States,910-791-6661
Southeastern Metal Products,www.sempllc.com,Charlotte,North Carolina,United States,704-596-4017
"Southern Fab & Supports, Inc",www.southernfabandsupports.com,Conroe,Texas,United States,936-539-1181
Spanomatic,www.metalcab.com,Brea,California,United States,714-256-4401
Special Products & MFG Inc,www.spmfg.com,Rockwall,Texas,United States,972-771-8851
Spectrum Lighting,www.speclight.com,Fall River,Massachusetts,United States,508-678-2260
Spiral Pipe of TX,www.spotusa.com,Forth Worth ,Texas,United States,817-877-3543
Spiral Services LLC,www.thehearthshoppe.com,Eau Claire,Wisconsin,United States,715-836-8368
Springfield Engineering Co,www.springfieldengineering.com,Springfield,Missouri,United States,417-869-1539
Stackbin Corporation,www.stackbin.com,Lincoln ,Rhode Island,United States,401-333-1600
Stacy Inc Dba Western Vents And Curbs,www.westernvents.com,Phoenix,Arizona,United States,480-926-1125
Standard Change-Makers Inc,www.standardchange.com,indianapolis,Indiana,United States,317-899-6966
Stanron Steel Specialties DIV,www.stanron.com,Fort Lauderdale,Florida,United States,954-974-8050
Star Precision Fabricating Inc,www.starprecisionfabricating.com,Houston,Texas,United States,713-983-8883
"Steel Craft Technologies, Inc.",www.steelcrafttech.com,Belmont,Michigan,United States,616-866-4400
Steel Plate Fabricators,www.steelplatefab.com,Knoxville ,Tennessee,United States,865-522-1700
Stewart Steel Specialties,www.stewartsteel.us,Farmington,Michigan,United States,248-477-0680
Stoll Metalcraft Inc,www.stoll-metalcraft.com,Valencia,California,United States,661-295-0401
Stowers Manufacturing Company,www.stowersmanufacturing.com,Gadsden,Alabama,United States,256-547-8647
Suburban Sheet Metal,www.suburbansheetmetal.com,Kennedale,Texas,United States,817-478-0801
Sudholt Sheet Metal,www.sudholtsheetmetal.com,Aviston,Illinois,United States,618-228-7351
Sun West Engineering,www.sunwesteng.com,Phoenix,Arizona,United States,602-275-0662
Superior Energies Inc,www.insulationsei.com,Groves,Texas,United States,409-962-8549
Superior Piling Inc,www.superiorpiling.com,Bridgeview,Illinois,United States,708-496-1196
Superior Roofing Service Inc,www.superiorroofing.net,indianapolis,Indiana,United States,317-974-0818
Sweeney Metal Fabrictors Inc,www.sweeneymetal.com,Nashua,New Hampshire,United States,603-881-8720
T G MFG Company,www.tgmmarine.com,Hammonton,New Jersey,United States,609-561-0022
T T & L Sheet Metal Inc,www.ttlsm.com,Beaverton,Oregon,United States,503-641-0552
Tambe Metal Products,www.tambemetal.com,Victor,New York,United States,585-924-3030
Tamer Industries Inc,www.tamerind.com,Somerset,Massachusetts,United States,508-677-0900
Tasco Engineering Division Of Taunton Stove Co,www.tauntonstove.com/,North Dighton,Massachusetts,United States,508-823-0786
Tassos Metal Inc,www.tassosmetal.com,Lombard,Illinois,United States,630-953-1333
Technical Metal Fabricators,www.techmetalfab.com,Mendon,Massachusetts,United States,508-473-2223
Temp-Control Mechanical Corporation,www.tcmcorp.com,Portland ,Oregon,United States,503-285-9851
Tennessee Sheet Metal Inc,www.tennsheetmetal.com,Madison,Tennessee,United States,615-870-1172
Tennison Brothers Inc,www.tennisonbrothers.net,Memphis,Tennessee,United States,901-274-7773
TER Precision,www.terprecision.com,Santa Clara,California,United States,408-986-9920
Texas Duct Systems Inc,www.texasductsystems.com/,Houston,Texas,United States,713-957-1296
Tfabs Steel,www.tfabs.com,Birmingham ,Alabama,United States,205-655-5375
Thayer Supply Co,www.thayersupply.com,Atchison,Kansas,United States,913-367-0675
Thews Sheet Metal,www.thews.com,Pendleton,Oregon,United States,541-276-3751
Tin Man Sheet Metal Fabrics,www.tinmansheetmetalllc.com,Tazewell,Virginia,United States,703-335-8191
Tipke Manufacturing CO Inc,www.tipkemfg.com,Spokane,Washington,United States,509-534-5336
TLK IND Inc,www.tlkind.com,Dundee,Illinois,United States,847-359-3200
Tower Metal Works Inc,www.towermetalworksinc.com,Maple Hill,Kansas,United States,785-256-4281
Trend Technologies LLC,www.trendtechnologies.com,Chino,California,United States,909-597-7861
Triangle Stainless Inc,www.trianglestainless.com,Durham,North Carolina,United States,919-596-1335
Trident Precision MFG,www.tridentprecision.com,Webster ,New York,United States,585-265-2010
Triton Industries Inc,www.tritonindustries.com,Chicago,Illinois,United States,773-384-3700
Trylon Railing,www.trylonrailing.com,Lyndhurst,New Jersey,United States,201-939-8282
Tube Processing Corporation,www.tubeproc.com,indianapolis,Indiana,United States,317-787-1321
Tucker Creek Products Inc,www.tuckercreekproducts.com,Brevard,North Carolina,United States,828-883-2545
Tyler Sheet Metal Inc,www.tylersheetmetal.com,Oklahoma City,Oklahoma,United States,405-672-5344
Ulster Precision Incorporated,www.ulsterprecision.com,Kingston,New York,United States,845-338-0995
United Alloy Inc,www.unitedalloy.com,Janesville,Wisconsin,United States,608-758-4717
United Sheetmetal Inc,www.unitedsheetmetal.com,Sunnyvale,California,United States,408-734-2288
Universal Coolers,www.universalcoolers.com,Brooklyn ,New York,United States,718-788-8621
Universal Sheet Metal Inc,www.universalsheetmetal.com,Woodinville,Washington,United States,425-483-8384
Us Metal Works Inc,www.usmeatrs.com,Sandy ,Oregon,United States,503-668-8036
V M Choppy & Sons,www.vmchoppyandsons.com,Troy ,New York,United States,518-266-1444
Valley Welding & Fabricating,www.valleyweld.com,Hollis,New Hampshire,United States,603-465-3266
Van Mark Products,www.van-mark.com,Farmington,Michigan,United States,248-478-1200
Vance Metal Fabricators Inc,www.vancemetal.com,Geneva,New York,United States,315-789-5626
Van's Industrial Sheet Metal,www.vansindustrial.com,Hammond,Indiana,United States,219-931-4881
Vent Products Company,www.ventproducts.com,Chicago,Illinois,United States,773-521-1900
Vickers Metal Works Inc,www.vickersmetalworks.com,Orlando,Florida,United States,407-297-7546
Viking Sheet Metal Inc,www.vikingsheetmetal.com,South Easton,Massachusetts,United States,508-238-9400
Vin Mar Precision Metal Inc,www.vin-mar.com,Bohemia,New York,United States,631-563-6608
Viron International Corporation,www.vironintl.com,Owosso,Michigan,United States,989-723-8255
Vista Industrial Products Inc,www.vista-industrial.com,Vista,California,United States,760-599-5050
Vortex Company,www.vortexmetal.com,Peabody,Massachusetts,United States,978-535-8721
Waltz-Holst Blowpipe Company,www.waltzholst.com,Ada,Michigan,United States,616-676-8119
Warsaw Engineering & Fbrctng,www.warsaweng.com,Warsaw,Indiana,United States,574-269-1804
Waters Design & Manufacturing LLC,www.watersmfg.com,Fremont,New Hampshire,United States,603-895-5255
Wayne Metalcraft Inc,www.gowayne.com,Brentwood,New York,United States,631-242-0213
Webb Corporation,www.webbcorporation.com,Webb City,Missouri,United States,417-673-4646
Weber Brothers & White Metal,www.weberbros-white.com,Hamilton,Michigan,United States,269-751-5193
WECO Manufacturing,www.wecometal.com,Ontario,New York,United States,585-265-3000
Weickert Industries,www.weickert.com,Long Island City,New York,United States,718-786-6476
Weld-Fab MFG Corporation,www.weld-fabmfg.com,Slinger,Wisconsin,United States,262-644-4131
Weld-Seam Inc,www.weldseam.com,Chicago,Illinois,United States,773-588-1012
West Coast Awning of Clearwater,www.westcoastawnings.com,Clearwater,Florida,United States,727-447-3461
Westco Metalcraft Inc,www.westcometalcraft.com,Livonia,Michigan,United States,734-425-0900
Western Forms Inc,www.aluminumforms.com,Kansas City,Missouri,United States,816-241-0477
Western Sheet Metal,www.westernsheetmetal.com,Irving ,Texas,United States,972-554-8940
Western Tank,www.westerntankco.com,Odessa,Texas,United States,432-337-5049
Wheeler Machinery Sales,www.wheelermachinery.com,Huntington Park,California,United States,323-589-6721
White Industries,www.whiteindustries.net,Willow Springs,Missouri,United States,417-469-2598
Willbanks Steel Corporation,www.willbanksmetals.com,Forth Worth ,Texas,United States,817-625-6161
Wilmington Sheet Metal,www.wilmingtonsheetmetal.com,Wilmington,North Carolina,United States,910-791-6969
Wolfe Industrial Inc,www.wolfeindustrial.com,La Vergne,Tennessee,United States,615-641-6964
Wolverine Bronze Company,www.wolverinebronze.com,Roseville,Michigan,United States,586-776-8180
Wrayco Industries Inc,www.wrayco.com,Rootstoown,Ohio,United States,330-688-5617
Wrico Inc,www.wricoinc.com,Osterville,Massachusetts,United States,508-428-7727
Yanke Machine Shop Inc,www.yanke-energy.com,Boise,Idaho,United States,208-342-8901
Zenith Fabricating Company,www.quincylab.com,Chicago,Illinois,United States,773-622-2601